[{"type":"farm","street":"1221 Riddle Rd","city":"Pauline","state":"sc","zip":"29374","x":"-81.8853370","y":"34.7909070","name":"Anderson Vineyards","website":"","facebook":"","twitter":"","tags":""},{"type":"farm","street":"9760 Randall Rd","city":"McClellanville","state":"sc","zip":"29458","x":"-79.5016931","y":"33.0961315","name":"Blue Pearl Farms","website":"bluepearlfarms.com","facebook":"https://www.facebook.com/bluepearlfarmspage","twitter":"","tags":"canned preserved fresh-fruits honey soap body-care"},{"type":"farm","street":"2331 Muller Road","city":"Blythewood","state":"sc","zip":"29016","x":"-81.0637750","y":"34.2182530","name":"Blythewood Beef","website":"www.blythewoodbeef.com","facebook":"facebook.com/blythewoodbeef","twitter":"","tags":"red-meat non-poultry-meat"},{"type":"farm","street":"100 LYLE ST","city":"MAULDIN","state":"sc","zip":"29662","x":"-82.299578","y":"34.785966","name":"Bohica Pepper Hut","website":"www.bohicapepperhut.com","facebook":"https://business.facebook.com/BohicaPepperHut","twitter":"https://twitter.com/BohicaPepperHut","tags":"fresh-vegetables"},{"type":"farm","street":"1884 Bugby Plantation Road","city":"Wadmalaw Island","state":"sc","zip":"29487","x":"-80.0903945","y":"32.7059843","name":"Brigger Hill Farm","website":"","facebook":"","twitter":"","tags":"fresh-fruits fresh-vegetables"},{"type":"farm","street":"141 Rainbow Road","city":"Conway","state":"sc","zip":"29526","x":"-78.948363","y":"33.889692","name":"Bruces Blueberries","website":"","facebook":"","twitter":"","tags":""},{"type":"farm","street":"454 Damascus Church Road","city":"Long Creek","state":"sc","zip":"29658","x":"-83.2675788","y":"34.7667603","name":"Chattooga Belle Farm","website":"www.ChattoogaBelleFarm.com","facebook":"https://www.facebook.com/pages/Chattooga-Belle-Farm/320833894116?ref=hl","twitter":"","tags":"baked-goods canned preserved crafts woodworking dairy products eggs fresh-fruits honey juices ciders prepared-foods red-meat non-poultry-meat soap body-care wine spirits beer hard-cider"},{"type":"farm","street":"1236 Augusta Road","city":"Trenton","state":"sc","zip":"29847","x":"-81.8720070","y":"33.7458417","name":"Cook's Farm","website":"http://www.cooksfarm.com","facebook":"https://www.facebook.com/pages/Cooks-Roadside-Market/210756652278667","twitter":"","tags":"bedding plants canned preserved fresh-fruits fresh-vegetables honey juices ciders"},{"type":"farm","street":"1576 Sea Island Parkway ","city":"Saint Helena Island","state":"sc","zip":"29920","x":"-80.509848","y":"32.412935","name":"Dempsey Farms UPick","website":"dempseyfarmsupick.com","facebook":"","twitter":"","tags":""},{"type":"farm","street":"2995 highway 174","city":"Edisto Island","state":"sc","zip":"29438","x":"-80.3476050","y":"32.5974480","name":"Geechie Boy Market Mill","website":"geechieboymill.com","facebook":"geechie boy mill","twitter":"https://www.twitter.com/geechie boy mill","tags":"baked-goods canned preserved coffee tea crafts woodworking cut-flowers dairy products dry beans eggs herbs fresh-fruits fresh-vegetables grains flour honey nuts soap body-care"},{"type":"farm","street":"245 Hickory Bluff Lane","city":"Holly Hill","state":"sc","zip":"29059","x":"-80.342703","y":"33.257054","name":"Hickory Bluff Berry Farm","website":"","facebook":"","twitter":"","tags":""},{"type":"farm","street":"220 Moores Mill Rd.","city":"Pelzer","state":"sc","zip":"29669","x":"-82.4963227","y":"34.6826653","name":"Hurricane Creek Farms","website":"www.hurricanecreekfarms.com","facebook":"https://www.facebook.com/HurricaneCreekFarms","twitter":"","tags":"canned preserved dairy products herbs fresh-vegetables grains flour honey red-meat non-poultry-meat"},{"type":"farm","street":"213 Clatty Farm Rd.","city":"Ruffin","state":"sc","zip":"29475","x":"-80.7841184","y":"33.0465746","name":"Lil Johnson Rayanch","website":"","facebook":"","twitter":"","tags":"eggs poultry fowl red-meat non-poultry-meat"},{"type":"farm","street":"29247 Hwy 151 South","city":"McBee","state":"sc","zip":"29101","x":"-80.192793","y":"34.436374","name":"McLeod Farms Market","website":"www.macspride.com","facebook":"www.facebook.com/mcleodfarms","twitter":"","tags":"baked-goods canned preserved coffee tea dairy products fresh-fruits fresh-vegetables honey juices ciders maple-products nuts prepared-foods"},{"type":"farm","street":"1711 North Fraser Street","city":"Georgetown","state":"sc","zip":"29440","x":"-79.2897790","y":"33.3987310","name":"MILLGROVE FARMS TOWN MARKET","website":"http://www.millgrovefarms.com/","facebook":"https://www.facebook.com/pages/Millgrove-Farms/153647867865?ref=hl","twitter":"https://twitter.com/MillgroveFarms","tags":"bedding plants crafts woodworking cut-flowers dairy products dry beans herbs fresh-fruits fresh-vegetables grains flour juices ciders mushrooms red-meat non-poultry-meat"},{"type":"farm","street":"413 29th Avenue North","city":"North Myrtle Beach","state":"sc","zip":"","x":"-78.6398800","y":"33.8328660","name":"Natural Grown Meats","website":"NaturalGrownMeats.com","facebook":"Natural Grown Meats Owners Jeff & Tara Harrelson","twitter":"","tags":""},{"type":"farm","street":"377 Cantey Lane","city":"Rembert","state":"sc","zip":"29128","x":"-80.578306","y":"34.209886","name":"Old McCaskill's Farm","website":"oldmccaskillsfarm@gmail.com ","facebook":"Old McCaskill's Farm","twitter":"","tags":"baked-goods canned preserved dairy products eggs honey poultry fowl prepared-foods soap body-care"},{"type":"farm","street":"135 Mustang Dr","city":"Graniteville","state":"sc","zip":"29829","x":"-81.8623889","y":"33.5306160","name":"RAZE Organic Grown Products","website":"","facebook":"","twitter":"","tags":""},{"type":"farm","street":"","city":"Kershaw ","state":"sc","zip":"29067","x":"-80.5836836","y":"34.5518201","name":"Roberts Family Farm","website":"http://amandaroberts004.wix.com/robertsfamilyfarm","facebook":"https://www.facebook.com/RobertsFamilyFarmKershaw/","twitter":"","tags":"crafts woodworking cut-flowers eggs herbs fresh-fruits fresh-vegetables"},{"type":"farm","street":"4700 Canaan Church Road","city":"Smyrna","state":"sc","zip":"29743","x":"-81.4129309","y":"35.0464950","name":"Roger Ridge Ranch","website":"www.rogerridgeranch.com","facebook":"www.facebook.com/rogerridgeranch","twitter":"","tags":"eggs poultry fowl red-meat non-poultry-meat"},{"type":"farm","street":"140 Edith Drive","city":"Taylors","state":"sc","zip":"29687","x":"-82.316623","y":"34.972519","name":"Satterfield Farms","website":"http://www.facebook.com/satterfieldgrassfedbeef","facebook":"","twitter":"","tags":""},{"type":"farm","street":"1458 Hwy. 20","city":"Abbeville","state":"sc","zip":"29620","x":"-82.377913","y":"34.179935","name":"Southern Oaks Jersey Farm & Creamery","website":"","facebook":"","twitter":"","tags":"dairy products eggs honey poultry fowl red-meat non-poultry-meat soap body-care"},{"type":"farm","street":"1010 Springfield Parkway","city":"Fort Mill","state":"sc","zip":"29716","x":"-80.9145807","y":"35.0404714","name":"Springs Farm","website":"www.springsfarm.com","facebook":"www.facebook.com/springsfarm","twitter":"","tags":"baked-goods canned preserved dairy products eggs herbs fresh-fruits fresh-vegetables honey juices ciders"},{"type":"farm","street":"701 Singleton Lane","city":"Sumter","state":"sc","zip":"29154","x":"-80.3618041","y":"33.8962570","name":"Sunny Cedars Farm","website":"www.sunnycedars.com","facebook":"https://www.facebook.com/sunnycedars","twitter":"","tags":"red-meat non-poultry-meat"},{"type":"farm","street":"10 South Main Street","city":"Travelers Rest","state":"sc","zip":"29690","x":"-82.443133","y":"34.967438","name":"The Carolina Honey Bee Company - Carolina Bee Supply LLC","website":"https://www.carolinahoneybeecompany.com","facebook":"https://www.facebook.com/CarolinaHoneyBeeCompany","twitter":"https://twitter.com/CarolinaBeeCo","tags":"honey"},{"type":"farm","street":"510 Gap Hill Rd. - No Mail Receptacle","city":"Six Mile","state":"sc","zip":"29682","x":"-82.869578","y":"34.839952","name":"The Happy Berry","website":"www.thehappyberry.com","facebook":"","twitter":"","tags":"cut-flowers fresh-fruits nursery-stock"},{"type":"farm","street":"8603 Van Wyck Road","city":"Lancaster","state":"sc","zip":"29720","x":"-80.8608850","y":"34.8909080","name":"The Ivy Place LLC","website":"www.ivyplaceevents.com","facebook":"www.facebook.com/theivyplace","twitter":"www.twitter.com/theivyplace","tags":"cut-flowers fresh-fruits"},{"type":"farm","street":"1325 Hwy 160 West","city":"Fort Mill","state":"sc","zip":"29715","x":"-80.9576696","y":"35.0193339","name":"The Peach Stand","website":"www.peachstand.com","facebook":"www.facebook.com/peachstand","twitter":"","tags":"baked-goods canned preserved coffee tea crafts woodworking dairy products eggs fish seafood herbs fresh-fruits fresh-vegetables grains flour honey juices ciders maple-products mushrooms nuts poultry fowl prepared-foods red-meat non-poultry-meat soap body-care wine spirits beer hard-cider"},{"type":"farm","street":"211 Melaleuca lane","city":"Abbeville ","state":"sc","zip":"29620","x":"-82.416065","y":"34.174325","name":"The Twenty-eight Eleven (The 2811)","website":"www.the2811.com","facebook":"www.facebook.com/the2811","twitter":"","tags":"eggs fresh-vegetables honey poultry fowl"},{"type":"farm","street":"713 Colony Road","city":"Chester","state":"sc","zip":"29706","x":"-81.213222","y":"34.811077","name":"Watson Farms Pastured Meats","website":"http://www.watsonfarmsbeef.com/","facebook":"http://www.facebook.com/watsonfarms","twitter":"http://twitter.com/watsonfarmsbeef","tags":"poultry fowl"},{"type":"farm","street":"","city":"Taylors","state":"sc","zip":"29687","x":"-82.348271","y":"34.999269","name":"Whites Jersey Dairy","website":"","facebook":"","twitter":"","tags":"dairy products"},{"type":"market","name":"106 S. Main Street Farmers Market","website":"http://thetownofsixmile.wordpress.com/","facebook":"","twitter":"","street":"106 S. Main Street","city":"Six Mile","state":"sc","zip":"29682","x":"-82.8187","y":"34.8042","tags":""},{"type":"market","name":"Abbeville Farmers Market","website":"","facebook":"","twitter":"","street":"118 Trinity Street at Livery Stable","city":"Abbeville","state":"sc","zip":"29620","x":"-82.380242","y":"34.177429","tags":"baked goods crafts eggs herbs vegetables honey meat plants soap fruits"},{"type":"market","name":"Aiken County Farmers Market","website":"http://www.VisitAikenSC.com","facebook":"","twitter":"","street":"897 Richland Avenue East","city":"Aiken","state":"sc","zip":"29801","x":"-81.7084941","y":"33.5568819","tags":"organic eggs"},{"type":"market","name":"All-Local Farmers Market","website":"http://www.stateplate.org","facebook":"","twitter":"","street":"711 Whaley St","city":"Columbia","state":"sc","zip":"29205","x":"-81.0358","y":"33.9847","tags":""},{"type":"market","name":"All-Local Farmers Market 2","website":"http://www.localharvest.org","facebook":"","twitter":"","street":"Rosewood market on Rosewood Drive at Maple Street","city":"Columbia","state":"sc","zip":"","x":"-81.0044","y":"33.9874","tags":""},{"type":"market","name":"Allendale County Farmers Market","website":"","facebook":"","twitter":"","street":"Corner of Bay Street & US Highway 301","city":"Allendale","state":"sc","zip":"29810","x":"-81.3191","y":"33.0044","tags":""},{"type":"market","name":"Anderson County Farmers Market","website":"https://www.andersoncountysc.org/parks/","facebook":"www.facebook.com/andersoncountyfarmersmarket","twitter":"","street":"402 N. Murray Ave","city":"Anderson","state":"sc","zip":"29621","x":"-82.652197","y":"34.506898","tags":"baked goods cheese crafts flowers eggs herbs vegetables honey jams meat plants poultry prepared-foods soap trees fruits pet food"},{"type":"market","name":"Ashland United Methodist Church Farmers Market","website":"http://www.ashlandumc.com/gallery/seeds/seeds.htm","facebook":"","twitter":"","street":"2600 Ashland Road","city":"Columbia","state":"sc","zip":"29210","x":"-81.1279","y":"34.0412","tags":""},{"type":"market","name":"Awendaw Farmers and Fresh Seafood Market","website":"","facebook":"","twitter":"","street":"6971 Doar Rd.","city":"Awendaw","state":"sc","zip":"29429","x":"-79.644","y":"32.9901","tags":""},{"type":"market","name":"Belton Farmers Market","website":"","facebook":"","twitter":"","street":"North Main Street & Blake Street","city":"Belton","state":"sc","zip":"29627","x":"-82.496","y":"34.5268","tags":""},{"type":"market","name":"Buckwalters Farmers Market","website":"","facebook":"","twitter":"","street":"101 Buckwalter Place","city":"Bluffton","state":"sc","zip":"29910","x":"-80.9169","y":"32.2715","tags":""},{"type":"market","name":"Calhoun County Farmers Market","website":"","facebook":"","twitter":"","street":"Indepedence Street","city":"St. Matthews","state":"sc","zip":"29135","x":"-80.7799","y":"33.6647","tags":""},{"type":"market","name":"Carolina Forest Farmers Market","website":"http://waccamawmarkets.org/","facebook":"https://www.facebook.com/WaccamawMarketCooperative/","twitter":"","street":"2554 Carolina Forest Blvd","city":"Myrtle Beach ","state":"sc","zip":"29579","x":"-78.9601017","y":"33.7601724","tags":"baked goods cheese crafts flowers eggs seafood herbs vegetables honey jams meat nuts poultry prepared-foods soap coffee fruits juices"},{"type":"market","name":"Carolina fresh market and more","website":"","facebook":"CarolinafreshmarketandmoreSC","twitter":"","street":"6619 hwy 29 north","city":"Pelzer ","state":"sc","zip":"29669","x":"-82.4614","y":"34.641892","tags":"baked goods cheese eggs herbs vegetables honey jams poultry prepared-foods soap coffee fruits"},{"type":"market","name":"Certified SC Winter Farmers Market","website":"http://www.agriculture.sc.gov","facebook":"","twitter":"","street":"3483 Charleston Highway","city":"West Columbia","state":"sc","zip":"29172","x":"-81.0652553","y":"33.9043794","tags":"baked goods cheese crafts eggs herbs vegetables honey jams maple meat nuts prepared-foods soap"},{"type":"market","name":"Charleston Farmers Market","website":"http://CharlestonFarmersMarket.com","facebook":"https://www.facebook.com/CharlestonFarmersMarket/?ref=settings","twitter":"@charlestonfarms","street":"329 Meeting Street","city":"Charleston","state":"sc","zip":"29403","x":"-79.9356904","y":"32.7868670","tags":"organic baked goods cheese crafts flowers eggs seafood herbs vegetables honey jams maple meat nuts plants poultry prepared-foods soap trees coffee beans fruits grains juices mushrooms pet food tofu wild"},{"type":"market","name":"Cheraw Farmers Market","website":"","facebook":"https://www.facebook.com/CHERAWFAMERSMARKET","twitter":"","street":"101 Front Street","city":"Cheraw","state":"sc","zip":"29520","x":"-79.880519","y":"34.697158","tags":"organic"},{"type":"market","name":"Chester Farmers & Artisans Market","website":"http://www.chestersc.org","facebook":"https://www.facebook.com/CityofChesterSC/","twitter":"","street":"111 Columbia Street","city":"Chesster","state":"sc","zip":"29706","x":"-81.213620","y":"34.704029","tags":"baked goods cheese crafts flowers eggs seafood vegetables honey jams plants soap beans fruits"},{"type":"market","name":"City Center Farmers Market","website":"","facebook":"citycenterfarmersmarket","twitter":"","street":"369 West Cheves Street","city":"Florence","state":"sc","zip":"29501","x":"-79.771393","y":"34.195452","tags":"organic baked goods cheese crafts eggs seafood herbs vegetables honey jams maple meat nuts plants poultry prepared-foods soap trees coffee beans fruits grains juices mushrooms pet food wild"},{"type":"market","name":"City of Barnwell Farmers' Market","website":"http://www.cityofbarnwell.com","facebook":"https://www.facebook.com/pages/City-of-Barnwell-Parks-Recreation-Department/210794655667183","twitter":"","street":"9987 Dunbarton Blvd.","city":"Barnwell ","state":"sc","zip":"29812","x":"-81.3761158","y":"33.2436910","tags":"baked goods cheese crafts flowers eggs seafood herbs vegetables honey jams maple nuts plants prepared-foods soap trees coffee beans fruits grains"},{"type":"market","name":"Clemson Area Food Exchange (CAFE) ","website":"http://www.clemsonareafoodexchange.com/","facebook":"","twitter":"","street":"212 Butler St","city":"Clemson","state":"sc","zip":"29631","x":"-82.8229","y":"34.6861","tags":""},{"type":"market","name":"Clemson Farm-Fresh Market","website":"http://www.clemson.edu/cafls/farm_fresh_market/","facebook":"https://www.facebook.com/CUFarmFresh","twitter":"https://twitter.com/CUFarmFresh","street":"Intersection of Fort Hill Street and Calhoun Drive","city":"Clemson","state":"sc","zip":"29634","x":"-82.837890","y":"34.679241","tags":"baked goods cheese crafts flowers eggs herbs vegetables honey jams maple meat prepared-foods soap fruits"},{"type":"market","name":"Clemson Farmers' Market","website":"http://www.clemsonfarmersmarket.org","facebook":"","twitter":"","street":"578 Issaqueena Trail","city":"Clemson","state":"sc","zip":"29631","x":"-82.787","y":"34.6844","tags":"cheese crafts flowers herbs vegetables honey jams meat plants"},{"type":"market","name":"Colleton Farmers Market","website":"http://www.colletonmuseum.com/farmersmarket.aspx","facebook":"","twitter":"","street":"506 E. Washington Street","city":"Walterboro","state":"sc","zip":"29488","x":"-80.66095","y":"32.903596","tags":"baked goods crafts eggs seafood herbs vegetables honey jams maple nursery plants prepared-foods soap trees"},{"type":"market","name":"Community Farmers Market at Brookland Baptist Church","website":"http://www.prosperityforall.org","facebook":"","twitter":"","street":"1066 Sunset Blvd.","city":"West Columbia","state":"sc","zip":"29169","x":"-81.072324","y":"33.997394","tags":"vegetables fruits"},{"type":"market","name":"Conway Farmers Market","website":"http://waccamawmarkets.org/","facebook":"https://www.facebook.com/WaccamawMarketCooperative/","twitter":"","street":"217 Laurel St","city":"Conway","state":"sc","zip":"29526","x":"-79.0469799","y":"33.8342831","tags":"baked goods cheese crafts flowers eggs seafood herbs vegetables honey jams meat nuts poultry prepared-foods soap coffee fruits juices"},{"type":"market","name":"Cross Community Centers Farmers Market","website":"","facebook":"","twitter":"","street":"1690 Old Highway 6","city":"Cross ","state":"sc","zip":"29436","x":"-80.191506","y":"33.363886","tags":"eggs vegetables honey jams plants"},{"type":"market","name":"Cypress Center Farmers' Market","website":"","facebook":"","twitter":"","street":"50 E. Hospital St., Ste. 5","city":"Manning","state":"sc","zip":"29102","x":"-80.211023","y":"33.687152","tags":"organic herbs vegetables honey nuts soap beans fruits juices wild"},{"type":"market","name":"Downtown Beaufort Farmers Market","website":"","facebook":"https://www.facebook.com/Downtownbftfarmersmarket/?fref=ts","twitter":"","street":"1501 Bay Street","city":"Beaufort","state":"sc","zip":"29902","x":"-80.679578","y":"32.433759","tags":"organic baked goods vegetables fruits"},{"type":"market","name":"Downtown Farmers Market","website":"http://www.lancastercitysc.com ","facebook":"https://www.facebook.com/seelancastercity","twitter":"","street":"101 North Main Street","city":"Lancaster","state":"sc","zip":"29720","x":"-80.770914","y":"34.721099","tags":"organic baked goods crafts flowers eggs herbs vegetables honey jams meat plants prepared-foods soap fruits"},{"type":"market","name":"Due West Farmers Market","website":"http://www.duewestfarmers.org","facebook":"","twitter":"","street":"Hwy. 184 & Beulah Street","city":"Due West","state":"sc","zip":"29639","x":"-82.3863","y":"34.3355","tags":""},{"type":"market","name":"Earth Markets, Greenville SC ","website":"http://www.elorafarmersmarket.com/","facebook":"https://www.facebook.com/elora.mkt","twitter":"","street":"NoMa Square 220 North Main St.","city":"Greenville ","state":"sc","zip":"29601","x":"-82.401","y":"34.848","tags":""},{"type":"market","name":"Easley Farmers Market","website":"http://www.easleyfarmersmarket.com","facebook":"https://www.facebook.com/pages/Easley-Farmers-Market/267688189316","twitter":"yes","street":"205 N. 1st St","city":"Easley","state":"sc","zip":"29640","x":"-82.605","y":"34.8303","tags":"baked goods cheese crafts flowers eggs seafood herbs vegetables honey jams meat plants poultry prepared-foods soap trees fruits"},{"type":"market","name":"Ebenezer Lutheran Church Farmers Market","website":"http://www.ebenezerlutheran.org","facebook":"","twitter":"","street":"1301 Richland Street","city":"Columbia","state":"sc","zip":"29201","x":"-81.0361","y":"34.0112","tags":""},{"type":"market","name":"Elko Farmers' Market","website":"","facebook":"https://www.facebook.com/groups/496167037104692/","twitter":"","street":"10012 Hwy. 78","city":"Elko","state":"sc","zip":"29826","x":"-81.379214","y":"33.380738","tags":"baked goods crafts flowers eggs herbs vegetables honey jams nuts plants soap trees fruits"},{"type":"market","name":"Elloree Farmers Market","website":"","facebook":"","twitter":"","street":"Cleveland & Railroad Avenues","city":"Elloree","state":"sc","zip":"29431","x":"-80.5745","y":"33.5332","tags":""},{"type":"market","name":"Farmers Market of Bluffton","website":"http://www.farmersmarketbluffton.org","facebook":"farmersmarketbluffton","twitter":"","street":"40 Calhoun Street","city":"Bluffton","state":"sc","zip":"29910","x":"-80.862568","y":"32.234811","tags":"organic baked goods cheese flowers eggs seafood herbs vegetables honey jams meat nuts plants prepared-foods trees coffee fruits grains pet food"},{"type":"market","name":"Five Rivers Market @ State Farmers Market","website":"http://www.fiveriversmarket.com","facebook":"https://www.facebook.com/fiveriversmarket","twitter":"https://twitter.com/5riversmarket","street":"322 Little Brooke Lane","city":"West Columbia","state":"sc","zip":"29172","x":"-81.060719","y":"33.903579","tags":"baked goods cheese crafts flowers eggs seafood herbs vegetables honey jams meat nuts plants poultry prepared-foods soap wine coffee fruits grains juices wild"},{"type":"market","name":"Forest Acres Farmers Market","website":"http://www.farmersintheforest.org","facebook":"https://www.facebook.com/forestacresfarmersmarket","twitter":"","street":"3400 Forest Drive- Beltline side of Richland Mall ","city":"Columbia","state":"sc","zip":"29204","x":"-80.987500","y":"34.015314","tags":"baked goods crafts flowers eggs seafood vegetables honey jams meat poultry prepared-foods trees fruits grains"},{"type":"market","name":"Fountain Inn Farmers Market","website":"http://www.fountaininn.org/community","facebook":"https://www.facebook.com/pages/Fountain-Inn-Farmers-Market/145752362165088","twitter":"","street":"102 Depot Street","city":"Fountain Inn","state":"sc","zip":"29644","x":"-82.1996","y":"34.6924","tags":"baked goods cheese crafts flowers eggs seafood herbs vegetables honey jams meat nuts plants poultry soap fruits"},{"type":"market","name":"Freshfields Village Farmers Market","website":"http://www.freshfieldsvillage.com","facebook":"","twitter":"","street":"149 Village Green Ln.","city":"Johns Island","state":"sc","zip":"29455","x":"-80.1491","y":"32.6079","tags":""},{"type":"market","name":"Gaffney Station Farmers Market   Gaffney Station Farmers Market","website":"","facebook":"","twitter":"","street":"Corner of Frederick St. and Granard St.","city":"Gaffney","state":"sc","zip":"29342","x":"-81.648","y":"35.0763","tags":""},{"type":"market","name":"Georgetown County Farmers Market","website":"","facebook":"","twitter":"","street":"310 Greenwich Drive","city":"Georgetown","state":"sc","zip":"29440","x":"-79.276485","y":"33.359961","tags":"baked goods cheese vegetables honey plants"},{"type":"market","name":"Georgetown Farmers Market","website":"http://waccamawmarkets.org/","facebook":"https://www.facebook.com/WaccamawMarketCooperative/","twitter":"","street":"122 Screven St","city":"Georgetown","state":"sc","zip":"29440","x":"-79.2817826","y":"33.3662089","tags":"baked goods cheese crafts flowers eggs seafood herbs honey jams meat nuts poultry prepared-foods soap coffee fruits juices"},{"type":"market","name":"Good Living Marketplace","website":"http://www.hartsvilledowntown.org","facebook":"","twitter":"","street":"Cargill Way, between 4th and 5th Streets","city":"Hartsville","state":"sc","zip":"29551","x":"-80.071428","y":"34.373868","tags":"organic baked goods cheese crafts flowers eggs herbs vegetables honey jams maple meat nursery nuts plants poultry prepared-foods soap trees"},{"type":"market","name":"Goose Creek Farmers Market","website":"","facebook":"https://www.facebook.com/pages/Goose-Creek-Farmers-Market/191002867601107","twitter":"","street":"150 Howe Hall Rd.","city":"Goose Creek","state":"sc","zip":"29445","x":"-80.025282","y":"32.978133","tags":"herbs vegetables honey jams nuts fruits"},{"type":"market","name":"Grace United Methodist Church Farmers Market","website":"","facebook":"","twitter":"","street":"410 Harbison Boulevard","city":"Columbia","state":"sc","zip":"29212","x":"-81.1496","y":"34.0805","tags":""},{"type":"market","name":"Greenville State Farmers Market","website":"http://www.agriculture.sc.gov","facebook":"https://www.facebook.com/pages/Greenville-State-Farmers-Market/221694794510717","twitter":"","street":"1354 Rutherford Road","city":"Greenville","state":"sc","zip":"29609","x":"-82.367646","y":"34.893424","tags":"baked goods cheese crafts eggs herbs vegetables honey jams maple nuts plants trees beans fruits"},{"type":"market","name":"Greenwood Farmers Market","website":"","facebook":"","twitter":"","street":"123 Oakridge Dr.","city":"Greenwood  Greenwood","state":"sc","zip":"29549","x":"-82.1403","y":"34.2115","tags":""},{"type":"market","name":"Grow Newberry Main Street Farmers Market","website":"","facebook":"","twitter":"","street":"Memorial Square","city":"Newberry","state":"sc","zip":"29108","x":"-81.5983","y":"34.2703","tags":""},{"type":"market","name":"Hamoton County Farmer's Market","website":"","facebook":"","twitter":"","street":"608 Elm ST East","city":"Hampton ","state":"sc","zip":"29924","x":"-81.103409","y":"32.862841","tags":"vegetables"},{"type":"market","name":"Healthy Carolina Farmers Market","website":"http://www.sa.sc.edu/healthycarolina/farmersmarket/","facebook":"https://www.facebook.com/HealthyCarolina","twitter":"@MyHlthyCarolina","street":"Greene Street between Sumter and Bull Streets","city":"Columbia","state":"sc","zip":"29208","x":"-81.027815","y":"33.996827","tags":"organic baked goods cheese herbs vegetables honey soap fruits grains"},{"type":"market","name":"Hub City Farmers' Market","website":"http://Hubcityfm.org","facebook":"@HubCityFM","twitter":"@HubCityFM","street":"498 Howard St.","city":"Spartanburg","state":"sc","zip":"29303","x":"-81.9424130","y":"34.9562450","tags":"baked goods crafts eggs seafood herbs vegetables honey jams meat nuts plants poultry prepared-foods soap trees wine coffee beans fruits juices mushrooms pet food wild"},{"type":"market","name":"Inman Fresh Farmers Market","website":"","facebook":"","twitter":"","street":"","city":"Inman","state":"sc","zip":"29349","x":"-82.0901088","y":"35.0470617","tags":"baked goods eggs seafood vegetables honey jams plants soap trees wine fruits"},{"type":"market","name":"Iva Farmers Market","website":"","facebook":"","twitter":"","street":"S.C. Hwy 81 and Broad Street","city":"Iva","state":"sc","zip":"","x":"-82.6639","y":"34.3066","tags":""},{"type":"market","name":"Jasper County Farmers Market","website":"http://www.jaspercountysc.org/secondary","facebook":"","twitter":"","street":"9935 South Jacob Smart Blv. (Hwy. 17 S.)","city":"Rigeland","state":"sc","zip":"29936","x":"-80.9802","y":"32.4818","tags":""},{"type":"market","name":"Jefferson Farmers Market","website":"","facebook":"","twitter":"","street":"Highway 151","city":"Jefferson","state":"sc","zip":"29718","x":"-80.3824","y":"34.6717","tags":""},{"type":"market","name":"Johns Island Farmers Market Homegrown","website":"http://www.johnsislandfarmersmarket.com","facebook":"https://www.facebook.com/HomeGrownFarmersMarket","twitter":"https://twitter.com/HomegrownJIFM","street":"3546 Maybank Highway","city":"Johns Island ","state":"sc","zip":"29455","x":"-80.078495","y":"32.723233","tags":"organic baked goods cheese crafts flowers eggs herbs vegetables honey jams meat plants poultry prepared-foods soap trees coffee beans fruits grains juices pet food wild"},{"type":"market","name":"Johnston Farmers Market","website":"","facebook":"","twitter":"","street":"Hwy 23 and Calhoun Street","city":"Johnston","state":"sc","zip":"","x":"-81.8095","y":"33.8249","tags":""},{"type":"market","name":"JR'S Farmers Market","website":"http://www.jrsfarmersmarket.com","facebook":"https://www.facebook.com/jrsfarmersmarket","twitter":"","street":"978 B South Live Oak Drive","city":"Moncks Corner","state":"sc","zip":"29461","x":"-80.038141","y":"33.172874","tags":"baked goods crafts eggs seafood honey jams nuts plants prepared-foods soap trees coffee fruits"},{"type":"market","name":"Kershaw County Farmers Market","website":"http://www.kcfarmersmarket.org/","facebook":"https://www.facebook.com/KCFMMarket/","twitter":"","street":"906 Broad Street","city":"Camden ","state":"sc","zip":"29021","x":"-80.6061919","y":"34.2432640","tags":"organic baked goods crafts eggs herbs vegetables honey jams meat plants poultry prepared-foods soap trees coffee fruits pet food"},{"type":"market","name":"Lake City Farmers Market","website":"","facebook":"","twitter":"","street":"111 Henry Street","city":"Lake City","state":"sc","zip":"29560","x":"-79.754055","y":"33.870752","tags":"baked goods crafts flowers eggs seafood herbs vegetables honey jams maple nuts plants prepared-foods trees fruits"},{"type":"market","name":"Laurens Farmers Market","website":"","facebook":"","twitter":"","street":"Historic Downtown Laurens","city":"Laurens","state":"sc","zip":"29360","x":"-82.0151","y":"34.4946","tags":""},{"type":"market","name":"Lexington's Old Mill Farmers Market","website":"","facebook":"","twitter":"","street":"711 East Main Street","city":"Lexington","state":"sc","zip":"29072","x":"-81.2288","y":"33.9776","tags":""},{"type":"market","name":"Little River Farmers Market","website":"http://waccamawmarkets.org/","facebook":"https://www.facebook.com/WaccamawMarketCooperative/","twitter":"","street":"4460 Mineola Ave","city":"Little River","state":"sc","zip":"29566","x":"-78.6112490","y":"33.8721240","tags":"baked goods cheese crafts flowers eggs seafood herbs vegetables honey jams meat nuts poultry prepared-foods soap trees coffee fruits juices"},{"type":"market","name":"Local Farmers Market at the Shoppes at the Flight Deck in Lexington","website":"","facebook":"","twitter":"","street":"109 Old Chapin Rd.","city":"Lexington","state":"sc","zip":"29072","x":"-81.2465","y":"33.9878","tags":""},{"type":"market","name":"Lutheran Church of the Resurrection-Seeds of Hope","website":"","facebook":"","twitter":"","street":"3707 Moss Ave.","city":"Columbia","state":"sc","zip":"29205","x":"-80.9901","y":"33.9868","tags":""},{"type":"market","name":"Main Street Marketplace","website":"","facebook":"","twitter":"","street":"Corner of Hampton Street & Main Street","city":"Columbia","state":"sc","zip":"29201","x":"-81.0357","y":"34.0054","tags":""},{"type":"market","name":"Manning Farmers Market","website":"","facebook":"","twitter":"","street":"SC Highway 261 East","city":"Manning","state":"sc","zip":"29102","x":"-80.2121","y":"33.6892","tags":""},{"type":"market","name":"Marion County Farmers Market","website":"","facebook":"","twitter":"","street":"Highway 76","city":"Mullins","state":"sc","zip":"29574","x":"-79.1937","y":"34.1885","tags":""},{"type":"market","name":"Market Common Farmers Market","website":"http://waccamawmarkets.org/","facebook":"https://www.facebook.com/WaccamawMarketCooperative/","twitter":"","street":"Deville St","city":"Myrtle Beach ","state":"sc","zip":"29577","x":"-78.9390094","y":"33.6699343","tags":"baked goods cheese crafts flowers eggs seafood vegetables honey jams meat nuts poultry prepared-foods soap coffee fruits juices"},{"type":"market","name":"Marlboro County Farmers Market","website":"","facebook":"","twitter":"","street":"500 Broad Street","city":"Bennettsville","state":"sc","zip":"29512","x":"-79.6812","y":"34.61099","tags":"vegetables"},{"type":"market","name":"Mauldin Farmers Market","website":"http://www.mauldinculturalcenter.org/mauldin-market","facebook":"https://www.facebook.com/mauldinmarket/","twitter":"","street":"101 East Butler Road","city":"Mauldin","state":"sc","zip":"29662","x":"-82.3063956","y":"34.7796468","tags":"organic baked goods cheese crafts eggs seafood herbs vegetables honey jams meat nuts poultry prepared-foods soap wine coffee fruits juices pet food"},{"type":"market","name":"McClellanville Land and Sea Market","website":"http://landandseamcvl.com","facebook":"McClellanville Land and Sea Market","twitter":"","street":"1369 N Pinckney Street","city":"McClellanville","state":"sc","zip":"29458","x":"-79.469020","y":"33.099164","tags":"organic baked goods cheese crafts flowers seafood herbs vegetables honey meat plants poultry prepared-foods soap trees coffee fruits mushrooms wild"},{"type":"market","name":"McCormick Market ","website":"http://www.localharvest.org/mccormick-market-M57929","facebook":"https://www.facebook.com/McCormickMarket","twitter":"","street":"115 S. Main St. ","city":"McCormick","state":"sc","zip":"29835","x":"-82.2939","y":"33.9121","tags":""},{"type":"market","name":"Metanoia/Chicora Farmers Market","website":"http://www.pushingforward.org","facebook":"","twitter":"","street":"2005 Reynolds Avenue","city":"North Charlston","state":"sc","zip":"29405","x":"-79.9722","y":"32.8554","tags":""},{"type":"market","name":"Moncks Corner Farmers Market","website":"http://www.monckscornersc.gov/farmers-market","facebook":"https://www.facebook.com/monckscornersc.gov/","twitter":"","street":"418 E. Main Street","city":"Moncks Corner","state":"sc","zip":"29461","x":"-80.003717","y":"33.193564","tags":"baked goods cheese crafts eggs seafood herbs vegetables honey meat poultry prepared-foods soap coffee fruits juices"},{"type":"market","name":"Mount Pleasant Farmers Market","website":"http://www.comeonovermp.com/index.aspx?NID=110","facebook":"https://www.facebook.com/MountPleasantFarmersMarket","twitter":"","street":"645 Coleman Boulevard","city":"Mount Pleasant","state":"sc","zip":"29464","x":"-79.873400","y":"32.790718","tags":"organic baked goods flowers eggs seafood herbs vegetables honey jams meat plants poultry prepared-foods trees coffee fruits"},{"type":"market","name":"Myrtle's Market (Myrtle Beach Farmers Market)","website":"http://www.cityofmyrtlebeach.com","facebook":"","twitter":"","street":"10th Avenue & Oak Street","city":"Myrtle Beach","state":"sc","zip":"29578","x":"-78.8824","y":"33.6966","tags":""},{"type":"market","name":"Ninety Six Farmers Market","website":"","facebook":"","twitter":"","street":"SC Hwy 34 & Cane Bridge St","city":"Ninety Six","state":"sc","zip":"29666","x":"-82.0231","y":"34.1751","tags":""},{"type":"market","name":"North Charleston Farmers Market","website":"http://northcharleston.org","facebook":"https://www.facebook.com/NoChasFarmersMarket/","twitter":"","street":"4800 Park Pl East","city":"North Charleston","state":"sc","zip":"29405","x":"-79.9831924","y":"32.8815015","tags":"baked goods cheese crafts flowers eggs seafood vegetables honey jams meat poultry prepared-foods soap fruits pet food"},{"type":"market","name":"North Myrtle Beach Farmers Market","website":"http://www.waccamawmarkets.org","facebook":"https://www.facebook.com/WaccamawMarketCooperative/","twitter":"","street":"925 First Avenue South","city":"North Myrtle Beach","state":"sc","zip":"29582","x":"-78.683173","y":"33.827655","tags":"baked goods cheese crafts flowers eggs seafood herbs vegetables honey jams meat nuts poultry prepared-foods soap trees coffee fruits juices"},{"type":"market","name":"Northeast Farmers Market","website":"http://www.Lakecarolina.com","facebook":"","twitter":"","street":"Lake Carolina Town Center","city":"Columbia","state":"sc","zip":"29229","x":"-80.8965","y":"34.1774","tags":"baked goods cheese crafts flowers eggs seafood herbs vegetables honey meat nursery plants poultry soap trees"},{"type":"market","name":"Old Town Farmers Market","website":"http://www.onlyinoldtown.com/market","facebook":"https://www.facebook.com/onlyinoldtownmarket","twitter":"","street":"115 Caldwell Street","city":"Rock Hill","state":"sc","zip":"29730","x":"-81.025782","y":"34.925519","tags":"baked goods cheese crafts flowers eggs herbs vegetables honey jams maple meat plants poultry soap wine fruits juices"},{"type":"market","name":"Pageland Farmers Market","website":"","facebook":"","twitter":"","street":"3062 Highway. 601, north of city","city":"Pageland","state":"sc","zip":"29727","x":"-80.4131","y":"34.8096","tags":""},{"type":"market","name":"Pawleys Island Farmers Market","website":"","facebook":"","twitter":"","street":"","city":"Pawleys Island","state":"sc","zip":"29585","x":"-79.122570","y":"33.452713","tags":"baked goods cheese eggs vegetables honey meat plants soap"},{"type":"market","name":"Pee Dee State Farmers Market","website":"http://www.pdfarmersmarket.sc.gov","facebook":"","twitter":"","street":"2513 West Lucas Street","city":"Florence","state":"sc","zip":"29501","x":"-79.814","y":"34.2417","tags":"baked goods cheese eggs seafood herbs vegetables honey jams maple meat nuts plants prepared-foods soap trees wine fruits"},{"type":"market","name":"Pendleton Farmers Market","website":"http://www.pendletonfarmersmarket.org","facebook":"","twitter":"","street":"On the Village Green","city":"Pendleton","state":"sc","zip":"29670","x":"-82.7816","y":"34.6409","tags":""},{"type":"market","name":"Pigeon Point Farmers Market","website":"","facebook":"","twitter":"","street":"1512 Pigeon Point Rd.","city":"Beaufort","state":"sc","zip":"","x":"-80.6728","y":"32.4439","tags":""},{"type":"market","name":"Port Royal Farmers Market","website":"http://www.portroyalfarmersmarket.com","facebook":"","twitter":"","street":"1615 Ribaut Road","city":"Port Royal","state":"sc","zip":"29935","x":"-80.6923","y":"32.3779","tags":""},{"type":"market","name":"Ralph H. Johnson Medical Center Farmers Market","website":"","facebook":"","twitter":"","street":"109 Bee St.","city":"Charleston","state":"sc","zip":"29401","x":"-79.954","y":"32.7841","tags":""},{"type":"market","name":"Richland County","website":"","facebook":"","twitter":"","street":"2440 Atlas Road","city":"Columbia","state":"sc","zip":"29209","x":"-80.9743","y":"33.942","tags":""},{"type":"market","name":"Right Choice, Fresh Start Farmers' Market","website":"http://www.myfhc.org","facebook":"https://www.facebook.com/Family-Health-Centers-Farmers-Market-243660653033996/","twitter":"","street":"3310 Magnolia St.","city":"Orangeburg","state":"sc","zip":"29115","x":"-80.838621","y":"33.528187","tags":"vegetables fruits"},{"type":"market","name":"Right Choice, Fresh Start Farmers' Market","website":"http://www.myfhc.org","facebook":"https://www.facebook.com/Family-Health-Centers-Farmers-Market-243660653033996/","twitter":"","street":"5484 Carolina Hwy","city":"Denmark","state":"sc","zip":"29042","x":"-81.1442720","y":"33.3150790","tags":"eggs vegetables fruits"},{"type":"market","name":"Saluda County Farmers Market","website":"","facebook":"","twitter":"","street":"City Hall Parking Lot","city":"Ridge Spring","state":"sc","zip":"29129","x":"-81.6606","y":"33.8451","tags":""},{"type":"market","name":"Sandhill Farmers Market","website":"https://www.clemson.edu/public/sandhill/programs/farmers_market.html","facebook":"","twitter":"","street":"900 Clemson Road","city":"Columbia","state":"sc","zip":"29229","x":"-80.875834","y":"34.132653","tags":"baked goods cheese crafts flowers eggs herbs vegetables honey jams plants poultry prepared-foods soap trees fruits mushrooms"},{"type":"market","name":"Seneca Farmers Market","website":"","facebook":"","twitter":"","street":"Main Street","city":"Seneca","state":"sc","zip":"29678","x":"-82.9515","y":"34.6851","tags":""},{"type":"market","name":"Shandon United Methodist Church Farmers Market","website":"","facebook":"","twitter":"","street":"3407 Devine Street","city":"Columbia","state":"sc","zip":"29205","x":"-80.9925","y":"33.9974","tags":""},{"type":"market","name":"Shelter Cove Farmers Market","website":"http://islandreccenter.org/vc.php?ID=434","facebook":"https://www.facebook.com/HiltonHeadIslandRecreationAssociation","twitter":"","street":"39 Shelter Cove Lane","city":"Hilton Head Island","state":"sc","zip":"29928","x":"-80.7189462","y":"32.1876979","tags":"baked goods cheese crafts flowers eggs seafood herbs vegetables honey jams nuts prepared-foods soap wine fruits"},{"type":"market","name":"Simpsonville Farmers Market","website":"","facebook":"https://www.facebook.com/pages/Simpsonville-SC/Simpsonville-Farmers-Market/126756400672753?ref=ts","twitter":"","street":"South St. & Curtis St.","city":"Simpsonville","state":"sc","zip":"29681","x":"-82.2582","y":"34.7365","tags":""},{"type":"market","name":"South Carolina State Farmers Market","website":"","facebook":"","twitter":"","street":"208-A Wholesale Lane","city":"West Columbia","state":"sc","zip":"29172","x":"-81.064382","y":"33.902728","tags":"baked goods cheese eggs seafood herbs vegetables honey jams meat nursery nuts plants prepared-foods trees"},{"type":"market","name":"South Sumter Farmers Market","website":"","facebook":"","twitter":"","street":"327 Manning Avenue","city":"Sumter","state":"sc","zip":"29151","x":"-80.3409","y":"33.9082","tags":""},{"type":"market","name":"Springs Farm Farmers Market","website":"http://www.springsfarm.com","facebook":"","twitter":"","street":"1002 Springfield Parkway","city":"Fort Mill","state":"sc","zip":"29715","x":"-80.9214","y":"35.0207","tags":""},{"type":"market","name":"Summerville Farmers' Market","website":"http://www.summerville.sc.us","facebook":"https://www.facebook.com/pages/Summerville-Farmers-Market/274065862658134","twitter":"","street":"218 South Main Street","city":"Summerville","state":"sc","zip":"29483","x":"-80.1771200","y":"33.0183780","tags":"baked goods cheese crafts flowers eggs seafood herbs vegetables honey jams meat nuts plants poultry prepared-foods soap trees coffee fruits grains juices pet food"},{"type":"market","name":"Sumter County Farmers Market","website":"","facebook":"","twitter":"","street":"700 West Liberty Street","city":"Sumter","state":"sc","zip":"29153","x":"-80.3293","y":"33.9207","tags":""},{"type":"market","name":"Sumter Farmers Market","website":"http://Sumterfarmersmarket.com","facebook":"Sumter Farmers Market","twitter":"","street":"200 Miller road","city":"Sumter","state":"sc","zip":"29153","x":"-80.3730000","y":"33.9324793","tags":"organic baked goods cheese crafts eggs seafood vegetables honey jams meat plants poultry prepared-foods soap trees beans fruits juices"},{"type":"market","name":"Sunday Brunch Farmers Market ","website":"","facebook":"https://www.facebook.com/SundayBrunchFarmersMarket","twitter":"","street":"633 Medway Rd","city":"Charleston","state":"sc","zip":"29412","x":"-79.9935","y":"32.7603","tags":""},{"type":"market","name":"Surfside Beach Farmers Market","website":"http://www.waccamawmarkets.org","facebook":"https://www.facebook.com/WaccamawMarketCooperative/","twitter":"","street":"Intersection of Surfside Drive and Willow Drive","city":"Surfside Beach","state":"sc","zip":"29575","x":"-78.9743641","y":"33.6069616","tags":"baked goods cheese crafts flowers eggs seafood herbs vegetables honey jams maple meat nuts poultry prepared-foods soap trees coffee beans fruits juices pet food"},{"type":"market","name":"Taylors Farmers Market","website":"","facebook":"www.facebook.com/taylorsfarmersmarket.tts","twitter":"@taylorsfarmers","street":"250 Mill Street","city":"Taylors","state":"sc","zip":"29687","x":"-82.284833","y":"34.919596","tags":"baked goods cheese crafts flowers eggs seafood herbs vegetables honey jams meat poultry prepared-foods soap coffee fruits pet food"},{"type":"market","name":"TD Saturday Market","website":"http://www.saturdaymarketlive.com/","facebook":"https://www.facebook.com/saturdaymarket","twitter":"https://twitter.com/gvillesatmarket","street":"Main Street at West Court Street","city":"Greenville","state":"sc","zip":"29601","x":"-82.4000115","y":"34.8485031","tags":"organic baked goods cheese crafts flowers eggs seafood herbs vegetables honey jams meat plants poultry prepared-foods soap trees coffee fruits grains juices mushrooms pet food tofu"},{"type":"market","name":"The Carolina Apartments-Seeds of Hope","website":"","facebook":"","twitter":"","street":"3201 Meadowlark Dr., , SC","city":"Columbia","state":"sc","zip":"29201","x":"-80.998895","y":"34.037248","tags":""},{"type":"market","name":"The Farmers Market at Sea Pines Center Presented by Lowcountry Produce","website":"","facebook":"https://www.facebook.com/pages/The-Farmers-Market-at-Sea-Pines-Center/338983322871147?fref=ts","twitter":"","street":"71 Lighthouse Road","city":"Hilton Head Island","state":"sc","zip":"29928","x":"-80.8012245","y":"32.1310239","tags":"organic baked goods crafts eggs seafood vegetables honey jams nuts prepared-foods soap coffee beans fruits juices pet food"},{"type":"market","name":"The Loris Farrmers Market","website":"","facebook":"","twitter":"","street":"Main street, adjacent to railroad tracks","city":"Loris","state":"sc","zip":"29569","x":"-79.0468","y":"33.8343","tags":""},{"type":"market","name":"The Mall at Shelter Cove","website":"","facebook":"","twitter":"","street":"THighway 278 & 24 Shelter Cove Land","city":"Hilton Head","state":"sc","zip":"29928","x":"-80.7197","y":"32.1861","tags":""},{"type":"market","name":"The Market at Inman Farms","website":"http://www.inmanfarmsyorksc.webs.com","facebook":"https://www.facebook.com/InmanFarmMarket","twitter":"","street":"1101 Black Hwy (SC Rt #5)","city":"York ","state":"sc","zip":"29745","x":"-81.255064","y":"34.999224","tags":"baked goods cheese crafts flowers eggs herbs vegetables honey jams maple meat plants prepared-foods soap coffee fruits grains juices mushrooms pet food"},{"type":"market","name":"Town of Lexington Farmers Market","website":"http://www.lexsc.com/fm_index.htm","facebook":"","twitter":"","street":"205 E. Main St. ","city":"Lexington","state":"sc","zip":"29072","x":"-81.2351235","y":"33.9804636","tags":"baked goods crafts flowers vegetables jams meat plants prepared-foods soap trees fruits"},{"type":"market","name":"Town of Lyman Farmers Market","website":"","facebook":"","twitter":"","street":"59 Groce Road","city":"Lyman","state":"sc","zip":"29365","x":"-82.1238","y":"34.9493","tags":""},{"type":"market","name":"TRAVELERS REST COMMUNITY FARMERS MARKET","website":"http://www.trfarmersmarket.com","facebook":"","twitter":"","street":"1 Center Street","city":"Travelers Rest","state":"sc","zip":"29690","x":"-82.4436657","y":"34.9676358","tags":"baked goods cheese eggs herbs vegetables honey jams nursery plants prepared-foods soap trees"},{"type":"market","name":"Travelers Rest Farmers Market","website":"http://www.travelersrestfarmersmarket.com/","facebook":"https://www.facebook.com/TravelersRestFarmersMarket","twitter":"","street":"115 Wilhelm Winter Street","city":"Travelers Rest","state":"sc","zip":"29690","x":"-82.4444","y":"34.9549","tags":""},{"type":"market","name":"Trinity Episcopal Church Farmers Market","website":"http://www.trinitysc.org","facebook":"","twitter":"","street":"1100 Sumter Street","city":"Columbia","state":"sc","zip":"29201","x":"-81.0314","y":"34.0005","tags":""},{"type":"market","name":"Union County Farm & Craft Market","website":"","facebook":"Union County Farm & Craft Market","twitter":"","street":"106 Lakeside Drive","city":"Union ","state":"sc","zip":"29379","x":"-81.614994","y":"34.716023","tags":"baked goods crafts flowers eggs vegetables honey jams meat soap coffee fruits juices"},{"type":"market","name":"Unitarian Universal Fellowship Farmers Market","website":"http://www.uu.columbiafc.uua.org","facebook":"","twitter":"","street":"2701 Heyward Street","city":"Columbia","state":"sc","zip":"29205","x":"-81.0062","y":"33.9908","tags":""},{"type":"market","name":"Uptown Market","website":"http://www.uptowngreenwood.com/uptown-market","facebook":"https://www.facebook.com/uptowngreenwoodmarket/","twitter":"https://twitter.com/UptownGwdMarket?lang=en","street":"220 Maxwell Avenue","city":"Greenwood","state":"sc","zip":"29646","x":"-82.1638058","y":"34.1903885","tags":"organic baked goods cheese crafts eggs herbs vegetables meat poultry soap coffee fruits"},{"type":"market","name":"Utopia Farmers Market, LLC","website":"","facebook":"https://www.facebook.com/utopiafarmandstable/?ref=aymt_homepage_panel#","twitter":"","street":"133 North Hendrix Street","city":"Batesburg-Leesville","state":"sc","zip":"29070","x":"-81.524422","y":"33.913762","tags":"baked goods flowers eggs herbs vegetables honey jams meat plants soap trees coffee fruits"},{"type":"market","name":"Virginia Wingard United Methodist Farmers Market","website":"","facebook":"","twitter":"","street":"1500 Broad River Road","city":"Columbia","state":"sc","zip":"29210","x":"-81.0867","y":"34.0309","tags":""},{"type":"market","name":"Walhalla Farmers Market","website":"","facebook":"","twitter":"","street":"Church Street","city":"Walhalla","state":"sc","zip":"29691","x":"-83.07","y":"34.7613","tags":""},{"type":"market","name":"Walterboro Farmers Market","website":"","facebook":"","twitter":"","street":"City Parking Lot, corner of Lucas & E. Washington Sts.","city":"Walterboro","state":"sc","zip":"29488","x":"-80.6644","y":"32.9028","tags":""},{"type":"market","name":"Washington Street United Church Farmers Market","website":"","facebook":"","twitter":"","street":"1401 Bull Street","city":"Columbia","state":"sc","zip":"29201","x":"-81.03","y":"34.0055","tags":""},{"type":"market","name":"Wesley Memorial United Church Farmers Market","website":"","facebook":"","twitter":"","street":"2501 Heyward Street","city":"Columbia","state":"sc","zip":"29205","x":"-81.01","y":"33.9911","tags":""},{"type":"market","name":"West Ashley Farmers Market","website":"http://www.charlestonfarmersmarket.com/westashley/","facebook":"https://www.facebook.com/westashleyfarmersmarket/","twitter":"@washleyfarms","street":"55 Sycamore Avenue","city":"Charleston","state":"sc","zip":"29407","x":"-79.987776","y":"32.789321","tags":"baked goods cheese flowers eggs seafood herbs vegetables honey jams meat nuts poultry prepared-foods coffee beans fruits grains juices mushrooms tofu wild"},{"type":"market","name":"Williamsburg County Farmers Market","website":"","facebook":"","twitter":"","street":"East Main Street","city":"Kingstree","state":"sc","zip":"29556","x":"-79.8186","y":"33.6667","tags":""},{"type":"market","name":"Yemassee Farmers Market","website":"","facebook":"","twitter":"","street":"","city":"Yemassee","state":"sc","zip":"29945","x":"-80.9565","y":"32.7639","tags":""},{"type":"market","name":"York County Farmers Market","website":"","facebook":"","twitter":"","street":" Elizabeth Lane & Black Street","city":"Rock Hill","state":"sc","zip":"29745","x":"-81.027","y":"34.9276","tags":""}]
