"city","facebook","name","state","street","tags","twitter","type","website","x","y","zip"
"Woodinville","https://www.facebook.com/21Acres","21 Acres Farm Market","wa","13701 NE 171st Street","baked-goods canned preserved coffee tea dairy products dry beans eggs fish seafood herbs fresh-fruits fresh-vegetables grains flour honey juices ciders mushrooms nuts prepared-foods wild-harvested forest-products","","farm","21acres.org","-122.1569875","47.7502397","98072"
"Bow","","A Man and His Hoe","wa","PO Box 186","eggs fresh-vegetables poultry fowl","","farm","amanandhishoe.com","-122.358513","48.549711","98232"
"Poulsbo","https://www.facebook.com/Abundantly.Green?ref=br_tf","Abundantly Green","wa","1146 NE Madison Rd","","","farm","http://www.abundantlygreen.com/","-122.6354219","47.6661676",""
"Port Townsend","","Alpenfire Orchards LLC","wa","220 Pocket Lane","wine spirits beer hard-cider","","farm","www.alpenfirecider.com","-122.8760900","48.0824010","98368"
"Sequim","https://www.facebook.com/pages/Annies-Flower-Farm/152511834820700","Annie's Flower Farm ","wa","Northwest corner of intersection at Woodcock/KItchen-Dick","bedding plants cut-flowers","","farm","www.anniesflowerfarm.com","-123.2001069","48.1161285","98382"
"Yakima","https://www.facebook.com/pages/Washington-Fruit-Place-Barrett-Orchards/142625242420016","Barrett Orchards","wa","1209 Pecks Canyon Road","baked-goods canned preserved coffee tea crafts woodworking cut-flowers dairy products fresh-fruits fresh-vegetables honey juices ciders nursery-stock nuts soap body-care","","farm","www.treeripened.com","-120.5739298","46.6184160","98908"
"Lynden","BelleWood apples and apple cider","BelleWood Acres","wa","6140 Guide Meridian","baked-goods canned preserved coffee tea crafts woodworking fresh-fruits honey juices ciders nuts prepared-foods soap body-care wine spirits beer hard-cider","","farm","www.bellewoodfarms.com","-122.485787","48.862824","98264"
"Arlington","https://www.facebook.com/Biringerfarm","Biringer Farm ","wa","21412 - 59th Avenue NE","baked-goods fresh-fruits honey","https://twitter.com@biringerfarm","farm","www.biringerfarm.com","-122.151197","48.190449","98223"
"Enumclaw","","Blue Dot Farm","wa","21010 Se 416th Street","fresh-fruits","","farm","www.bluedotfarm.com","-122.060692","47.228390","98022"
"Kent","","Bobs Blueberry Patch","wa","17403 SE 244th Place","fresh-fruits","","farm","bmegraw.googlepages.com","-122.1096610","47.3823770","98042"
"Ferndale","https://www.facebook.com/bode.farms?fref=ts","Bode Farms","wa","2424 Zell Road","fresh-fruits nursery-stock","","farm","","-122.6114820","48.9153160","98248"
"Enumclaw","http://www.facebook.com/BoiseCreekBoers","Boise Creek Boer Goats","wa","23602 SE 468th Way","crafts woodworking eggs herbs poultry fowl red-meat non-poultry-meat","http://twitter.com/BoiseCreekBoers","farm","http://www.boisecreekboers.com/","-122.026809","47.184677","98022"
"Bow","https://www.facebook.com/BowHillBlueberries","Bow Hill Blueberries","wa","15628 Bow Hill Road","canned preserved fresh-fruits","https://www.twitter.com/bowhillblues","farm","bowhillblueberries.com","-122.409398","48.558754","98232"
"Arlington","","Bryant Blueberry Farm and Nursery LLC","wa","5628 Grandview Road","cut-flowers fresh-fruits fresh-vegetables honey nursery-stock","","farm","bryantblueberries.com","-122.1534350","48.2371190","98223"
"Adna","","Bunker Creek Berry Patch","wa","214 Bunker Creek Rd","fresh-fruits","","farm","","-123.081752","46.638590","98522"
"Snohomish","","Canfield Farms","wa","12320 Old Snohomish Monroe Rd","eggs red-meat non-poultry-meat","","farm","www.canfieldfarms.com","-122.0639910","47.8822150","98290"
"Newman Lake","https://www.facebook.com/CarverFarms","Carver Farms","wa","9105 N. Idaho Road","","","farm","www.carverfarms.com","-117.050743","47.739682","99025"
"Arlington","https://www.facebook.com/ClearValleyFarm","Clear Valley Farm","wa","727 Lakewood Rd","","","farm","","-122.238997","48.158227","98223"
"Tenino","https://www.facebook.com/ColvinRanch","Colvin Ranch","wa","16816 Old Hiway 99 SE","","","farm","www.colvinranch.com","-122.897980","46.841303","98589"
"Camas","https://www.facebook.com/ConwayFamilyFarms","Conway Family Farms, LLC","wa","32116 NE Dial Road","canned preserved crafts woodworking cut-flowers dairy products eggs fresh-fruits fresh-vegetables honey","","farm","www.conwayfamilyfarm.com","-122.3434610","45.6754520","98607"
"grayland","","cranberries farm fresh","wa","3000 smithanderson rd","fresh-fruits","","farm","","-124.0665930","46.7572969","98547"
"Enumclaw","","Dinkelman Worm Farm","wa","47402 228th Ave SE","bedding plants eggs nursery-stock","","farm","Dinkelman Wormfarm","-122.036793","47.175888","98022"
"Woodland","","Dobler Hill Dairy, LLC","wa","41900 NE Dobler Hill Road","dairy products","","farm","www.doblerhilldairy.com","-122.6195730","45.9252480","98674"
"Monroe","","Donnellys Riverbank Blueberries","wa","11827 Reiner Road","fresh-fruits fresh-vegetables","","farm","","-121.834652","47.890130","98272"
"Mount Vernon","https://www.facebook.com/DunbarGardens","Dunbar Gardens","wa","16586 Dunbar Road","crafts woodworking nursery-stock","","farm","http://www.dunbargardens.com","-122.3877812","48.4280619","98273"
"Ferndale","","Eastview Blueberry Farm Inc.","wa","4983 Ferndale Road","fresh-fruits","","farm","www.eastviewblueberryfarm.com/","-122.596991","48.822144","98248"
"Buckley","https://www.facebook.com/ElizabethsFiberYarn","Elizabeth's Fiber to Yarn, Plants, too!","wa","24912 112th St E","eggs fresh-vegetables nursery-stock","","farm","","-122.097955","47.155396","98321"
"Vancouver","","Enviro Worm Gardening","wa","","","","farm","","-122.532922","45.675495","98682"
"Greenbank","https://www.facebook.com/pages/Greenbank-Farm-Agricultural-Training-Center/121139311302768","Farm Shop at Greenbank Farm","wa","765 Wonn Rd","bedding plants canned preserved crafts woodworking cut-flowers herbs fresh-fruits fresh-vegetables honey juices ciders wine spirits beer hard-cider","https://twitter.com/GreenbankFarm","farm","http://greenbankfarm.biz/wine-shop/","-122.5740520","48.1069190","98253"
"Carnation","https://www.facebook.com/firstlightfarm1","First Light Farm","wa","8614 Ames Lake-Carnation Rd NE","cut-flowers dry beans fresh-vegetables grains flour honey","","farm","www.firstlightfarm.wordpress.com","-121.9619573","47.6775568","98014"
"Oakville","","Five Star Farm","wa","1555 South Bank Rd","red-meat non-poultry-meat","","farm","www.fivestarfarmbeef.com","-123.304468","46.881212","98568"
"Deer Park","","Fussy Hen Flower & Herb Farm","wa","5240 Quail Ridge Way","bedding plants crafts woodworking cut-flowers eggs herbs nursery-stock soap body-care","","farm","www.fussyhen.com","-117.5789246","47.9135538","99006"
"medical lake","","Garden Gate  Lavender Farms","wa","16811 W Deno Road","bedding plants canned preserved crafts woodworking cut-flowers eggs herbs fresh-fruits honey soap body-care","","farm","www.gardengatelavender.com","-117.6372295","47.6719322","99022"
"Chimacum","","Glendale Farm","wa","431 Center Road","","","farm","","-122.7686450","48.0052287",""
"Colbert","https://www.facebook.com/pages/Hansens-Green-Bluff-Orchard/234173726733342","Hansen's Green Bluff Orchard LLC","wa","8215 East Green Bluff Road","baked-goods canned preserved crafts woodworking cut-flowers dry beans fresh-fruits honey juices ciders prepared-foods","","farm","hansensgreenblufforchard.com","-117.294504","47.823898","99005"
"Arlington","Facebook Page: Hazel Blue Acres","Hazel Blue Acres ","wa","430 Hevly Road","fresh-fruits","","farm","","-122.223163","48.199752","98223"
"Tonasket","Heart of the Highlands","Heart of the Highlands, LLC","wa","72 W. Bannon Creek Rd.","baked-goods bedding plants cut-flowers herbs fresh-fruits fresh-vegetables nursery-stock wild-harvested forest-products","","farm","heartofthehighlands.net","-119.293390","48.626551","98855"
"Oak Harbor","https://www.facebook.com/pages/Hunters-Moon-Farm/764648210260935","Hunters Moon Farm","wa","935 Bunch Lane","fresh-fruits honey","","farm","www.huntersmoonorganics.com","-122.560077","48.323751","98277"
"Granger","https://www.facebook.com/pages/Jones-Farms-Inc/109622695756736","Jones Farms Fruit and Produce","wa","2020 Thacker Rd","fresh-fruits fresh-vegetables honey nuts","","farm","www.jonesfarmsinc.com","-120.189173","46.402865","98932"
"Colfax","https://www.facebook.com/josephsgrainery","Joseph's Grainery","wa","607 Heglar Dr","dry beans grains flour","","farm","http://www.josephsgrainery.com","-117.414904","46.857515","99111"
"Toppenish ","","JustLiving Farm","wa","9000 Campbell Road","","","farm","http://www.justlivingfarm.org/","-120.442258","46.335784",""
"Arlington","","Kelly's Berries","wa","31801 223rd Avenue Ne","","","farm","","-121.9261850","48.2849290","98223"
"Coupeville","https://www.facebook.com/LavenderWindFarm","Lavender Wind Farm","wa","2530 Darst Rd.","baked-goods canned preserved cut-flowers honey nursery-stock soap body-care","","farm","http://www.lavenderwind.com","-122.7545020","48.2434540","98239"
"Maple Valley","https://www.facebook.com/liberty.alpacas.3","Liberty Alpacas","wa","20014 SE 240th St","","","farm","www.libertyalpacas.com","-122.0745860","47.3879270","98038"
"Puyallup ","https://www.facebook.com/pages/Linbo-Blueberry-Farm/152395888174030","Linbo Blueberry Farm","wa","1201 South Fruitland","","","farm","http://www.linboblueberries.com/index.php","-122.326431","47.180655","98371"
"Longview","https://www.facebook.com/pages/Steve-the-Rabbit/623372707722608","Lower Columbia School Gardens","wa","2210 Olympia Way ","bedding plants crafts woodworking cut-flowers herbs fresh-fruits fresh-vegetables nursery-stock","","farm","http://www.lowercolumbiaschoolgardens.org/","-122.944648","46.145641","98632"
"Everson","Lubbe Organic Strawberries and Veggies","Lubbe Organic Strawberries and Veggies","wa","3200 Lindsay Rd","dry beans fresh-fruits fresh-vegetables nuts","","farm","","-122.312022","48.946934","98247"
"Colfax","https://www.facebook.com/MapleKFarmsLLC","Maple K Farms LLC","wa","1102 Kammerzell Road","eggs red-meat non-poultry-meat","","farm","www.maplekhighlands.com","-117.4643142","46.8262155","99111"
"Duvall","http://www.facebook.com/miscfarm","Misc. Farm","wa","31923 NE 123rd Street","eggs soap body-care","","farm","http://www.miscfarm.com","-121.9117300","47.7069320","98019"
"Glenoma","","MZ Farm, LLP","wa","112 Lowery Road","eggs herbs fresh-fruits","","farm","","-122.1542720","46.5257580","98336"
"Olympia","https://www.facebook.com/pages/Nelson-Ranch/286197925887","Nelson Ranch","wa","","red-meat non-poultry-meat","","farm","www.nelsonranch.com","-122.843746","46.921401","98501"
"Orondo","www.facebook.com/orondociderworks","Orondo Cider Works","wa","1 Edgewater Drive","baked-goods canned preserved coffee tea crafts woodworking dairy products dry beans eggs fish seafood herbs fresh-fruits fresh-vegetables grains flour honey juices ciders maple-products mushrooms nuts pet-food poultry fowl prepared-foods red-meat non-poultry-meat soap body-care wine spirits beer hard-cider","@ciderworks","farm","www.ciderworks.com","-120.1487213","47.7631939","98843"
"Kennewick","https://www.facebook.com/PoundsFamilyFarm","Pounds Family Farm","wa","207503 E Cochran Rd","eggs","","farm","","-119.0649770","46.1612099","99337"
"Clayton","","Raymond' s Produce","wa","4700 Williams Valley Rd","dry beans fresh-vegetables","","farm","","-117.5878312","47.9691579","99110"
"Enumclaw","Facebook: The Rusty Plow Farm","Rusty Plow Farm","wa","23206 SE 448th Street","fresh-fruits","","farm","www.rustyplowfarm.com","-122.0311900","47.2000079","98022"
"Addy","https://www.facebook.com/simplegiftsfarm","Simple Gifts Farm","wa","2589 Grimm Rd.","crafts woodworking cut-flowers fresh-fruits fresh-vegetables","","farm","www.simplegiftsfarm.net","-118.013126","48.296863","99101"
"Sedro Woolley","skiyouranch","Skiyou Ranch ","wa","26910 Duffy rd","fresh-fruits poultry fowl","@skiyou_ranch","farm","www.skiyouranch.com","-122.197666","48.496133","98284"
"USA","www.facebook.com/smapples.orchard","Sm'Apples Orchard","wa","1197 Willeys Lake Rd","cut-flowers eggs fresh-fruits honey juices ciders pet-food","","farm","smapples.com","-122.547320","48.918203","98248"
"Friday Harbor ","","Snowberry Farm","wa","","eggs fresh-fruits fresh-vegetables red-meat non-poultry-meat","","farm","","-123.023390","48.529435","98250"
"Monroe ","","Soil Sisters Plants & Produce","wa","19211 187th Ave SE","bedding plants herbs fresh-fruits fresh-vegetables nursery-stock","","farm","","-121.980071","47.822723","98272"
"Olympia","https://www.facebook.com/steamboatjunction","Steamboat Junction Farm Stand","wa","6644 Sexton Dr NW","bedding plants fresh-vegetables red-meat non-poultry-meat wild-harvested forest-products","","farm","www.steamboatjunctionfarm.com","-123.021945","47.080427","98502"
"Olympia","Township18Farm","Township 18 Farm & Learning Center","wa","2111 Kaiser Road NW","eggs herbs fresh-fruits fresh-vegetables mushrooms poultry fowl red-meat non-poultry-meat","","farm","township18.com","-122.958336","47.064740","98502"
"Ferndale","https://www.facebook.com/TripleWrenFarms","Triple Wren Farms","wa","","cut-flowers eggs herbs fresh-fruits fresh-vegetables honey juices ciders pet-food","https://twitter.com/triplewrenfarms","farm","www.triplewrenfarms.com","-122.551566","48.921481","98248"
"Burlington ","https://www.facebook.com/vivafarms?ref=hl","Viva Farms","wa","15366 Ovenell Road","fresh-vegetables","","farm","www.vivafarms.org","-122.411778","48.452128","98233"
"Everson","","Washington Chestnut Company","wa","6160 Everson Goshen Rd.","fresh-fruits nursery-stock nuts","","farm","www.washingtonchestnut.com","-122.375389","48.864230","98247"
"Woodinville","https://www.facebook.com/21Acres/","21 Acres Farm Market","wa","13701 NE 171st Street","organic baked goods cheese eggs seafood herbs honey jams meat nuts poultry prepared-foods coffee beans fruits grains juices mushrooms","@21acres","market","http://21acres.org","-122.1569875","47.7502397","98072"
"Aberdeen","Facebook.com/AberdeenSundayMarket","Aberdeen Sunday Market","wa","Broadway between Heron & State St","baked goods crafts flowers eggs seafood vegetables honey jams plants prepared-foods soap trees wine coffee fruits juices pet food","","market","http://www.aberdeensundaymarket.org","-123.816413","46.972973","98520"
"Anacortes","https://www.facebook.com/AnacortesFarmersMarket","Anacortes Farmers Market","wa","611 R Avenue","organic baked goods cheese crafts flowers eggs seafood herbs vegetables honey jams maple meat nuts plants poultry prepared-foods soap trees wine coffee beans fruits grains juices mushrooms pet food wild","","market","http://www.anacortesfarmersmarket.org","-122.609181","48.516974","98221"
"Arlington","www.facebook.com/afmwa","Arlington Farmers Market","wa","200 N Olympic","baked goods crafts flowers herbs vegetables soap fruits","","market","http://www.afmwa.org","-122.126899","48.192878",""
"Auburn","https://www.facebook.com/AuburnInternationalFarmersMarket/?ref=bookmarks","Auburn Farmers Market","wa","1140 Auburn Way S","organic baked goods cheese crafts flowers vegetables honey jams meat nuts prepared-foods soap wine coffee fruits grains juices","https://twitter.com/AifmAuburnWA","market","http://www.auburnfarmersmarket.org","-122.218459","47.298267","98002"
"Bainbridge Island","https://www.facebook.com/BIFarmersMkt","Bainbridge Island Farmers' Market","wa","280 Madison Avenue North","organic baked goods cheese crafts flowers eggs seafood herbs vegetables honey jams meat plants poultry prepared-foods soap trees wine coffee fruits","https://twitter.com/BIfarmersmkt","market","http://www.bainbridgefarmersmarket.org","-122.519178","47.626023","98110"
"Seattle","Ballard Farmers Market","Ballard Farmers Market","wa","5300 Ballard Ave NW","organic baked goods cheese crafts flowers eggs seafood herbs vegetables honey jams meat nuts plants poultry prepared-foods soap trees wine beans fruits grains juices mushrooms pet food wild","@BallardFMKT","market","http://sfmamarkets.com","-122.384667","47.667591","98107"
"Langley ","","Bayview Farmers Market","wa","Bayview Road","","","market","http://www.bayviewfarmersmarket.com/","-122.461312","48.006879","98260"
"Belfair","https://www.facebook.com/BelfairSaturdayMarket","Belfair Farmers Market","wa","Theler Center South parking lot, State Road 3","","","market","http://www.belfairfarmersmarket.org/","-122.827","47.4515","98528"
"Bellevue","https://www.facebook.com/bellevueFM/","Bellevue Farmers Market","wa","1717 Bellevue Way NE","organic baked goods cheese flowers eggs seafood herbs vegetables honey jams meat nuts plants poultry prepared-foods wine beans fruits","https://twitter.com/BellevueFarmMkt","market","http://bellevuefarmersmarket.org","-122.202","47.626","98004"
"Bellingham","https://www.facebook.com/pages/Bellingham-Farmers-Market/30710694970","Bellingham Farmers Market","wa","1207 10th Street","organic baked goods crafts flowers eggs herbs vegetables honey jams nuts plants prepared-foods soap trees fruits","https://twitter.com/BhamFarmersMkt","market","http://www.bellinghamfarmers.org","-122.469657","48.75262","98226"
"Benton City","","Benton City Community Market","wa","806 Dale Ave.","","","market","http://www.localharvest.org/benton-city-community-market-M18889","-119.487","46.2634","99320"
"Davenport","https://www.facebook.com/BRBFarmersMarket","Big Red Barn Farmers Market","wa","605 Morgan Street","baked goods cheese crafts flowers eggs herbs vegetables honey jams plants prepared-foods soap fruits","","market","http://www.bigredbarnfarmersmarket.blogspot.com","-118.150018","47.653904","99122"
"Bothell","","Bothell Farmers Market","wa","23718 Bothell Everett Highway","organic baked goods crafts flowers eggs vegetables jams meat plants prepared-foods soap trees wine fruits pet food","","market","http://www.countryvillagebothell.com/farmersmarket","-122.221699","47.782323","98021"
"Burlington ","https://www.facebook.com/BowLittleMarket","Bow Little Market","wa","6200 N. Green","organic baked goods crafts flowers eggs herbs vegetables honey jams meat nuts plants soap coffee beans fruits mushrooms wild","","market","http://www.bowlittlemarket.com","-122.335092","48.555683","98233"
"Bow","https://www.facebook.com/BowLittleMarket","Bow Little Market Holiday Festival","wa","17581 Wood Road","","","market","http://www.bowlittlemarket.wordpress.com","-122.368107","48.595077","98232"
"Bremerton","https://www.facebook.com/BremertonMarket/","Bremerton Farmers Market","wa","1400 Park Ave","organic baked goods cheese crafts flowers eggs seafood herbs vegetables honey jams meat nuts plants poultry prepared-foods soap wine fruits juices","","market","http://www.bremertonmarket.com","-122.628866","47.574253","98337"
"Tacoma","https://www.facebook.com/TacomaFarmersMarket","Broadway Farmers Market","wa","902 Broadway","organic baked goods cheese crafts flowers eggs seafood herbs honey jams meat nuts plants poultry prepared-foods soap trees wine coffee beans fruits juices mushrooms wild","","market","http://www.tacomafarmersmarket.com","-122.4407752","47.2551471","98402"
"Burien","","Burien Farmers Market","wa","5th Place SW & Southwest 152nd St.","organic baked goods cheese crafts flowers eggs vegetables honey jams plants prepared-foods soap trees wine coffee beans fruits","","market","http://www.discoverburien.com","-122.340479","47.466953","98166"
"Camano Island","www.facebook.com/summeroncamano","Camano Island Farmers Market","wa","848 N. Sunrise Blvd.","organic baked goods cheese crafts flowers eggs seafood herbs vegetables honey jams maple nuts plants soap trees coffee fruits juices mushrooms pet food wild","","market","","-122.455221","48.241385","98282"
"camas","https://www.facebook.com/#!/pages/Camas-Farmers-Market/45735637022","Camas Farmer's Market","wa","4th avenue between Everett and Franklin","organic baked goods flowers eggs herbs vegetables honey nuts plants poultry prepared-foods soap trees wine fruits","no","market","http://www.camasfarmersmarket.org","-122.402169","45.587164","98607"
"Seattle","https://www.facebook.com/broadwayfarmersmarket","Capitol Hill Farmers Market","wa","Broadway Ave E and E Pine Street","organic baked goods cheese flowers eggs seafood herbs vegetables honey jams meat poultry prepared-foods fruits","https://twitter.com/seattlefarmmkts","market","http://www.seattlefarmersmarkets.org","-122.3126680","47.6156044","98122"
"Carnation","https://www.facebook.com/pages/Carnation-Farmers-Market/113831768657527","Carnation Farmers Market","wa","Corner of Bird and Stossel","organic baked goods cheese flowers eggs seafood herbs vegetables honey jams meat nuts plants poultry prepared-foods soap wine coffee fruits pet food wild","https://twitter.com/CarnationFmrMkt","market","http://www.carnationfarmersmarket.org","-121.912419","47.648587","98014"
"Silverdale","https://www.facebook.com/CentralKitsapFarmersMarket/","Central Kitsap Farmers Market","wa","2251 NW Bucklin Hill Rd","baked goods crafts eggs herbs vegetables honey jams meat plants soap wine coffee fruits wild","","market","http://www.ckfarmersmarket.org","-122.680109","47.650238","98383"
"Chelan","","Chelan Valley Farmers Market","wa","Johnson & Columbia","","","market","","-120.07","47.8597","98816"
"Cheney","","Cheney Farmers Market","wa","609 2nd Street","organic baked goods crafts herbs vegetables honey jams plants prepared-foods soap trees fruits","","market","http://www.cheneyfarmersmarket.com","-117.574344","47.489030","99004"
"Chewelah","Chewelah Farmers Market","Chewelah Farmers Market","wa","700 North Park Street","organic baked goods cheese crafts flowers eggs herbs vegetables honey jams meat plants poultry prepared-foods soap trees coffee beans fruits juices wild","","market","http://www.chewelahfarmersmarket.com","-117.715235","48.282380","99109"
"Chimacum","https://www.facebook.com/PortTownsendFarmersMarket/","Chimacum Farmers Market","wa","9122 Rhody Dr","organic baked goods crafts eggs herbs vegetables meat prepared-foods coffee beans fruits","","market","http://jcfmarkets.org/","-122.7693133","48.0117583","98325"
"Clayton","Clayton Farmers Market and Small Farm Animals","Clayton Farmers Market and Small Farm Animals","wa","4616 Wallbridge Road","baked goods crafts flowers eggs herbs vegetables honey jams plants prepared-foods soap fruits","","market","http://www.ClaytonCommunityFair.com/claytonfarmersmarket","-117.545394","47.989980","99110"
"Seattle","https://www.facebook.com/ColumbiaCityFarmersMarket","Columbia City Farmers Market","wa","S. Edmunds Street and 37th Ave. S.","organic baked goods cheese flowers eggs seafood herbs vegetables honey jams meat nuts poultry prepared-foods trees wine fruits","https://twitter.com/seattlefarmmkts","market","http://www.seattlefarmersmarkets.org","-122.2861515","47.5586613","98118"
"Long Beach","","Columbia-Pacific Farmer's Market","wa","","baked goods flowers eggs seafood herbs vegetables jams nursery nuts plants prepared-foods","","market","http://www.longbeachwa.gov/farmersmarket/","-124.053969","46.350134","98631"
"Coleville","","Colville Farmers Market","wa","Corner of Oak Street & 3rd Avenue","","","market","","-117.88","48.5564","99114"
"Spokane","","Community Roots Market","wa","4001 North Cook St","","","market","http://www.peachlocal.com","-117.374","47.6938","99207"
"Coupeville ","https://www.facebook.com/Coupeville-Farmers-Market-115641631824425/","Coupeville Farmers Market","wa","Coupeville Community Green, cross street Alexander","baked goods crafts flowers seafood herbs vegetables honey plants prepared-foods soap beans fruits pet food","","market","","-122.689153","48.219316","98229"
"Longview","","Cowlitz County Community Farmers Market I","wa","Intersection of Broadway & Commerce","","","market","http://www.cowlitzcountyfarmersmarket.com","-122.964","46.1501","98632"
"Longview","","Cowlitz County Community Farmers Market II","wa","Cowlitz County Fairgrounds","","","market","http://www.cowlitzcountyfarmersmarket.com","-122.925","46.1406","98632"
"Bellevue","https://www.facebook.com/Crossroads.Bellevue.Farmers.Market","Crossroads Bellevue Farmers Market","wa","15600 N.E. 8th Street","organic baked goods cheese crafts flowers eggs herbs vegetables honey jams meat plants poultry prepared-foods soap trees coffee fruits","","market","http://www.crossroadsbellevue.com","-122.129962","47.619740","98008"
"Des Moines","https://www.facebook.com/pages/Des-Moines-Waterfront-Farmers-Market/112845878735116?ref=hl","Des Moines Waterfront Farmers Market","wa","22307 Dock Ave S","organic baked goods cheese crafts flowers eggs seafood herbs vegetables honey jams meat nuts plants poultry prepared-foods soap trees wine coffee beans fruits grains pet food","","market","http://www.DMFM.org","-122.329307","47.401657","98198"
"Walla Walla ","Downtown Farmers Market","Downtown Farmers Market","wa","4th & Main Street","organic baked goods cheese crafts flowers eggs herbs vegetables honey jams meat nuts plants prepared-foods soap trees wine coffee beans fruits juices pet food","","market","http://downtownwallawalla.com/downtownfarmersmarket/","-118.341568","46.066187","99362"
"Yakima","https://facebook.com/DowntownYakimaFarmersMarket/","Downtown Yakima Farmers Market","wa","Yakima Ave & S 3rd Street","organic baked goods cheese crafts flowers eggs herbs vegetables honey jams meat prepared-foods soap wine coffee fruits mushrooms","","market","https://downtownyakimafarmersmarket.com/","-120.502787","46.602267","98901"
"Duvall","http://www.facebook.com/pages/Duvall-Farmers-Market/141032938155","Duvall Farmers Market","wa","Brown Ave","baked goods cheese crafts flowers eggs herbs vegetables honey jams meat poultry prepared-foods soap wine coffee beans fruits juices mushrooms wild","","market","http://duvallfarmersmarket.org","-121.9859740","47.7382671","98019"
"Eatonville","","Eatonville Farmers Market","wa","104 Washington Street","","","market","","-122.265","46.8669","98328"
"Edmonds","https://www.facebook.com/edmondsmuseumsummermarket/","Edmonds Museum Summer Market","wa","5th Ave between Main and Bell & Bell St. between 5th & 6th Ave","organic baked goods cheese crafts flowers eggs seafood herbs vegetables honey jams meat nuts plants poultry prepared-foods soap wine coffee beans fruits juices mushrooms","","market","http:// www.historicedmonds.org/summer-market","-122.376658","47.811372","98020"
"Spokane","https://facebook.com/EGFMarket","Emerson-Garfield Farmers' Market","wa","2310 N Monroe Street","organic baked goods flowers herbs vegetables honey jams plants prepared-foods soap trees fruits pet food wild","https://twitter.com/EmersonGarfield","market","http://market.emersongarfield.org","-117.426071","47.679178","99205"
"Enumclaw","http://www.facebook.com/EnumclawPlateauFarmersMarket/","Enumclaw Plateau Farmers' Market","wa","1600 1st Street","baked goods cheese crafts flowers eggs seafood vegetables honey jams prepared-foods wine coffee fruits juices","","market","http://enumclawplateaufarmersmarket.org","-121.987466","47.202843","98022"
"Ephrata","","EPHRATA FARMERS' MARKET","wa","Basin/First/Division","organic baked goods crafts flowers herbs vegetables honey jams nuts plants prepared-foods soap","","market","http://www.ephratafarmersmarket.org","-119.551","47.3209","98823"
"Everett","https://www.facebook.com/TheEverettFarmersMarket","Everett Farmers Market LLC","wa","615 13th St","organic baked goods cheese crafts flowers eggs seafood herbs vegetables honey jams meat nuts plants prepared-foods soap trees wine coffee beans fruits juices mushrooms wild","","market","http://www.everettfarmersmarket.net","-122.222050","48.000172","98201"
"Spokane ","Fairwood farmers' market","Fairwood Farmers' Market","wa","319 W. Hastings Rd.","organic baked goods cheese crafts flowers eggs herbs vegetables honey jams meat nuts plants prepared-foods soap wine coffee fruits mushrooms pet food wild","","market","http://Www.fairwoodfarmersmarket.com","-117.417780","47.768387","99218"
"Federal Way","https://www.facebook.com/MarketMgr","Federal Way Farmers Market - Common Mall parking lot","wa","1701 S. 320th St","organic baked goods cheese crafts flowers eggs seafood herbs vegetables honey jams nuts plants prepared-foods soap trees coffee fruits pet food","https://twitter.com/fwfarmersmarket","market","http://www.federalwayfarmersmarket.com","-122.313022","47.313385","98003"
"Federal Way","https://www.facebook.com/MarketMgr","Federal Way Farmers Market - Town Square","wa","20th St","baked goods crafts flowers seafood vegetables honey plants prepared-foods soap trees coffee fruits pet food","","market","http://www.federalwayfarmersmarket.com","-122.307155","47.317963","98003"
"Ferndale","","Ferndale Farmers Market","wa","Riverwalk Park","","","market","","-122.588","48.8446",""
"Fife","https://www.facebook.com/fifefarmersmarket/ ","Fife Farmers Market ","wa","2820 54th Ave E","baked goods cheese crafts eggs seafood vegetables honey jams plants prepared-foods soap trees wine fruits juices","","market","http://cityoffife.org/city-departments/parks-and-recreation/special-events/farmers-market","-122.357014","47.230951","98424"
"Cheney","","Friday Farmers Market","wa","1st & College","","","market","","-117.575","47.4876","99004"
"Everett","https://www.facebook.com/FridayFarmersMarketEverettMall","Friday Farmers Market Everett Mall","wa","1402 SE Everett Mall Way","organic baked goods cheese crafts flowers herbs vegetables honey jams nuts plants prepared-foods soap trees wine coffee fruits juices","","market","http://www.fridayfarmersmarketeverettmall.com","-122.215919","47.910470","98208"
"Gig Harbor","","Gig Harbor Farmers Market","wa","3500 Hunt St. NW","","","market","http://www.gigharborfarmersmarket.com","-122.773","47.272","98349"
"Key Center","","Gig Harbor Farmers Market at Key Center","wa","15610 92nd Street","","","market","http://www.gigharborfarmersmarket.com","-122.746","47.3406","98349"
"Gig Harbor","","Gig Harbor Farmers Market at Kimball Drive","wa","6808 Kimball Drive","","","market","http://www.gigharborfarmersmarket.com","-122.587","47.3186","98335"
"Gig Harbor","","Gig Harbor Farmers Market at Uptown Shoping Center","wa","4901 Pt. Fosdick Drive","organic baked goods cheese crafts flowers seafood herbs vegetables honey jams meat nuts plants prepared-foods soap","","market","","-122.579","47.3028","98335"
"Gig Harbor","","Gig Harbor Farmers Market at Uptown Shoping Center","wa","3508 Harborview Drive","baked goods cheese crafts flowers seafood herbs vegetables honey jams meat nuts plants prepared-foods soap","","market","","-122.586","47.3329","98335"
"Spokane","https://www.facebook.com/GlenroseCommunitySummerMarket","Glenrose Summer Market ","wa","3621 S Fancher Road","","","market","","-117.325","47.621",""
"Goldendale ","https://www.facebook.com/Goldendalefarmersmarket/","Goldendale Farmers Market","wa","the end of North Wilbur Avenue, off Broadway (Highway 142)","baked goods crafts eggs herbs vegetables honey jams meat plants prepared-foods soap trees fruits pet food","","market","http://www.goldendalechamber.org/goldendale-farmers-market.html","-120.818989","45.824613","98620"
"Chehalis","https://www.facebook.com/pages/Community-Farmers-Market-at-ChehalisCentralia/137730792914754?ref=ts","Greater Lewis County Community Farmers Market","wa","Boistfort Street in between Pacific and Market","organic baked goods cheese flowers eggs herbs vegetables honey jams plants poultry prepared-foods soap trees fruits","","market","http://www.communityfarmersmarket.net","-122.970133","46.665081","98532"
"Spokane","","Humble Earth Farmers Market","wa","4726 North Oak","","","market","","-117.438","47.701","99205"
"Issaquah","","Issaquah Farmers Market","wa","1730 10th Ave N.W.","organic baked goods cheese crafts flowers eggs seafood herbs vegetables honey jams meat nuts plants poultry prepared-foods soap trees wine coffee fruits juices","","market","http://www.issaquahwa.gov/market","-122.049115","47.550637","98027"
"Kirkland","","Juanita Friday Market","wa","9703 NE Juanita Drive","organic baked goods crafts flowers eggs herbs vegetables jams plants prepared-foods soap trees coffee fruits juices","","market","http://www.kirklandwa.gov/juanitafridaymarket","-122.215648","47.704924","98033"
"Kelso ","Kelso Bridge Market","Kelso Bridge Market","wa","351 Three Rivers Mall Drive","crafts flowers herbs vegetables honey nuts plants soap trees wine fruits","","market","","-122.877161","46.127435","98626"
"Kennewick","","Kennewick Farmers Market","wa","23 West Kennewick Avenue","","","market","","-119.117","46.2087","99336"
"Kent","","Kent Farmers Market","wa","Downtown Kent at 4th & Smith Steet","","","market","","-122.237","47.3831","98032"
"Kingston","https://www.facebook.com/pages/Kingston-Farmers-Market/131653960200638","Kingston Farmers Market","wa","Mike Wallace park","baked goods crafts flowers eggs vegetables honey jams plants prepared-foods soap fruits","","market","http://Kingstonfarmersmarket.com","-122.4969392","47.7961767","98346"
"Kirkland","","Kirkland Wedneseday Market","wa","Marina Park, 25 lakeshore plz ","organic baked goods cheese crafts flowers eggs seafood herbs vegetables honey jams nuts prepared-foods soap coffee beans fruits juices","@KirklandWMarket","market","http://www.kirklandmarket.org","-122.2088210","47.6754967","98033"
"Ellensburg","","Kittitas County Farmers Market","wa","Wells Fargo Bank parking lot","","","market","http://www.kcfarmersmarket.com","-120.547","46.9955","98926"
"La Center","https://www.facebook.com/FarmersMarketLaCenter","LaCenter Community Farmers Market ","wa","401 Aspen Ave. (between 4th St. & 5th St.)","","","market","","-122.671","45.8623","98629"
"Lacey","","Lacey Farmers Market","wa","Woodland Loop Square","","","market","http://www.ci.lacey.wa.us/community-market.html","-122.824","47.0414","98503"
"Seattle","https://www.facebook.com/LakeCityFarmersMarket","Lake City Farmers Market","wa","NE 125th Street and 28th Ave NE","organic baked goods cheese flowers eggs seafood herbs vegetables honey jams meat nuts poultry prepared-foods wine fruits","https://twitter.com/seattlefarmmkts","market","http://www.seattlefarmersmarkets.org","-122.2976645","47.7192913","98125"
"Lake Forest Park","https://www.facebook.com/ThirdPlaceCommons/","Lake Forest Park Farmers Market","wa","17171 Bothell Way NE","organic baked goods cheese flowers eggs seafood herbs vegetables honey jams meat nuts plants poultry prepared-foods soap trees wine coffee fruits juices mushrooms","","market","http:// thirdplacecommons.org/farmers-market/","-122.280325","47.754018","98155"
"Langley","https://www.facebook.com/pages/Langley-Second-Street-Market/209809679055977?ref=hl","Langley Second Street Market ","wa","Second Street","","","market","http://www.mainstreetlangley.org/second-street-market/","-122.413","48.0401","98260"
"Leavenworth","https://www.facebook.com/pages/Leavenworth-Community-Farmers-Market/333375780958?fref=ts","Leavenworth Community Farmers Market ","wa","Lions Club Park, Hwy2","","","market","","-120.661","47.5962","98826"
"Centralia ","https://www.facebook.com/Centralias-Lewis-County-Farmers-Market-759554527389826/","Lewis County Farmer's Markets DBA Centralia Farmer's Market","wa","Corner of N. Pearl and Maple Streets","baked goods cheese crafts flowers eggs herbs vegetables honey jams meat plants poultry prepared-foods soap trees fruits","","market","http://www.lewiscountyfarmersmarket.org/index.html","-122.9543076","46.7193298","98531"
"Liberty Lake","","Liberty Lake Farmers' Market","wa","1421 N. Meadowwood Lane","organic baked goods cheese crafts flowers eggs seafood herbs vegetables honey jams meat nursery plants poultry prepared-foods soap wine","","market","http://www.llfarmersmarket.com","-117.1033","47.67104","99019"
"Sunnyside ","https://www.facebook.com/suncityfarmersmarket/","Lower Yakima Valley Sunnyside Farmers Market","wa","Edison Ave & Sixth Street","organic crafts herbs vegetables honey jams prepared-foods wine fruits","transformsunny","market","http://www.sunsidefarmersmarket.com","-120.0129422","46.3238009","98944"
"Lynden","https://www.facebook.com/lyndenfarmersmarket/","Lynden Farmers Market","wa","4th and Grover Street at Centennial Park","organic baked goods crafts flowers eggs herbs vegetables honey meat plants poultry prepared-foods soap coffee fruits","","market","http://www.lyndenfarmersmarket.com","-122.452228","48.944087","98264"
"Seattle","","Mad Cap Hill Farmers Market","wa","20th Ave.","","","market","http://www.ballardsundaymarket.com","-122.306","47.6101","98127"
"Seattle","Madrona Farmers Market","Madrona Farmers Market","wa","1126 Martin Luther King Jr. Way","organic baked goods cheese crafts flowers eggs seafood herbs vegetables honey jams meat plants poultry prepared-foods soap wine beans fruits mushrooms","MadronaFMKT","market","http://sfmamarkets.com","-122.295403","47.612666","98122"
"Seattle","https://www.facebook.com/MagnoliaFarmersMarket","Magnolia Farmers Market","wa","W McGraw Str and 33rd Ave W","organic baked goods cheese flowers eggs seafood herbs vegetables honey jams meat poultry prepared-foods wine fruits","https://twitter.com/seattlefarmmkts","market","http://www.seattlefarmersmarkets.org","-122.3996304","47.6395490","98199"
"Manson","https://www.facebook.com/MansonFarmersMarket","Manson Farmers Market","wa","157 E Wapato Way ","organic baked goods crafts flowers herbs vegetables honey jams nuts plants soap fruits","https://twitter.com/MansonFarmerMkt","market","","-120.155979","47.884784","98831"
"Maple Valley","www.facebook.com/maplevalleyfarmersmarket","Maple Valley Farmers' Market","wa","25700 Maple Valley Black Diamond Road","organic baked goods cheese crafts flowers eggs seafood herbs vegetables honey jams meat nuts plants prepared-foods soap trees wine coffee fruits grains juices pet food","www.twitter.com/mvfm_2016","market","http://www.maplevalleyfarmersmarket.com","-122.0214758","47.3715214","98038"
"Richland","","Market at the Parkway, Richland, WA","wa","The Parkway & Lee Blvd.","organic baked goods cheese crafts flowers eggs herbs vegetables honey jams meat nursery nuts plants poultry prepared-foods soap trees wine","","market","http://www.marketattheparkway.com","-119.274231","46.275250","99352"
"Marysville","https://facebook.com/MarysvilleFarmersMarket/","Marysville Farmers Market","wa","1035 State Avenue","organic baked goods crafts flowers herbs vegetables honey jams meat poultry prepared-foods soap coffee fruits","","market","http://www.marysvillefarmersmarket.org","-122.177576","48.058879","98270"
"Mercer Island","https://www.facebook.com/mifarmersmarket","Mercer Island Farmers Market","wa","7700 SE 32nd Street","organic baked goods cheese crafts flowers eggs seafood herbs vegetables honey jams meat nuts plants poultry prepared-foods wine coffee beans fruits juices","https://twitter.com/MIFarmersMarket","market","http://www.mifarmersmarket.org","-122.235042","47.581953","98040"
"Twisp","","Methow Valley Farmers Market ","wa","201 S. Highway 20","","","market","http://www.methowvalleyfarmersmarket.com/","-120.276","48.3627","98856"
"Spokane","https://www.facebook.com/MillwoodFarmersMarket/","Millwood Farmers' Market","wa","8910 E Dalton","baked goods cheese crafts flowers eggs herbs vegetables honey jams meat nuts plants poultry prepared-foods soap coffee fruits mushrooms pet food","","market","","-117.285403","47.686888","99212"
"Mount Vernon","www.facebook.com/mountvernonwafarmersmarket","Mount Vernon Farmers Market","wa","Riverwalk Park between Gates St. and Myrtle St.","organic baked goods cheese crafts flowers eggs herbs vegetables honey jams nuts plants poultry prepared-foods soap trees coffee fruits juices","https://twitter.com/FarmMarketMV","market","http://mountvernonfarmersmarket.org","-122.311832","48.417071","98273"
"Mukilteo","","Mukilteo Farmers Market","wa","609 Front St","organic baked goods cheese crafts flowers herbs vegetables honey jams meat nuts plants prepared-foods soap wine fruits pet food","","market","http://www.mukilteofarmersmarket.org","-122.3049","47.94861","98275"
"Tacoma","https://www.facebook.com/NorpointFarmersMarket","Norpoint Farmers Market","wa","4848 Nassau NE","baked goods crafts flowers eggs vegetables honey plants prepared-foods soap trees fruits pet food","","market","http://federalwayfarmersmarket.com/NORPOINTfarmersMARKET.html","-122.402709","47.300824","98422"
"North Bend","https://www.facebook.com/NorthBendFarmersMarket","North Bend Farmers Market","wa","400 SE Orchard Drive","organic baked goods cheese crafts flowers eggs herbs vegetables honey jams nuts plants prepared-foods soap wine coffee fruits mushrooms pet food","","market","http://www.siviewpark.org/farmers-market.phtml","-121.7843","47.49016","98045"
"Colville","Northeast Washington Farmers Market","Northeast Washington (NEW) Farmers Market","wa","Corner of Main and Astor","organic baked goods cheese crafts flowers eggs herbs vegetables honey jams meat nuts plants poultry prepared-foods soap trees fruits grains juices mushrooms wild","","market","http://newfarmersmarket.org","-117.9057644","48.5432752","99114"
"Oak Harbor","https://www.facebook.com/FarmersMarketOakHarbor/","Oak Harbor Farmers Market","wa","WS Hwy 20, next to Visitor Center","organic baked goods crafts flowers eggs vegetables honey prepared-foods soap fruits pet food","","market","","-122.647637","48.302612","98277"
"Ocean Shores ","https://www.facebook.com/OceanShoresFarmersMarket","Ocean Shores Farmers Market","wa","In Skateboard Park downtown Ocean Shores","baked goods crafts flowers herbs vegetables honey plants prepared-foods soap trees coffee fruits","","market","","-124.1562852","46.9736986","98569"
"Okanogan","https://www.facebook.com/OkanoganValleyFarmersMarket/","Okanogan Valley Farmers Market - Okanogan","wa","999 2nd Avenue North","organic baked goods cheese crafts flowers eggs vegetables honey nuts plants prepared-foods trees fruits juices","","market","http://okanoganfarmersmarket.org","-119.571296","48.371866","98840"
"Omak","https://www.facebook.com/OkanoganValleyFarmersMarket/","Okanogan Valley Farmers Market - Omak","wa","Omak Civic Park","organic baked goods cheese crafts vegetables honey nuts plants poultry trees fruits","","market","http://okanoganfarmersmarket.org","-119.530408","48.410616","98841"
"Olalla","www.facebook.com/pages/Olalla-Valley-Farmers-Market/183830488318863","Olalla Valley Farmers Market","wa","13053 Olalla Valley RD SE","crafts flowers eggs herbs vegetables nursery plants trees","","market","","-122.5587080","47.4302700","98359"
"Olympia","https://www.facebook.com/olympiafarmersmarket/","Olympia Farmers' Market ","wa","700 Capitol Way N","organic baked goods cheese crafts flowers eggs seafood herbs vegetables honey jams meat nuts plants poultry prepared-foods soap trees wine coffee beans fruits mushrooms pet food wild","https://twitter.com/olyfarmersmkt","market","http://olympiafarmersmarket.com","-122.902519","47.050425","98501"
"Eastsound","https://www.facebook.com/pages/Orcas-Island-Farmers-Market/150843558318330","Orcas Island Farmers Market","wa","Eastsound Village Green","baked goods cheese crafts flowers eggs seafood herbs vegetables honey jams meat nuts plants prepared-foods soap trees coffee beans fruits","","market","http://www.orcasislandfarmersmarket.org","-122.9069009","48.6962347","98245"
"Orting","Orting Valley Farmers Market","Orting Valley Farmers Market","wa","101 Washington Ave  (North Park, corner Calistoga and Washington)","organic baked goods cheese crafts flowers eggs herbs vegetables honey jams plants prepared-foods soap trees wine coffee beans fruits juices","","market","http://ortingvalleyfarmersmarket.com","-122.205464","47.097924","98360"
"Othello","","Othello Farmers Market","wa","Pioneer Park","","","market","","-119.189","46.8245","99344"
"Pasco","","Pasco Farmers Market","wa","4th St. & W. Columbia Street","","","market","http://www.pascodowntown.org","-119.092","46.2295","99301"
"Newport","","Pend Oreille Valley Farmers Market","wa","Corner of Kalspelle & Highway 2","","","market","","-117.163","48.1626","99156"
"Yakima","https://www.facebook.com/YakimaFarmersMarket","Pete's Evening Market","wa","South 4th Street","organic baked goods cheese crafts eggs herbs vegetables honey jams plants poultry prepared-foods soap fruits","","market","http://www.yakimafarmersmarket.org","-120.501403","46.602569","98901"
"Seattle","https://www.facebook.com/PhinneyFarmersMarket","Phinney Farmers Market","wa","N 67th Street and Phinney Ave N","organic baked goods cheese flowers eggs seafood herbs vegetables honey jams meat poultry prepared-foods fruits","https://twitter.com/seattlefarmmkts","market","http://www.seattlefarmersmarkets.org","-122.353297","47.677741","98103"
"Seattle","","Pike Place Market - 1st Hill Farmers Market","wa","1200 9th Ave","organic baked goods cheese flowers herbs vegetables honey jams wine beans fruits juices wild","","market","http://www.pikeplacemarket.org","-122.328889","47.610091","98101"
"Seattle","","Pike Place Market - Evening Farmers Market","wa","1600 Pike Place","organic baked goods cheese flowers herbs vegetables honey jams prepared-foods wine beans fruits juices wild","","market","http://www.pikeplacemarket.org","-122.341986","47.609566","98101"
"Redmond","","Pike Place Market - Microsoft Commons Farmers Market","wa","15253 NE 40th St","organic baked goods crafts flowers herbs vegetables honey jams nuts prepared-foods fruits juices","","market","http://www.pikeplacemarket.org","-122.137330","47.644322","98052"
"Seattle","","Pike Place Market - South Lake Union Farmers Market","wa","410 Terry Ave N","organic baked goods cheese flowers herbs vegetables honey jams maple nuts prepared-foods wine fruits juices","","market","http://www.pikeplacemarket.org","-122.336880","47.622595","98109"
"Seattle","","Pioneer Square Farmers' Market featuring Pike Place Market Express","wa","S Main Street and Occidental Ave S","organic flowers herbs vegetables honey jams meat poultry prepared-foods fruits","","market","","-122.332888","47.600048","98104"
"Port Angeles ","https://www.facebook.com/PAFarmersMarket/","Port Angeles Farmers Market","wa","125 W. Front St.","organic baked goods crafts flowers eggs seafood herbs vegetables honey jams meat poultry prepared-foods soap wine coffee beans fruits grains mushrooms wild","","market","http://portangelesfarmersmarket.com","-123.430944","48.119320","98362"
"Port Orchard ","https://www.facebook.com/PortOrchardFarmersMarket/","Port Orchard Farmers Market","wa","Harrison Ave & Bay St","baked goods cheese crafts flowers eggs seafood herbs vegetables honey jams meat plants prepared-foods soap trees coffee fruits wild","","market","http://pofarmersmarket.org ","-122.634025","47.542163","98366"
"Stanwood","https://www.facebook.com/pages/Port-Susan-Farmers-Market","Port Susan Farmers Market","wa","8825 Viking Way","organic baked goods cheese crafts flowers eggs herbs vegetables honey jams nuts plants poultry prepared-foods soap trees wine coffee fruits","","market","http://www.portsusan.org","-122.352070","48.241074","98292"
"Port Townsend","","Port Townsend Wednesday Farmers Market","wa","Jefferson Transit's Haines Place Park and Ride","organic baked goods cheese flowers eggs seafood herbs vegetables jams plants poultry prepared-foods soap fruits mushrooms wild","","market","http://www.jcfmarkets.org","-122.781122","48.109264","98368"
"Poulsbo","https://www.facebook.com/PoulsboFarmersMarket/","Poulsbo Farmers Market","wa","19540 Front St NE","organic baked goods cheese crafts flowers eggs seafood herbs vegetables honey jams meat plants poultry prepared-foods soap trees wine coffee beans fruits juices mushrooms wild","","market","http://www.poulsbofarmersmarket.org","-122.649224","47.740461","98370"
"Tacoma","","Proctor Farmers' Market","wa","North 27th between Proctor and Madison","organic baked goods cheese flowers eggs seafood herbs vegetables honey jams meat nursery plants poultry prepared-foods trees wine","","market","http://www.proctorfarmersmarket.com","-122.489555","47.271950","98417"
"PROSSER","https://www.facebook.com/prosserfarmersmarket","PROSSER FARMERS MARKET","wa","1329 SOMMERS AVE","baked goods cheese crafts flowers eggs herbs vegetables honey meat nuts plants prepared-foods soap wine coffee fruits","","market","http://www.prosserfarmersmarket.com","-119.7653","46.20446","99350"
"Raymond","","Public Market On The Willapa","wa","4th & Haven Street","","","market","","-123.718","46.6749","98053"
"Cathlamet","www.facebook.com/pugetislandfarmersmarket","Puget Island Farmers Market","wa","59 W. Birnie Slough Road","baked goods cheese crafts flowers eggs seafood herbs vegetables honey jams meat nuts plants poultry soap beans fruits wild","","market","","-123.383954","46.181145","98612"
"Pullman","","Pullman Farmers Market ","wa","240 NE Kamiaken St","","","market","http://www.pullmanchamber.com/visit-pullman/things-to-do-in-pullman/farmers-market/","-117.179","46.7307","99163"
"Puyallup","Puyallup Farmers Market","Puyallup Farmers' Market","wa","300  S Meridian","organic baked goods cheese crafts flowers eggs seafood herbs vegetables honey jams meat nuts plants prepared-foods soap trees coffee fruits juices mushrooms","","market","http://www.puyallupmainstreet.com/farmersmarket","-122.2944912","47.1887299","98371"
"Seattle ","https://www.facebook.com/QAFarmersMkt","Queen Anne Farmers Market","wa","W Crockett Street and Queen Anne Ave N","organic baked goods cheese flowers eggs herbs vegetables honey jams meat prepared-foods wine coffee beans fruits juices mushrooms","https://twitter.com/@QAFarmersMkt","market","http://www.qafma.net","-122.357601","47.637172","98109"
"Renton","https://www.facebook.com/RentonFarmersMarket/?fref=nf","Renton Farmers Market","wa","233 Burnett Avenue South","organic baked goods cheese crafts flowers herbs vegetables honey jams meat nuts plants prepared-foods soap wine fruits juices","https://twitter.com/RentonFarmersM","market","http://rentonfarmersmarket.com/","-122.208506","47.480041","98057"
"Rochester","https://www.facebook.com/pages/RochesterGrand-Mound-Farmers-Market/135291536490463","Rochester/Grand Mound Farmers' Market","wa","9937 Hwy 12 SW","","","market","http://www.co.thurston.wa.us/grandmound-rochester/farmers-market.htm","-123.051","46.8072","98579"
"Roslyn","https://www.facebook.com/RoslynFarmersMarket/","Roslyn Farmers Market","wa","101 Pennsylvania Ave.","organic baked goods cheese crafts flowers eggs seafood herbs vegetables honey jams meat nuts plants poultry prepared-foods soap trees wine coffee fruits juices mushrooms wild","","market","http://www.roslynfarmersmarket.org/","-120.993868","47.222756","98941"
"Edmonds ","https://www.facebook.com/SalishCrossingFarmersMarket","Salish Crossing Farmer's Market","wa","Dayton and Sunset","organic baked goods cheese flowers eggs seafood vegetables honey meat fruits","https://twitter.com/salishmarket","market","","-122.383594","47.809985","98020"
"Vancouver","https://www.facebook.com/SalmonCreekFarmersMarket","Salmon Creek Farmers' Market","wa","1309 NE 134th Street","organic baked goods crafts flowers eggs herbs vegetables honey jams nuts plants prepared-foods soap trees wine fruits","","market","http://www.salmoncreekfarmersmarket.com","-122.657332","45.716862","98685"
"Vancouver","https://www.facebook.com/SalmonCreekFarmersMarket","Salmon Creek Farmers' Market at Legacy Hospital","wa","2211 NE 139th Street","organic baked goods crafts flowers eggs vegetables honey jams nuts plants prepared-foods soap coffee fruits mushrooms","","market","http://www.salmoncreekfarmersmarket.com","-122.6485540","45.7203870","98686"
"Sammamish","https://www.facebook.com/sammamishfarmersmarket","Sammamish Farmers Market","wa","801 228th Ave SE","organic baked goods cheese crafts flowers eggs herbs vegetables honey jams meat plants poultry prepared-foods soap wine fruits","","market","http://www.sammamishfarmersmarket.org","-122.0355952","47.6017740","98075"
"Friday Harbor","","San Juan Farmers Market","wa","Courthouse Parking Lot, 1st Street","","","market","","-123.067","48.5394","98250"
"Friday Harbor","https://www.facebook.com/pages/SJI-Farmers-Market/114942481856978","San Juan Island Farmers Market","wa","150 Nichols Street","organic baked goods cheese crafts flowers eggs seafood herbs vegetables honey jams meat nuts plants prepared-foods soap trees wine coffee beans fruits pet food","","market","http://www.sjifarmersmarket.com","-123.0162150","48.5337410","98250"
"Ilwaco","","Saturday Market At The Port Of Ilwaco","wa","Waterfront Way","","","market","http://www.funbeach.com/events/saturdaymarket/index.html","-123.999","46.3167","98624"
"Seattle","","Seattle City Hall Farmers Market featuring Pike Place Market Express","wa","600 4th Ave","organic baked goods flowers eggs herbs vegetables honey jams meat nuts beans fruits grains","","market","http://www.pikeplacemarket.org","-122.330361","47.603679","98104"
"Sedro-Woolley","https://www.facebook.com/sedrowoolleyfarmersmarket","Sedro-Woolley Farmers Market","wa","Corner of Ferry and Metcalf","organic baked goods cheese crafts flowers eggs herbs vegetables honey jams meat plants prepared-foods soap trees wine fruits","https://twitter.com/SWfarmersmarket","market","http://www.sedrowoolleyfarmersmarket.com","-122.2389","48.50555","98284"
"Sequim","https://www.facebook.com/sequimopenairemarket","Sequim Farmers Market","wa","Corner of Sequim Ave and Washington St.","organic baked goods crafts flowers eggs herbs vegetables honey jams meat plants poultry prepared-foods soap beans fruits grains","","market","http://www.sequimmarket.com","-123.1023323","48.0796314","98382"
"Shelton","https://www.facebook.com/SheltonFarmersMarket","Shelton Farmers Market","wa","3rd Street and Franklin Street","organic baked goods crafts flowers eggs seafood herbs vegetables honey plants prepared-foods soap trees wine fruits","https://twitter.com/SheltonMarket","market","http://www.sheltonfarmersmarket.com","-123.102214","47.214300","98584"
"Shoreline","https://www.facebook.com/shorelinefarmersmarket","Shoreline Farmers Market","wa","15300 Westminster Way","organic baked goods crafts flowers eggs herbs vegetables honey jams meat nuts poultry prepared-foods soap wine coffee beans fruits grains juices","","market","http://www.shorelinefarmersmarket.org","-122.348144","47.743402","98133"
"Silverdale ","Facebook/SilverdaleFarmersMarket","Silverdale Farmers Market","wa","2222 Bucklin Hill Rd","organic baked goods cheese flowers eggs herbs vegetables honey jams plants poultry prepared-foods soap wine fruits mushrooms wild","","market","http://www.SilverdaleFarmersMarket.com","-122.668607","47.651931","98383"
"Seattle","","Skyway Farmers Market","wa","11904 Renton Avenue South","flowers vegetables honey plants soap","","market","http://www.skywaysolutions.org","-122.244","47.4973","98178"
"Snohomish","https://www.facebook.com/snohomishfarmersmarket","Snohomish Farmers Market","wa","Cedar Avenue & Pearl Street","organic baked goods crafts flowers eggs herbs vegetables honey jams meat nuts plants poultry prepared-foods soap coffee fruits juices pet food wild","","market","http://www.snohomishfarmersmarket.org/","-122.0917196","47.9116429","98290"
"Spokane","","South Perry Farmers' Market","wa","924 South Perry St","baked goods cheese crafts flowers eggs herbs vegetables honey jams meat nursery nuts plants poultry prepared-foods soap trees","","market","http://www.thursdaymarket.org","-117.39","47.6466","99202"
"Spokane","","South Perry Farmers' Market - Indoor","wa","915 S Perry St","baked goods cheese crafts eggs herbs vegetables honey jams meat poultry prepared-foods soap","","market","http://www.thursdaymarket.org","-117.389817","47.646395","99202"
"Tacoma ","https://www.facebook.com/TacomaFarmersMarket","South Tacoma Farmers Market","wa","3873 S 66th St","organic baked goods cheese flowers eggs herbs vegetables jams meat nuts plants poultry soap trees coffee fruits mushrooms","","market","http://www.tacomafarmersmarket.com","-122.4887657","47.1985559","98409"
"Langley ","https://www.facebook.com/SouthWhidbeyTilthFarmersMarket?ref=hl","SOUTH WHIDBEY TILTH FARMERS' MARKET","wa","2812 Thompson Road","organic cheese crafts flowers herbs vegetables honey jams plants prepared-foods soap trees coffee beans fruits","","market","http://www.southwhidbeytilth.org/market.html","-122.474481","48.009171","98260"
"Spokane ","https://www.facebook.com/spokanefarmersmarket/?ref=aymt_homepage_panel","Spokane Farmers' Market","wa","20 W. 5th Avenue","organic baked goods cheese flowers eggs herbs vegetables honey jams meat plants poultry soap trees wine beans fruits grains juices mushrooms wild","","market","http://www.spokanefarmersmarket.org/","-117.412703","47.651776",""
"Steilacoom","https://www.facebook.com/Steilacoom-Farmers-Market-145578922125401/","Steilacoom Farmers' Market","wa","Lafayette and Wilkes Street","organic baked goods cheese crafts flowers eggs seafood herbs vegetables honey jams meat nuts prepared-foods soap coffee fruits juices","","market","http://www.townofsteilacoom.com/267/Farmers-market","-122.5984882","47.1727753","98388"
"stevenson","","Stevenson Farmers' Market","wa","199 2nd st","organic baked goods crafts flowers eggs seafood vegetables honey jams poultry soap fruits wild","","market","http://stevensonfarmersmarket.com","-121.883208","45.693968","98648"
"Poulsbo","https://www.facebook.com/suquamishfm/","Suquamish Farmers Market","wa","16281 WA-305","baked goods cheese crafts flowers seafood herbs vegetables honey jams prepared-foods soap trees coffee fruits","","market","http://www.suquamishfarmersmarket.org","-122.584276","47.708097","98370"
"Tacoma","https://www.facebook.com/TacomaFarmersMarket","Tacoma Farmers Markets","wa","The STAR Center at S. 66th and Adams","organic baked goods cheese crafts flowers eggs seafood herbs vegetables jams meat plants poultry prepared-foods soap trees fruits","","market","http://www.tacomafarmersmarket.com","-122.488751","47.198639",""
"Tacoma","https://www.facebook.com/TacomaFarmersMarket","Tacoma Farmers Markets -  Broadway","wa","South 56th Street & Washington Street","","https://twitter.com/TacomasMarkets","market","http://www.tacomafarmersmarket.com","-122.485","47.2061","98409"
"Tacoma","https://www.facebook.com/TacomaFarmersMarket","Tacoma Farmers Markets - 6th Avenue","wa","6th & Pine Street","organic baked goods cheese crafts flowers seafood herbs vegetables honey jams meat plants prepared-foods soap","https://twitter.com/TacomasMarkets","market","http://www.tacomafarmersmarket.com","-122.103","47.0233","98406"
"Tacoma","https://www.facebook.com/TacomaFarmersMarket","Tacoma Farmers Markets - South Tacoma","wa","Broadway between 9th & 11th Streets","organic baked goods cheese crafts flowers seafood herbs vegetables honey jams meat nuts plants prepared-foods soap","https://twitter.com/TacomasMarkets","market","http://www.tacomafarmersmarket.com","-122.441","47.2547","98402"
"Tenino","https://www.facebook.com/TeninoFarmersMarket","Tenino Farmers Market","wa","213 Sussex Ave W","baked goods crafts flowers herbs vegetables honey jams meat plants poultry prepared-foods soap trees wine fruits","","market","http://Teninofarmersmarket.org","-122.860375","46.853829","98589"
"Richland","","The NW Regional Food Hub / ShopTheNorthwest.com","wa","603 Goethals","organic baked goods cheese crafts flowers eggs herbs vegetables honey jams maple meat nursery nuts plants poultry prepared-foods soap trees wine","","market","http://www.ShopTheNorthwest.com","-119.2807010","46.2741210","99352"
"Tonasket","","Tonasket Farmers Market ","wa","U.S. 97 & N Western Ave","","","market","http://www.tonasketfarmersmarket.com/","-119.436","48.7106","98855"
"Tumwater","https://www.facebook.com/pages/Tumwater-Town-Center-Farmers-Market/147342618615328","Tumwater Town Center Farmers Market","wa","Israel Rd & Capitol Blvd","organic baked goods cheese crafts flowers eggs herbs vegetables honey jams meat plants poultry prepared-foods soap coffee fruits juices pet food tofu","","market","http://www.tumwaterfarmersmarket.org","-122.907776","46.985164","98512"
"Seattle","https://www.facebook.com/UniversityDistrictFarmersMarket","University District Farmers Market","wa","University Way NE and NE 50th","organic baked goods cheese flowers eggs seafood herbs vegetables honey jams meat nuts plants poultry prepared-foods wine beans fruits juices mushrooms wild","https://twitter.com/seattlefarmmkts","market","http://www.seattlefarmersmarkets.org","-122.313033","47.665626","98105"
"Vancouver","https://www.facebook.com/pages/The-Urban-Growers-Market/142574475792429","Urban Growers Market","wa","2315 Main st.","baked goods crafts flowers eggs vegetables honey plants prepared-foods soap trees fruits","","market","http://www.urban-growers-market.com","-122.6714","45.6385","98660"
"Vancouver","https://www.facebook.com/vancouverfarmersmarket","Vancouver Farmers Market","wa","605 S Esther St","organic baked goods cheese crafts flowers eggs herbs vegetables honey jams meat nuts plants poultry prepared-foods soap trees wine coffee beans fruits pet food wild","","market","http://www.vancouverfarmersmarket.com","-122.676050","45.626080","98660"
"Vashon","www.facebook.com/vashonfarmersmarket","Vashon Farmers Market - Saturday","wa","17519 Vashon Highway SW","organic baked goods cheese crafts flowers eggs seafood herbs vegetables honey jams meat nuts poultry prepared-foods soap trees wine coffee fruits","","market","http://www.vigavashon.org","-122.460747","47.447834","98070"
"Vashon","www.facebook.com/vashonfarmersmarket","Vashon Farmers Market - Wednesday","wa","17519 Vashon Highway SW","cheese eggs vegetables meat poultry fruits","","market","http://vigavashon.org/farmers-market/","-122.460661","47.447823","98070"
"Seattle","Wallingford Farmers Market","Wallingford Farmers Market","wa","4850 Meridian Ave N","organic baked goods cheese crafts flowers eggs seafood herbs vegetables honey jams meat plants poultry prepared-foods soap wine beans fruits mushrooms","WallingfordFMKT","market","http://sfmamarkets.com","-122.333175","47.663876","98103"
"Gig Harbor ","www.facebook.com/waterfrontfarmersmarketgigharbor/","Waterfront Farmers Market of Gig Harbor","wa","3211 Harborview Drive","organic baked goods cheese crafts flowers eggs seafood herbs vegetables honey jams meat nuts poultry prepared-foods soap wine coffee fruits mushrooms pet food","@WaterfrontMktGH","market","http://www.waterfrontfarmersmarket.org","-122.581037","47.331497","98335"
"Wenatchee","https://www.facebook.com/pages/Wenatchee-Valley-Farmers-Market/111910065486646?bookmark_t=page","Wenatchee Valley Farmers Market","wa","7 North Worthen St","organic baked goods cheese crafts flowers eggs seafood herbs vegetables honey jams meat nuts plants prepared-foods soap wine coffee beans fruits grains juices","","market","http://www.wenatcheefarmersmarket.com","-120.3078625","47.4249633","98801"
"Olympia","https://www.facebook.com/wolyfarmersmarket","West Olympia Farmers' Market","wa","1919 Harrison Avenue NW","organic baked goods cheese crafts flowers eggs seafood herbs vegetables jams meat plants poultry prepared-foods soap trees beans fruits juices mushrooms wild","@wolyfarm","market","http://www.wolyfarmersmarket.org","-122.9254883","47.0458884","98502"
"Seattle","https://www.facebook.com/WestSeattleFarmersMarket","West Seattle Farmers Market","wa","California Ave SW & SW Alaska","organic baked goods cheese flowers eggs seafood herbs vegetables honey jams meat nuts plants poultry wine fruits","https://twitter.com/seattlefarmmkts","market","http://www.seattlefarmersmarkets.org","-122.386783","47.561366","98116"
"White Salmon ","https://www.facebook.com/pages/White-Salmon-Farmers-Market/181714565219379","White Salmon Farmers' Market","wa","Corner of Estes and Jewett","organic baked goods cheese flowers eggs seafood herbs vegetables honey jams meat plants poultry prepared-foods wine coffee fruits grains juices mushrooms tofu wild","","market","","-121.4840161","45.7271523","98672"
"Darrington","https://www.facebook.com/pages/Whitehorse-Farmers-Market/531397356991670?ref=ts&fref=ts","Whitehorse Farmers Market","wa","1180 Cascade Street","organic baked goods cheese crafts flowers eggs seafood herbs vegetables honey jams plants soap trees coffee fruits pet food wild","","market","","-121.6079540","48.2545260","98241"
"Winlock ","https://www.facebook.com/Winlock-Saturday-Market-Featuring-Local-Farmers-Artisans-280867232253864/?fref=ts","Winlock Saturday Market - Featuring Local Farmers & Artisans from our community.","wa","Corner of SR 603 & SR 505","crafts flowers eggs herbs vegetables honey plants soap trees coffee fruits wild","","market","https://www.facebook.com/Winlock-Saturday-Market-Featuring-Local-Farmers-Artisans-280867232253864/?fref=ts","-122.937907","46.492282","98596"
"Woodinville","https://www.facebook.com/WoodinvilleFarmersMarket","Woodinville Farmers Market","wa","17301 133rd Ave NE","organic baked goods cheese crafts flowers vegetables honey jams soap fruits","https://twitter.com/WFMManager","market","http://www.WoodinvilleFarmersMarket.com","-122.161499","47.752980","98072"
"Yelm ","Yelmfarmersmarket","Yelm farmers market","wa","17835 WA-507","organic cheese crafts flowers eggs vegetables honey jams plants soap wine fruits juices mushrooms wild","","market","http://Www.yelmfarmersmarket.com","-122.5598900","46.9320390","98597"
