"city","facebook","name","state","street","tags","twitter","type","website","x","y","zip"
"Gay","https://www.facebook.com/BeeappyFarmLLC","Beeappy Farm","wv","1918 Brush Run Road","eggs honey poultry fowl soap body-care","","farm","beeappy.com","-81.555851","38.770123","25244"
"Clem","https://www.facebook.com/gardentreasureswv","Garden Treasures WV","wv","HC 69 Box 30-Tate Creek Road","bedding plants crafts woodworking cut-flowers eggs herbs fresh-vegetables mushrooms nursery-stock soap body-care wild-harvested forest-products","","farm","www.gardentreasureswv.com","-80.9142710","38.6342643","26623"
"Burlington","","Green Family Farm","wv","Rt 1 Box 79A","poultry fowl red-meat non-poultry-meat","","farm","greenfamilyfarm.org","-78.869068","39.367164","26710"
"Shenandoah Junction","","Harmony Hill Farm","wv","6920 Flowing Springs Rd","eggs poultry fowl red-meat non-poultry-meat","","farm","www.HarmonyHillFarmWV.com","-77.8168320","39.3861820","25442"
"West Union","","JP Family Farms","wv","554 Joy Cabin Run Road","fresh-fruits fresh-vegetables grains flour","","farm","","-80.873430","39.226951","26456"
"Lost Creek","https://www.facebook.com/pages/L-M-Farms/168574719871551","L & M Farms","wv","1806 Buffalo Creek Rd.","bedding plants canned preserved coffee tea crafts woodworking eggs herbs fresh-fruits fresh-vegetables honey soap body-care wild-harvested forest-products","","farm","","-80.440978","39.212277","26385"
"Tunnelton","","Mountain Diamond Longhorns, LLC","wv","98 Atlantic Road","","","farm","","-79.748395","39.39176","26444"
"Williamsburg","http://www.facebook.com/mountainmeadowsfarmwv","Mountain Meadows Farm","wv","699 Nolen Lane","crafts woodworking red-meat non-poultry-meat","","farm","http://www.mtmeadowsfarm.com","-80.4923023","37.9701195","24991"
"Terra Alta","https://www.facebook.com/PossumTailFarm","Possum Tail Farm","wv","1771 Oak Grove Rd","cut-flowers eggs pet-food poultry fowl red-meat non-poultry-meat","","farm","www.possumtailfarm.com","-79.5144706","39.4845137","26764"
"Williamstown","","Ridge View Farm","wv","1260 Keller Lane","","","farm","ridgeviewfarmbeef.com","-81.480821","39.345092","26187"
"Martinsburg","shepherd's Whey Creamery","Shepherd's Whey Creamery","wv","825 Jenny Wren Drive","dairy products eggs red-meat non-poultry-meat","","farm","shepherdswheycreamery.com","-77.929560","39.461883","25404"
"Renick","https://www.facebook.com/Glickster","Sunshine Farm & Gardens","wv","696 Glicks Rd","bedding plants cut-flowers nursery-stock wild-harvested forest-products","https://www.twitter.com/sunfarmtweets","farm","www.sunfarm.com","-80.437171","38.066520","24966"
"Good Hope","https://www.facebook.com/WVGrassfedMeats/","TarryLeas Farms","wv","State Route 19 ","baked-goods bedding plants crafts woodworking cut-flowers herbs fresh-fruits fresh-vegetables red-meat non-poultry-meat soap body-care","","farm","","-80.439108","39.175611","26385"
"Wardensville","https://www.facebook.com/wardensvillegardenmarket/","Wardensville Garden Market","wv","28813 SR 55","bedding plants coffee tea cut-flowers eggs herbs fresh-fruits fresh-vegetables mushrooms","","farm","wardensvillegardenmarket.org","-78.5920181","39.0835447","26851"
"Renick","https://www.facebook.com/whiteoakberryfarm","White Oak Farm","wv","1700 Brownstown Road","fresh-fruits fresh-vegetables","","farm","www.whiteoakberryfarm.com","-80.3363820","37.9994470","24966"
"Terra Alta","https://www.facebook.com/workinghfarms","Working H Farms","wv","17 Reckart Mill","eggs poultry fowl red-meat non-poultry-meat","","farm","www.workinghfarms.com","-79.5280250","39.5535670","26764"
"Alderson ","https://www.facebook.com/aldersonfood","Alderson Farmers Market ","wv","Rt. 3  Main Street","organic baked goods crafts herbs vegetables jams maple meat fruits","","market","http://www.aldersonmarket.org","-80.642024","37.725954","24910"
"Amma","","Amma Farmers Market","wv","Amma Senior and Community Center","baked goods crafts eggs herbs vegetables honey jams prepared-foods soap fruits","","market","","-81.255883","38.583305","25252"
"Philippi","https://www.facebook.com/bccgardenmarket","Barbour County Community Garden Market","wv","106 S. Main St","organic baked goods cheese crafts eggs herbs vegetables honey jams maple meat nuts plants poultry prepared-foods soap trees coffee beans fruits grains mushrooms wild","","market","http://www.heartandhandhouse.org","-80.036253","39.151808","26416"
"Belington","","Belington Farmers Market","wv","1 County Highway 11","","","market","","-79.9357","39.0251","25250"
"Berkeley Springs","https://www.facebook.com/pages/Berkeley-Springs-Farmers-Market/354062496235","Berkeley Springs Farmers Market","wv","129 Fairfax Street at Washington Street/522","organic baked goods cheese crafts flowers eggs herbs vegetables honey jams meat plants poultry prepared-foods soap coffee fruits juices mushrooms wild","","market","http://www.berkeleyspringsfarmersmarket.com","-78.227534","39.624722","25411"
"Bramwell ","https://www.facebook.com/BramwellFarmersMarket","Bramwell Farmers' Market","wv","100 simmons ave","baked goods crafts flowers vegetables jams plants prepared-foods soap fruits","","market","","-81.313467","37.325145","24715"
"Gassaway","","Braxton County Tailgate Market","wv","Rt. 4 Gassaway","","","market","","-80.7719","38.6753","26624"
"Bridgeport","https://www.facebook.com/pages/Bridgeport-Farmers-Market/181228659667","Bridgeport Farmers Market","wv","600 Market Place ","baked goods cheese crafts flowers eggs seafood herbs vegetables honey jams maple meat nuts plants poultry prepared-foods soap fruits","Follow us on Twitter","market","","-80.232076","39.308999","26330"
"Follansbee","https://www.facebook.com/Brookecountyfarmersmarketwv/","Brooke County Farmers Market - Follansbee ","wv","1500 Main Street","baked goods crafts eggs vegetables honey jams maple poultry fruits","","market","","-80.5949138","40.3379157","26037"
"Wellsburg","","Brooke County Farmers Market - Wellsburg","wv","Route 2 Wellsburg","baked goods crafts eggs vegetables honey jams maple poultry fruits","","market","https://www.facebook.com/Brookecountyfarmersmarketwv/","-80.6377819","40.2510088","26070"
"Bruceton Mills","","Bruceton Farmers' Market","wv","Bruceton School Morgantown St.","","","market","http://www.pcfamilyfit.org","-79.6413","39.661","26525"
"Bruceton Mills","","Bruceton Mills Farmers Market","wv","Across from the Fire Hall","","","market","","-79.6412","39.6587","26525"
"Buckhannon","www.facebook.com/BuckhannonUpshurFarmerMarket","Buckhannon - Upshur Farmer's Market Association","wv","Jaw Bone Park (South Florida Street)","organic baked goods crafts flowers eggs herbs vegetables honey jams maple meat plants poultry prepared-foods soap trees fruits","","market","","-80.228348","38.992638","26201"
"Chloe","","Calhoun County Farmers Market","wv","Upper West Fork Park","organic baked goods crafts flowers eggs herbs vegetables honey jams plants prepared-foods soap","","market","","-81.092427","38.698875","25268"
"Charleston","","Capitol Market","wv","800 Smith St.","","","market","http://www.capitolmarket.net","-81.6284","38.3525","25301"
"Huntington","","Central City Market","wv","555 West 14th Street","","","market","http://www.centralcitymarket.com","-82.4793","38.4111","25704"
"Charles Town","Charles Town Farmers Market, WV","Charles Town Farmers Market","wv","100 block of South Samuel Street","baked goods cheese crafts flowers eggs seafood herbs vegetables honey jams meat plants poultry prepared-foods soap trees coffee beans fruits grains juices","","market","","-77.858207","39.289098","25414"
"Clarksburg","www.facebook.com/cwvfm","Clarksburg Farmers Market","wv","210 Emily Drive","baked goods crafts eggs herbs vegetables jams maple meat plants poultry soap fruits pet food","","market","http://www.cfmwv.com","-80.2825090","39.2763760","26301"
"Clarksburg","www.facebook.com/clarksburgwvfarmersmarket","Clarksburg Farmers Market - Winter","wv","117 N. 2nd Street","baked goods crafts eggs vegetables jams maple meat poultry soap pet food","","market","http://www.cfmwv.com","-80.337583","39.280155","26301"
"Clay","@Claycountyfarmersmarket","Clay County Farmers Market","wv"," 1821 MAIN STREET ","baked goods crafts eggs vegetables honey jams fruits","","market","","-81.083293","38.459612",""
"West Union","","Doddridge County FFA Farmers Market","wv","Football Field","","","market","","-80.777","39.2966","26456"
"East, Charleston","https://www.facebook.com/EastEndBazaar","East End Bazaar","wv","1428 Washington Street","","","market","http://charlestoneastend.com/east-end-bazaar/","-81.623015","38.343981",""
"Elkins","www.facebook.com/elkinsfarmersmarket","Elkins Farmers Market","wv","315 Railroad Avenue","baked goods crafts flowers eggs herbs vegetables honey jams maple meat plants poultry prepared-foods soap fruits","","market","http://www.elkinsfarmersmarket.org","-79.851465","38.925162","26241"
"Beverly","www.facebook.com/theMPbeverly","Elkins Farmers Market - The Marketplace","wv","248 Main St","","","market","http://www.elkinsfarmersmarket.org","-79.875338","38.841115","26253"
"Fairmont","https://www.facebook.com/Fairmont-Farmers-Market-106429072728729/","Fairmont Farmers Market Downtown Location","wv","Adams Street","baked goods eggs herbs vegetables honey jams meat poultry soap fruits","","market","","-80.141524","39.485128","26554"
"Fairmont ","https://www.facebook.com/Fairmont-Farmers-Market-106429072728729/","Fairmont Farmers Market I-79 Technology Park Location ","wv","3000 Technology Drive","baked goods eggs herbs vegetables honey jams meat poultry soap fruits","","market","","-80.191687","39.431586","26554"
"Fairview","","Fairview WV Farmer's Market ","wv","RT. 218, 318 Main Street, Formerly's Poppy's Parking","","","market","http://www.localharvest.org/fairview-wv-farmers-market-M44640","-80.2474","39.5924","26570"
"Davis","https://www.facebook.com/groups/farmartmarket/","Farmer & Artisan Regional Market","wv","William Ave (Route 32)","baked goods cheese crafts flowers eggs herbs vegetables jams meat poultry soap fruits mushrooms","","market","","-79.468602","39.127619","26260"
"Beckley ","","Farmers Market","wv","599 Market Road","baked goods eggs seafood vegetables honey jams meat poultry coffee beans fruits grains juices","","market","","-81.1906007","37.8175575","25801"
"Oak Hill","www.facebook.com/fayettecountyfarmersmarket","Fayette County Farmers Market","wv","138 E Main St","baked goods crafts flowers eggs herbs vegetables honey jams maple meat plants poultry prepared-foods soap trees fruits","","market","","-81.143239","37.975361","25901"
"Fayetteville","www.facebook.com/fayettecountyfarmersmarket","Fayette County Farmers Market","wv","312 N Court St","baked goods crafts flowers eggs herbs vegetables honey jams maple meat plants poultry prepared-foods soap trees fruits","","market","","-81.104507","38.056100","25840"
"Flatwoods","","Flatwoods Farmers Market","wv","Flatwoods Factory Stores","","","market","","-80.6498","38.7232",""
"Glenville","","Gilmer County Farmers Market","wv","Corner of State Route 5 and U.S. Hwy 33 E","baked goods crafts flowers eggs herbs vegetables honey jams nursery plants soap trees","","market","","-80.820086","38.941186","26351"
"Grafton","https://www.facebook.com/Grafton-Farmers-Market-819537644757046/","Grafton Farmers Market","wv","Main Street","baked goods crafts eggs vegetables honey jams meat fruits","","market","","-80.017140","39.340373","26354"
"Petersburg","","Grant County Farmers Market","wv","City Parking Lot","","","market","","-79.1239","38.9926","26847"
"Grantsville","","Grantsville Farmers Market","wv","School St.","organic baked goods flowers eggs herbs vegetables honey jams maple meat nursery plants poultry prepared-foods soap trees","","market","","-81.0933500","38.9200139","26147"
"Parkersburg ","www.facebook.com/ittlebittymercantile","Ittle Bitty Mercantile ","wv","113 Ann Stree ","baked goods cheese crafts flowers eggs seafood herbs vegetables honey jams maple meat nuts plants poultry prepared-foods soap trees coffee beans fruits grains juices mushrooms pet food wild","","market","","-81.5668490","39.2655570","26101"
"Leon ","https://www.facebook.com/ittlebittyfarms","ITTLE MOBILE MARKET","wv","3321 Cabin Ridge Road","baked goods cheese crafts flowers eggs herbs vegetables honey jams maple meat plants poultry prepared-foods soap coffee beans fruits grains juices pet food wild","","market","","-81.8588190","38.7261850","25123"
"Ripley","","Jackson County Farmers market","wv","McGraw Street","baked goods cheese flowers eggs herbs vegetables honey meat poultry soap","","market","","-81.723175","38.820668","25271"
"Keyser","","Keyser Farmers Market-Fort Ashby Farmers Market","wv","Across from Mineral County Fairgrounds","","","market","","-78.7613","39.4967","26726"
"Kingwood","Kingwood WV,  Farmers Market","Kingwood Farmer's Market","wv","111 E Main Street","baked goods eggs herbs vegetables honey jams maple meat plants poultry fruits","","market","","-79.686532","39.472387","26537"
"Lewisburg","https://www.facebook.com/LewisburgFarmersMarket","Lewisburg Farmer's Market","wv","214 E. Washington St.","baked goods crafts flowers eggs herbs vegetables honey jams maple meat nuts poultry prepared-foods soap trees coffee fruits mushrooms pet food","","market","http://www.lewisburgfarmersmarket.com","-80.443128","37.800849","24901"
"Hamlin","","Lincoln County Farm Bureau Farmers Market","wv","","","","market","","-82.1052","38.279","25523"
"Moundsville","","MarshallCountyFarmers'Market","wv","12thstreet","baked goods crafts eggs herbs vegetables plants","","market","","-80.7257","39.9156","26041"
"Hartford","","Mason County Farmers Market (Point Pleasant & Hartford/New Haven Markets)","wv","Route 62","baked goods crafts herbs vegetables honey jams maple plants","","market","","-81.9503","38.6996","25550"
"Point Pleasant","","Mason County Farmers Market (Point Pleasant & Hartford/New Haven Markets)","wv","1st Street","baked goods herbs vegetables honey jams maple plants","","market","","-82.1316","38.8346","25550"
"Princeton","","Mercer County Tailgate Produce Market","wv","Mercer County Tech. Education Center","","","market","","-81.0272","37.4111","24740"
"Keyser","https://www.facebook.com/pages/Mineral-County-Farmers-Market/139241596089005","Mineral County Farmers' Market-- Keyser Assembly of God","wv","Route 220 South","baked goods flowers eggs herbs vegetables honey jams plants prepared-foods soap fruits","","market","","-79.007519","39.401158","26726"
"Union","https://www.facebook.com/monroefarmmarket","Monroe Farm Market","wv","Monroe Health Center Drive","organic baked goods crafts flowers eggs herbs vegetables honey jams maple plants poultry prepared-foods soap trees wine coffee fruits grains mushrooms pet food","","market","","-80.5473870","37.5883119","24983"
"Shepherdstown","https://www.facebook.com/morgansgrovemarket","Morgan's Grove Market","wv","3988 Kearneysville Pike","organic baked goods cheese crafts flowers eggs seafood herbs vegetables honey jams meat nuts plants poultry prepared-foods soap trees coffee beans fruits grains pet food wild","","market","http://www.morgansgrovemarket.com","-77.8254","39.4204","25443"
"Morgantown","https://www.facebook.com/MorgantownFarmersMarket","Morgantown Farmers Market","wv","503 North High Street","baked goods cheese crafts flowers eggs herbs vegetables honey jams maple meat plants poultry soap fruits","https://twitter.com/MorgantownMkt","market","http://www.morgantownfarmers.org/","-79.9537900","39.6327039","26505"
"Morgantown","https://www.facebook.com/MorgantownFarmersMarket","Morgantown Farmers' Market","wv","400 Spruce Street","baked goods cheese crafts flowers eggs herbs vegetables honey jams maple meat nuts plants poultry soap trees coffee beans fruits grains juices pet food","https://twitter.com/MorgantownMkt","market","http://www.morgantownfarmers.org/","-79.953720","39.630482","26505"
"Parkersburg","https://www.facebook.com/pages/Downtown-Farmers-Marketplace/354915743984","Parkersburg Farmers Market","wv","","baked goods crafts flowers eggs herbs vegetables honey jams meat plants poultry prepared-foods soap fruits","","market","http://www.parkersburgfarmersmarket.com","-81.562490","39.264507","26102"
"Sugar Grove","","Pendleton County Farmers Market","wv","Intersection of Route's 220 & 33","","","market","","-79.3209","38.511","26807"
"Pineville","","Pineville Farmers Market","wv","In front of Old Pineville Jr. High School","","","market","","-81.537","37.5832","24859"
"St. Marys","Pleasants Area Farmers Market","Pleasants Area Farmers Market","wv","2nd Street ","baked goods crafts eggs herbs vegetables honey meat plants fruits","N/A","market","","-81.205928","39.390828","26170"
"Green Bank","https://www.facebook.com/PocahontasCountyFarmersMarket","Pocahontas County Farmers Market","wv","4909 Potomac Highlands Trail","baked goods cheese crafts flowers eggs herbs vegetables honey jams maple meat plants poultry prepared-foods soap trees coffee fruits grains juices","","market","","-79.840089","38.417550","24944"
"Slatyfork","https://www.facebook.com/PocahontasCountyFarmersMarket","Pocahontas County Farmers Market","wv","1 Snowshoe Drive","baked goods cheese crafts flowers eggs herbs vegetables honey jams maple plants poultry prepared-foods soap trees coffee fruits grains juices","","market","","-80.0643019","38.4182262","26291"
"Marlinton","https://www.facebook.com/PocahontasCountyFarmersMarket","Pocahontas County Farmers Market","wv","First Avenue","baked goods crafts flowers eggs herbs vegetables honey jams maple plants poultry prepared-foods soap trees coffee fruits grains juices","","market","","-79.840089","38.417550","24954"
"Hurricane","www.facebook.com/putnamfarmersmarket","Putnam Farmers Market","wv","1 Valley Way","organic baked goods crafts eggs herbs vegetables honey meat plants poultry fruits","","market","http://putnamfarmersmarket.weebly.com","-81.995540","38.441892","25526"
"Harrisville","","Ritchie County Farmers Market","wv","East Main Street, in front of Municipal Building","eggs trees","","market","http://www.ritchiecountyfarmersmarket.com","-81.041563","39.214246","26362"
"Romney","www.facebook.com/RomneyFarmersMarket","Romney Farmers Market ","wv","","baked goods cheese crafts eggs herbs vegetables honey jams meat plants soap trees fruits","","market","http://romneywvfarmersmarket.weebly.com","-78.701699","39.329335",""
"Ronceverte","","Ronceverte Farmers Market","wv","1ST National Bank Employees Parking Lot","crafts herbs honey jams maple plants","","market","","-80.4612","37.7737","24970"
"Salem","","Salem Farmers Market","wv","Railroad st","flowers eggs herbs vegetables honey jams maple meat plants poultry prepared-foods fruits","","market","http://Nissans 05 @ yahoo.com","-80.5548","39.2818","26426"
"Shepherdstown","https://www.facebook.com/ShepherdstownFarmersMarket/?ref=bookmarks","Shepherdstown Farmers Market I","wv","S. King St.","organic baked goods cheese flowers eggs seafood vegetables honey jams meat plants prepared-foods soap trees coffee fruits grains mushrooms pet food","","market","","-77.806025","39.430504","25443"
"Shepherdstown","","Shepherdstown Farmers Market III","wv","South on King Street (by Post Office)","","","market","","-77.8067","39.4294","25430"
"Sistersville","","Sistersville Farmers Market","wv","Route 2 Sistersville  WV","","","market","","-81.0001","39.5609","26175"
"Spencer","","Spencer Farmers Market","wv","200 Bowman Street Parking Plaza","baked goods crafts eggs herbs vegetables honey jams plants prepared-foods soap fruits","","market","http://www.roane.ext.wvu.edu/farmers_markets/spencer","-81.350241","38.803330","25276"
"St. Marys","","St. Marys Farmers Market","wv","411 3rd Street","","","market","","-81.2039","39.3909",""
"Hinton","","Summers Tailgate Market","wv","Old Otter Holler Farm","","","market","","-80.8878","37.6568","24962"
"Summersville","","Summersville Tailgate Market, Inc","wv","Broad Street, across from Dairy Queen","","","market","http://www.wvfarmers.org/memberpages/summersvilletailgatemarket.html","-80.8502","38.2862","26651"
"Sutton","","Sutton Tailgate Market","wv","","","","market","","-81.1075","37.362","25063"
"Thomas","https://www.facebook.com/tasteoftuckerwv","Taste of Tucker Farmers Market","wv","Riverfront Main Street","baked goods crafts flowers eggs herbs vegetables honey jams meat plants soap fruits","","market","","-79.4981090","39.1489967","26292"
"Parsons","https://www.facebook.com/tasteoftuckerwv?ref=br_tf","Taste of Tucker Farmers Market - Mill Race Park","wv","Mill Race Park","baked goods crafts flowers eggs herbs vegetables honey jams meat plants soap fruits","","market","","-79.6808960","39.0964950","26287"
"Grafton","","Taylor County Farmers Market","wv","B&O Railroad Depot (museum) parking lot","","","market","","-80.0191","39.3407","26354"
"Chapmanville","","Taylor's Farm Market","wv","85 Farmers Market Road","vegetables honey jams maple","","market","http://www.wvagriculture.org","-82.011888","37.934771","25508"
"Inwood","https://www.facebook.com/taylorsfarmmarket","Taylor's Farm Market","wv","178 Pilgrim Street","baked goods cheese crafts eggs vegetables honey jams maple meat plants poultry prepared-foods soap wine coffee fruits grains juices","","market","http://www.taylorfarmsmarket.com","-78.0427390","39.3612540","25428"
"Terr Alta","","Terra Alta Farmers Market","wv","Terra Alta Community Park","","","market","http://www.wvfarmers.org/memberpages/gardenfreshfarmersmarket.html","-80.5429","37.8696","26764"
"Weston","The Lewis Co. Farmers Market","The Lewis Co. Farmers Market, Inc.","wv","210 Center Ave","baked goods crafts eggs vegetables honey jams maple meat fruits wild","","market","","-80.465764","39.037553","26452"
"Weirton","","The Serbian Sun Market ","wv","1000 Colliers Way","","","market","http://www.localharvest.org/the-serbian-sun-market-M59548","-80.5351","40.383","26062"
"Huntington ","https://www.facebook.com/HuntingtonLocalFoodMarket?","The Wild Ramp","wv","555 14th Street West","organic baked goods cheese crafts flowers eggs seafood herbs vegetables honey jams maple meat plants poultry prepared-foods soap trees coffee beans fruits grains juices mushrooms","","market","http://wildramp.org/","-82.479326","38.411133","25704"
"Middlebourne","https://www.facebook.com/TylerWVFarmersMarket","Tyler County WV Farmers Market","wv","Parking Lot of Witschey's, W.Va. 18","baked goods cheese crafts flowers eggs herbs vegetables honey jams maple plants soap fruits mushrooms","","market","","-80.904662","39.491108","26149"
"Walton","","Walton Farmers Market","wv","Main Street (RT 119)-Walton Community Park","baked goods crafts eggs herbs vegetables jams plants soap fruits","","market","","-81.402262","38.638495","25286"
"Wayne","","Wayne County Farmers Market Association","wv","221 Central Avenue","vegetables honey fruits","","market","","-82.449667","38.291284","25570"
"huntington","","Wayne County Farmers Market Association","wv","4350 5th Street Rd.","","","market","","-82.4527","38.3569","25701"
"Webster Springs","","Webster Springs Farmer's Market","wv","Baker's Island","baked goods eggs herbs vegetables honey jams nuts fruits","","market","","-80.414772","38.477463","26288"
"Weirton","","Weirton Events Center","wv","3322 East Street","baked goods flowers eggs herbs vegetables honey plants","","market","http://www.hancock.ext.wvu.edu/","-80.5877512","40.4037733","26062"
"Weirton","","Weirton Farmers Market","wv","306-308 Penco Road","baked goods flowers eggs herbs vegetables honey plants","","market","http://www.hancock.ext.wvu.edu/","-80.5470929","40.4091875","26062"
"Rainelle ","https://www.facebook.com/RainelleRupertQuinwood/","Western Greenbrier Farmers Market","wv","Main and 11th st","baked goods crafts flowers eggs herbs vegetables honey jams maple plants prepared-foods soap fruits","","market","","-80.760056","37.972743","25962"
"New Martinsville ","https://www.facebook.com/WetzelCounty FarmersMarket","Wetzel County Farmers Market","wv","Bruce Park, State Route 2","baked goods crafts flowers eggs herbs vegetables honey jams maple meat plants prepared-foods soap trees fruits","","market","http://www.growlocalgolocal.org","-80.858361","39.646017","26155"
"Wheeling","https://www.facebook.com/WheelingFarmersMarket","Wheeling Farmers Market I","wv","1221 National Rd","organic baked goods flowers eggs herbs vegetables honey jams plants fruits","","market","","-80.682717","40.073187","26003"
"Wheeling, ","https://www.facebook.com/WheelingFarmersMarket","Wheeling Farmers Market II","wv","Elm Terrace Shopping Center (East Cove Ave.)","baked goods vegetables plants fruits","","market","","-80.6533810","40.0450779","26003"
"Williamson","https://www.facebook.com/WilliamsonFarmersMarket/","Williamson Farmers Market","wv","100 East 2nd Ave.","baked goods crafts eggs herbs vegetables honey jams meat soap fruits mushrooms","","market","http://www.healthyinthehills.com","-82.276602","37.670411","25661"
"WSS ","WSS Farmer's Market","WSS Farmer's Market","wv","Midland Trail","organic baked goods crafts flowers vegetables honey jams maple meat plants soap fruits wild","","market","","-80.299791","37.794864","24986"
