"city","facebook","name","state","street","tags","twitter","type","website","x","y","zip"
"Blacksburg","https://www.facebook.com/3BirdsBerryFarm","3 Birds Berry Farm","va","1876 Brooksfield Rd","canned preserved cut-flowers fresh-fruits","","farm","3birdsberryfarm.com","-80.491034","37.216789","24060"
"Purcellville","","A Dozen Eggs","va","37938 Charles Town Pike","canned preserved eggs honey pet-food poultry fowl wine spirits beer hard-cider","","farm","www.pastureraisedeggs.com","-77.690603","39.188266","20132"
"Goshen","","Aeyles Farm, LLC","va","553 Big River Road","cut-flowers dry beans eggs herbs fresh-fruits fresh-vegetables","","farm","","-79.505417","38.019411","24439"
"Beaverdam","https://www.facebook.com/AlpacaPasturesVA","Alpaca Pastures of Virginia, Inc","va","18388 Beaver Dam Road","crafts woodworking","","farm","www.AlpacaPasturesVA.com","-77.659154","37.912894","23015"
"Bedford","","Appleseed Country Johnsons Orchards and Peaks of Otter Winery","va","2122 Sheep Creek Road","canned preserved fresh-fruits fresh-vegetables honey juices ciders poultry fowl wine spirits beer hard-cider","","farm","www.JohnsonsOrchards.com","-79.625107","37.397604","24523"
"Farmville","","Autumn Grove Farm","va","221 Ligontown Road","","","farm","","-78.262985","37.384715","23901"
"Amelia","https://www.facebook.com/averysbranch","Avery's Branch Farms","va","16923 Genito Rd.","","","farm","www.averysbranchfarms.com","-77.9917437","37.4460021","23002"
"Wytheville","https://www.facebook.com/beagleridge","Beagle Ridge Herb Farm","va","1934 Matney Flats Rd","soap body-care","","farm","www.beagleridgeherbfarm.com","-81.0783909","36.8754143","24382"
"newport","","Bee Berry Farm","va","1588 Blue Grass Trail","","","farm","http://beeberryfarm.net/","-80.4461360","37.3150920",""
"JONESVILLE","","Born Free Farm","va","P.O. BOX 31","cut-flowers","","farm","http://bornfreefarm.webs.com/apps/webstore/ ","-83.248354","36.614715","24263"
"Fredericksburg","","Botanical Bites & Provisions, LLC","va","4738 Massaponax Church Road","cut-flowers fresh-fruits fresh-vegetables honey soap body-care","","farm","https://www.botanicalbitesandprovisionsllc.com/","-77.498095","38.193824","22408"
"Elkton","","Broma Fields","va","3418 Blose Road","herbs fresh-fruits fresh-vegetables honey red-meat non-poultry-meat","","farm","","-78.5993451","38.4463616","22827"
"New Baltimore","","Buckland Farm Market","va","4484 Lee Hwy","","","farm","","-77.700951","38.770307","22824"
"Haymarket","www.facebook.com/burnsidefarms","Burnside Farms","va","4905 James Madison Hwy","bedding plants canned preserved cut-flowers eggs fresh-fruits fresh-vegetables honey juices ciders","twitter.com/burnsidefarms","farm","www.burnsidefarms.com","-77.636983","38.848823","20169"
"Rocky Mount","","Dansby's Berry and Asparagus Farm","va","4481 Colonial Turnpike","bedding plants fresh-fruits fresh-vegetables","","farm","Dansbyelaine@ymail.com","-79.761102","36.954019","24151"
"Allisonia ","Deer Haven Blueberry Patch","Deer Haven Blueberry Patch","va","118 Raven Ridge","canned preserved fresh-fruits","","farm","www.deerhavenblueberrypatch.comn","-80.699440","36.872617","24347"
"Roseland","","Dickie Bros. Orchard","va","2685 Dickie Road","canned preserved crafts woodworking fresh-fruits fresh-vegetables honey juices ciders","","farm","dickiebros.com","-79.0437351","37.7743573","22967"
"Richardsville","","Digging Dog Farm","va","","","","farm","www.thediggingdogfarm.com","-77.740219","38.392769","22736"
"Beaverdam","https://www.facebook.com/dragonflyfarms","Dragonfly Farms","va","16259 Trainham Road","red-meat non-poultry-meat","","farm","www.dragonflyfarms.com","-77.660639","37.942159","23015"
"Meadowview","https://www.facebook.com/DreamlandAlpacasLLC","Dreamland Alpacas ","va","13050 Bell Lane","","","farm","","-81.861529","36.767740","24361"
"Wakefield","www.facebook.com-Drewry.Farm.Blueberries","Drewry Farm","va","541 Strawberry Lane","eggs fresh-fruits fresh-vegetables","","farm","www.drewryfarms.com","-76.965472","37.002663","23888"
"Hanover","","Empress Farm","va","2336 King William Rd.","","","farm","www.empressfarmfoods.com","-77.298099","37.810634","23069"
"Richmond","https://www.facebook.com/gallmeyerfarms","Gallmeyer Farms Veggie Stand","va","4506 Millers Lane","eggs fresh-fruits fresh-vegetables honey","","farm","http://gallmeyerfarms.com","-77.365067","37.525187","23231"
"Washington","https://www.facebook.com/thefarmatlittlewashington?ref=hl","Goat Hill on Farm Market","va","365 Tiger Valley Rd.","cut-flowers fresh-fruits fresh-vegetables nursery-stock wild-harvested forest-products","","farm","goathill.farm","-78.147868","38.702165","22747"
"Suffolk","","Golden Eagle Alpaca Farm","va","2505 Pittmantown Rod","crafts woodworking eggs herbs fresh-fruits fresh-vegetables","","farm","www.goldeneaglealpacafarm.com","-76.7856360","36.5605110","23438"
"Weyers Cave","https://www.facebook.com/harmonyharvestfarm","Harmony Harvest Farm LLC","va","201 Little Run Road","cut-flowers herbs","https://www.twitter.com/harmonyhrvst","farm","www.harmonyharvestfarm.com","-78.8896060","38.2538520","24486"
"Scottsville","","Hope of Glory Farm, LLC","va","86 Old Spring Hill Rd","","","farm","http://www.hopeofgloryfarm.com/","-78.462800","37.808923","24590"
"South Boston","https://www.facebook.com/pages/Hudson-Heritage-Farms-LLC/172016466152452","Hudson Heritage Farms, LLC","va","14242 River Road","","","farm","https://sites.google.com/site/hudsonheritagefarms/","-79.1248697","36.6753273","24592"
"Daleville","Ikenberry Orchards","Ikenberry Orchards","va","2557 Roanoke Road","baked-goods bedding plants canned preserved coffee tea dairy products dry beans eggs herbs fresh-fruits fresh-vegetables honey juices ciders maple-products nuts prepared foods red-meat non-poultry-meat soap body-care wine spirits beer hard-cider","n/a","farm","Ikenberryorchards.com","-79.9099472","37.4210502","24083"
"Indian Valley","https://www.facebook.com/pages/Indian-Valley-Farms/127404783941073","Indian Valley Farms LLC","va","824 Indian Valley Post  Office Rd","eggs fresh-fruits fresh-vegetables honey","","farm","","-80.562880","36.900940","24105"
"Roanoke","https://www.facebook.com/pages/Jeter-Farm/138337886208034","Jeter Farm Fall Festival and Country Store","va","181 Blue Ridge Boulevard","bedding plants canned preserved coffee tea crafts woodworking cut-flowers fresh-vegetables juices ciders nuts prepared foods","https://twitter.com/JeterFarm","farm","www.jeterfarm.com","-79.864281","37.331027","24012"
"Rockville","www.facebook.com/keenbellfarm","Keenbell Farm","va","18437 Vontay Rd.","canned preserved eggs fresh-vegetables grains flour pet-food poultry fowl red-meat non-poultry-meat","https://www.twitter.com/keenbellfarm","farm","www.keenbellfarm.com","-77.741988","37.754330","23146"
"Chesterfield","","Leaning Oak Farm ","va","3800 Newbys Bridge Road ","cut-flowers fresh-fruits fresh-vegetables","","farm","","-77.535499","37.455605","23832"
"Gloucester","https://www.facebook.com/lesciences","Life Enrichment Sciences","va","6155 Hall Town Rd","","","farm","http://www.lifeenrichmentsciences.com","-76.5435255","37.3731561","23061"
"Leesburg","https://www.facebook.com/Loudounberry","Loudounberry Farm & Garden","va","14917 James Monroe Hwy","baked-goods bedding plants canned preserved coffee tea crafts woodworking dairy products eggs fish seafood herbs fresh-fruits fresh-vegetables grains flour honey juices ciders maple-products nuts poultry fowl soap body-care","","farm","www.loudounberryfarm.com","-77.537558","39.203664","20176"
"Saluda","","Lovers Retreat Farm & Dairy","va","1495 Lovers Retreat Lane","","","farm","","-76.636272","37.607129","23149"
"Berryville","https://www.facebook.com/Mackintosh-Fruit-Farm-111618915548297/","Mackintosh Fruit Farm","va","1608 Russell Rd","baked-goods canned preserved cut-flowers eggs fresh-fruits fresh-vegetables nursery-stock prepared foods","","farm","http://www.mackintoshfruitfarm.com/","-78.0434813","39.1940937","22611"
"Bealeton","https://www.facebook.com/MessicksFarmMarket","Messicks Farm Market","va","6025 Catlett Road","baked-goods bedding plants canned preserved coffee tea crafts woodworking cut-flowers dairy products dry beans eggs fish seafood herbs fresh-fruits fresh-vegetables grains flour honey juices ciders maple-products mushrooms nuts pet-food poultry fowl prepared foods red-meat non-poultry-meat soap body-care tofu non-animal protein wild-harvested forest-products wine spirits beer hard-cider","","farm","Messicksfarmmarket.com","-77.750604","38.594749","22712"
"Locust Grove","miller farms market","Miller Farms Market","va","12101 Orange Plank Rd","baked-goods bedding plants canned preserved coffee tea crafts woodworking cut-flowers dairy products eggs fish seafood herbs fresh-fruits fresh-vegetables grains flour honey juices ciders maple-products mushrooms nuts poultry fowl prepared foods red-meat non-poultry-meat soap body-care","","farm","millerfarmsmarket.com","-77.753991","38.276201","22508"
"South Boston","misty.meadows.llc","Misty Meadows, LLC","va","13185 River Rd","crafts woodworking eggs herbs honey red-meat non-poultry-meat","","farm","","-79.1046731","36.6755206","24592"
"Chesapeake","https://www.facebook.com/mountpleasantfarms/?ref=aymt_homepage_panel","Mount Pleasant Farms","va","2201 Mount Pleasant Road","baked-goods bedding plants canned preserved crafts woodworking dairy products dry beans eggs herbs fresh-fruits fresh-vegetables grains flour honey juices ciders maple-products nuts prepared foods red-meat non-poultry-meat soap body-care","","farm","www.mountpleasantfarms.com","-76.141122","36.713688","23322"
"Woodstock","www.facebook.com/MoweryOrchard","Mowery Orchard LLC","va","24247 Senedo Road","baked-goods bedding plants canned preserved coffee tea crafts woodworking dairy products eggs herbs fresh-fruits fresh-vegetables honey juices ciders maple-products poultry fowl red-meat non-poultry-meat soap body-care wine spirits beer hard-cider","","farm","www.MoweryOrchard.com","-78.5365442","38.8736475","22664"
"Ruther Glen","https://www.facebook.com/pages/Mt-Olympus-Berry-Farm/46671088391?ref=bookmarks","Mt Olympus Berry Farm","va","23298 Jefferson Davis Hwy","bedding plants canned preserved cut-flowers dairy products eggs herbs fresh-fruits fresh-vegetables honey nursery-stock red-meat non-poultry-meat","","farm","http://www.mtolympusfarm.com/mtolympusfarm/home.html","-77.4827726","37.9422895","22546"
"Lottsburg","","Old Quarter Farm","va","3572 Lewisetta Road","","","farm","","-76.501531","38.003264","22511"
"Smithfield","Oliver Farms Produce - Smithfield, VA","Oliver Farms LLC","va","18222 Longview Drive","fresh-fruits fresh-vegetables","","farm","www.oliverproduce.com","-76.606740","36.889185","23430"
"Gretna","","Our Father's Farm LLC","va","2664 Deer View Rd","eggs fresh-vegetables honey poultry fowl red-meat non-poultry-meat soap body-care wild-harvested forest-products","","farm","www.ourfathersfarmva.com","-79.2989370","36.9766800","24557"
"The Plains","","Over The Grass Farm","va","6485 Rock Hill Mill Rd","bedding plants canned preserved cut-flowers eggs herbs fresh-vegetables honey red-meat non-poultry-meat","","farm","overthegrassfarm.com","-77.776489","38.900506","20198"
"Danville","https://www.facebook.com/pages/Owen-Farm-Tours/259048657461865","Owen Farm Tours, LLC","va","1668 Silver Creek Road","baked-goods crafts woodworking eggs fresh-fruits fresh-vegetables honey prepared foods soap body-care","","farm","www.owenfarmtours.com","-79.5369830","36.6433000","24540"
"King William","","Pampatike Organic Farm","va","","eggs fresh-vegetables honey soap body-care","","farm","www.pampatike.com","-77.111273","37.699796",""
"Lovettsville","https://www.facebook.com/TheRestaurantatPatowmackFarm","Patowmack Farm","va","42461 Lovettsville Rd.","canned preserved cut-flowers herbs fresh-fruits fresh-vegetables","https://www.twitter.com/patowmackfarm","farm","www.patowmackfarm.com","-77.555873","39.278467","20180"
"Hanover","Pleasant Fields Farm","Pleasant Fields Farm","va","1765 Nelsons Bridge Road","fresh-fruits fresh-vegetables","","farm","","-77.373362","37.827413","23069"
"Round HIll","","Practically Country at Bay Haven Farm, LLC","va","19028 Sullystone Ln","eggs poultry fowl","","farm","www.practicallycountry.com","-77.7907670","39.0912750","20141"
"Blue Grass","Puffenbarger's Farm ","Puffenbargers Farm Beef","va","2476 Maple Sugar Road","red-meat non-poultry-meat","","farm","","-79.6135861","38.4360611","24413"
"Blue Grass","https://www.facebook.com/puffenbargersugarorchard","Puffenbargers Sugar Orchard","va","17 Maple Syrup Lane","maple-products","","farm","www.puffenbargersugarorchard.com","-79.557554","38.459176","24413"
"Lowesville","https://www.facebook.com/riveroakfarm","River Oak Farm","va","173 Woodson Rd.","eggs poultry fowl red-meat non-poultry-meat","","farm","","-79.066900","37.723022","22967"
"Floyd","www.facebook.com/riverstoneorganicfarm","Riverstone Organic Farm Shop","va","708 Thompson Road SE","canned preserved cut-flowers herbs fresh-fruits fresh-vegetables mushrooms wild-harvested forest-products","","farm","www.riverstoneorganicfarm.com","-80.2070990","36.9496830","24091"
"Culpeper","https://www.facebook.com/saddleridgefarm","Saddle Ridge Farm","va","10208 Jamesons Mill Road","poultry fowl red-meat non-poultry-meat","https://twitter.com/Saddleridgefarm","farm","http://www.saddleridgefarm.net/","-77.965583","38.563358","22701"
"Vernon Hill","https://www.facebook.com/pastureanimals/?ref=bookmarks","Sapphire Farms","va","3174 Thompson Store Road","baked-goods canned preserved dairy products eggs fresh-fruits fresh-vegetables poultry fowl prepared foods red-meat non-poultry-meat","","farm","https://www.sapphirefarmsva.com/","-79.078874","36.785534","24597"
"Catlett","https://www.facebook.com/sevenoakslavender","Seven Oaks Lavender Farm","va","8769 Old Dumfries Rd.","canned preserved coffee tea cut-flowers eggs herbs honey soap body-care","","farm","www.sevenoakslavenderfarm.com","-77.6623740","38.6778300","20119"
"Mount Jackson ","http://www.facebook.com/sinclair","Sinclair Farm","va","1167 Crooked Run Rd.","baked-goods canned preserved dairy products eggs herbs fresh-fruits fresh-vegetables honey poultry fowl","","farm","http://www.sinclairfarm.com","-78.689532","38.764631","22842"
"Chesapeake","Skipper Farms","Skipper Farms","va","1305 Kempsville Rd.","bedding plants canned preserved cut-flowers eggs herbs fresh-fruits fresh-vegetables honey juices ciders nuts","","farm","Skipperfarms.com","-76.2057140","36.7616620","23320"
"Crozet","","The Berrypatch","va","3035 Peavine Hollow Rd","","","farm","","-78.605054","38.180684","22932"
"Colonial Heights ","www.facebook.com/blvd.flower.gardens","The Farm at Boulevard Flower Gardens","va","2100 Ruffin Mill Road","","","farm","www.boulevardflowergardens.com","-77.390184","37.309449","23834"
"Middleburg ","www.facebook.com/ayrshirefarmshires","The Home Farm Store sells Ayrshire Farm products and products from neighboring Virginia farms","va","1 East Washington ST","baked-goods bedding plants canned preserved cut-flowers dairy products eggs herbs fresh-vegetables honey maple-products mushrooms nuts pet-food poultry fowl prepared foods red-meat non-poultry-meat soap body-care tofu non-animal protein wine spirits beer hard-cider","","farm","www.AyrshireFarm.com","-77.7354222","38.9690132","20117"
"Chantilly","https://www.facebook.com/ticonderogafarms","Ticonderoga Farms, Inc.","va","26469 Ticonderoga Road","canned preserved eggs fresh-vegetables honey prepared foods","","farm","www.ticonderoga.com","-77.539724","38.885636","20152"
"Virginia Beach","","Vaughan Farms Produce","va","1258 Princess Anne Road","","","farm","www.vaughanfarmsproduce.com/Home_Page.php","-76.026145","36.67243","23457"
"North Garden","https://www.facebook.com/pages/Albemarle-CiderWorks/132600710110733","Vintage Virginia Apples LLC","va","2545 Rural Ridge Lane","canned preserved crafts woodworking dairy products herbs fresh-fruits fresh-vegetables juices ciders nursery-stock prepared foods wine spirits beer hard-cider","https://twitter.com/AlbCiderWorks","farm","https://www.albemarleciderworks.com/","-78.6501360","37.9665310","22959"
"Colonial Beach","Westmoreland Berry Farm","Westmoreland Berry Farm and Market","va","1235 Berry Farm Lane","baked-goods canned preserved fresh-fruits fresh-vegetables honey maple-products nuts prepared foods soap body-care","@westmorelandberryfarm","farm","www.westmorelandberryfarm.com","-77.0472071","38.1364403","22443"
"Harrisonburg","","White Oak Lavender Farm","va","5060 Newcomer Lane","","","farm","","-78.840598","38.364321","22801"
"Woodford","https://www.facebook.com/wildwood.alpacas?fref=ts","Wildwood Alpacas","va","8046 Fredericksburg Tpke","crafts woodworking eggs","","farm","wildwoodalpacas@aol.com","-77.3938180","38.1521390","22580"
"Richmond ","https://www.facebook.com/17thStreetFarmersMarket/","17th Street Farmers Market","va","100 North 17th St.","baked goods cheese eggs seafood herbs vegetables honey jams meat poultry soap coffee fruits mushrooms","","market","http://enrichmond.org","-77.428364","37.533850","23219"
"Amherst","second stage of AMherst","2nd Street Farmers' Market","va","194 second street","baked goods crafts flowers eggs herbs vegetables honey jams meat nuts plants poultry prepared soap trees wine fruits mushrooms pet food wild","","market","http://secondstageAmherst.org","-79.048573","37.583311","24521"
"Abingdon ","https://www.facebook.com/abingdonfarmersmarket","Abingdon Farmers Market","va","Corner of Remsburg Drive & Cummings St","organic baked goods cheese crafts flowers eggs seafood herbs vegetables honey jams maple meat nuts plants poultry prepared soap trees wine coffee beans fruits grains juices mushrooms pet food wild","","market","http://www.abingdonfarmersmarket.com","-81.977094","36.708934","24210"
"charlottesville","www.facebook.com/albemarlefarmersmarket","Albemarle Farmers Market","va","340 Towncenter Lane","baked goods crafts flowers eggs herbs vegetables honey jams meat plants poultry prepared soap trees coffee fruits mushrooms","","market","","-78.443989","38.126178","22911"
"Altavista","","Altavista Farmers Market","va","Trade Lot","","","market","http://www.ci.altavista.va.us","-79.2838","37.1185","24517"
"Amelia Court House ","https://www.facebook.com/AmeliaBarterTown","Amelia Barter Town Farmers Market","va","Farmers Market at the Fairgrounds","organic baked goods cheese crafts eggs herbs vegetables honey jams meat nuts plants poultry prepared soap trees fruits pet food","","market","http://www.Ameliamarket.org","-77.9805478","37.3426037","23002"
"Annandale ","https://www.facebook.com/events/557660981411692/","Annandale Farmers Market ","va","6621 Columbia Pike","baked goods flowers eggs vegetables honey jams meat plants prepared coffee fruits","","market","https://www.fairfaxcounty.gov/parks/farmersmarkets/annandale","-77.196229","38.832801",""
"The Plains","www.facebook.com/ArchwoodGreenBarnsFarmersMarket","Archwood Green Barns Farmers' Market","va","4557 Olde Tavern Road","baked goods crafts flowers eggs herbs vegetables honey jams maple meat plants poultry prepared soap coffee fruits","","market","","-77.7871186","38.8518451","20198"
"Arlington","https://www.facebook.com/ARLFoodworks/","Arlington Farmers Market","va","1400 North Courthouse Road","baked goods cheese flowers eggs seafood herbs vegetables honey jams maple meat plants poultry prepared coffee fruits juices mushrooms pet food","https://twitter.com/ARLFoodworks","market","http://www.community-foodworks.org/arlington-courthouse-market","-77.084592","38.889590","22201"
"Arlington ","www.facebook.com/pages/Columbia-Pike-Farmers-Marke","Arlington Mill Farmers Market","va","Arlington Mill Community Center, 909 S. Dinwiddie Street","baked goods flowers herbs vegetables jams prepared fruits juices","","market","http://www.columbiapike.org","-77.1121896","38.8562594","22204"
"Ashland","https://www.facebook.com/ashlandfarmersmarket","Ashland Farmers Market","va","101 Thompson St.","baked goods flowers eggs herbs vegetables honey jams meat plants poultry soap trees fruits mushrooms pet food","https://twitter.com/ashlandvafm","market","http://www.facebook.com/ashlandfarmersmarket","-77.483393","37.758739","23005"
"Arlington","","Ballston Farmers Market","va","1000 North Glebe Road","","","market","","-77.1165","38.8826","22207"
"Hot Springs","https://www.facebook.com/pages/Bath-County-Farmers-Market/10150097888390157","Bath County Farmers Market","va","Main Street Hot Springs Va","baked goods cheese flowers eggs herbs vegetables honey jams maple meat plants poultry prepared soap coffee beans fruits mushrooms","","market","http://www.bacofarmmkt.com/","-79.833811","38.001164","24445"
"Big Stone Gap","https://www.facebook.com/bsgfarmersmarket","Big Stone Gap Farmers Market","va","460 Shawnee Avenue","baked goods crafts flowers eggs vegetables honey jams meat nuts plants prepared soap trees wine fruits","","market","http://www.appfma.org/markets/big-stone-gap","-82.7752448","36.8681813","24219"
"Blacksburg","https://www.facebook.com/blacksburgfarmersmarket","Blacksburg Farmers Market","va","108 W Roanoke St, Suite 101","organic baked goods crafts flowers eggs herbs vegetables honey jams maple meat nuts plants poultry prepared soap trees wine coffee fruits grains mushrooms wild","","market","http://www.blacksburgfarmersmarket.com","-80.414503","37.229248","24060"
"Bland","https://www.facebook.com/pages/Bland-County-Farmers-Market/105110259527804","Bland County Farmers Market","va","591 Main Street","baked goods flowers eggs herbs vegetables honey maple plants poultry soap","","market","http://www.bland.org","-81.115074","37.100871","24315"
"Bluefield","","Bluefield, VA Farmers Market","va","Walnut Street","baked goods crafts flowers eggs herbs vegetables honey jams maple meat nuts plants soap trees beans fruits","","market","","-81.271620","37.251613",""
"Daleville","https://www.facebook.com/BotetourtFarmersMarket/","Botetourt Farmer's Market ","va","90 Town Center St","baked goods crafts flowers eggs herbs vegetables honey jams meat plants poultry prepared soap wine fruits mushrooms wild","","market","","-79.912646","37.417795","24083"
"Bowling Green ","https://www.facebook.com/pages/Bowling-Green-Farmers-Market-VA/480342235310524","Bowling Green Community Farmers Market","va","211 North Main Street","baked goods crafts eggs herbs vegetables honey jams meat plants poultry soap trees fruits","","market","http://www.townofbowlinggreen.com","-77.347563","38.051770","22427"
"Midlothian","","Brandermill Green Market","va","4900 Market Square Lane","baked goods cheese flowers eggs seafood herbs vegetables honey jams meat nursery nuts poultry prepared soap wine","","market","http://www.brandermill.com","-77.6366060","37.4231010","23112"
"Bristow","https://www.facebook.com/pages/Bristow-Farmers-Market/336754686393407","Bristow Farmers Market","va","9050 Devlin Rd","baked goods flowers eggs seafood herbs vegetables honey jams meat poultry prepared soap trees wine coffee fruits pet food","","market","http://www.BristowFarmersMarket.com","-77.575794","38.759276","20136"
"Broadway","https://www.facebook.com/BroadwayFarmMkt/","Broadway Farmers Market","va","161 S Main St","baked goods crafts flowers eggs herbs vegetables honey jams meat prepared soap coffee fruits pet food","Broadwayfarmmkt","market","http://www.town.broadway.va.us/farmers-market.html","-78.799904","38.611375","22815"
"Buckingham","","Buckingham County Farmers Market","va","Rte. 20 & Rte. 15 (Dilwyn)","","","market","","-78.4741","37.5436","23921"
"Warrenton","https://www.facebook.com/pages/Buckland-Farm-Market/102039677901","Buckland Farm Market","va","4484 Lee Highway","","","market","http://www.bucklandfarmmarket.com/","-77.6975","38.7716","20187"
"Hampton","","Buckroe Beach Farmers Market","va","100 N. First Street","baked goods crafts eggs herbs vegetables honey jams nuts plants prepared soap coffee beans fruits juices pet food","","market","http://villagevents@cox.net","-76.291807","37.041273","23664"
"Buena Vista","","Buena Vista Community Market","va","Magnolia Parking Lot","","","market","http://www.bvmarket.com","-79.3531","37.7373","24416"
"Burke","https://www.facebook.com/events/786233015044186/","Burke ","va","5671 Roberts Parkway","organic baked goods cheese flowers eggs seafood herbs vegetables honey jams meat nuts plants poultry prepared coffee fruits juices pet food","","market","https://www.fairfaxcounty.gov/parks/farmersmarkets/burke","-77.263568","38.776991","22015"
"Richmond","https://www.facebook.com/byrdhousemarket","Byrd House Market","va","Idlewood Ave and S. Linden St.","organic baked goods cheese crafts flowers eggs herbs vegetables honey jams maple meat poultry prepared soap fruits","","market","http://byrdhousemarket.blogspot.com","-77.453933","37.542026","23220"
"Catawba","https://www.facebook.com/Catawba-Valley-Farmers-Market-129469157077509/","Catawba Valley Farmers Market","va","4965 Catawba Creek Road","baked goods crafts flowers eggs herbs vegetables jams meat prepared soap trees fruits","","market","https://www.catawbafarmersmarket.com/","-80.1068482","37.3835006","24070"
"Newport News","","Centura College","va","616 Denbeigh Blvd.","","","market","","-76.5206","37.1381","23608"
"Charlottesville","https://www.facebook.com/CharlottesvilleCityMarket/","Charlottesville City Market","va","100 Water Street","organic baked goods cheese crafts flowers eggs seafood herbs vegetables honey jams meat nuts plants poultry prepared soap trees coffee fruits juices mushrooms pet food tofu","","market","http://www.charlottesville.org/departments-and-services/departments-h-z/parks-recreation-/city-market","-78.4816540","38.0295810","22902"
"Cheriton","","Cheriton Farmers Maket","va","Main St.","","","market","","-75.9825","37.1719","23316"
"Chesapeake","https://www.facebook.com/farmtrails","Chesapeake Farmers Market","va","120 Reservation Road","baked goods eggs vegetables honey","","market","","-76.2422628","36.7204815","23322"
"Chester","Chester farmers Market","Chester Farmers Market","va","11801 Centre Street","baked goods crafts flowers eggs herbs vegetables jams plants fruits","","market","http://www.chesterfarmersmarket.com/","-77.4473480","37.3588570","23831"
"Chesterfield","https://www.facebook.com/CFitFarmersMarket","Chesterfield County Farmers Market","va","near 6701 Mimms Loop","baked goods cheese crafts eggs seafood vegetables honey jams plants poultry soap fruits mushrooms","","market","","-77.504419","37.376728","23832"
"Richmond","","Chesterfield Farmers Market","va","11500 Midlothian Tpk","baked goods cheese crafts flowers eggs vegetables honey jams nursery plants soap wine","","market","http://www.chesterfieldfarmersmarket.blogspot.com","-77.609299","37.507573","23235"
"Chilhowie","","Chilhowie Farmer's Market","va","East Lee Highway between Chestnut and Pine Avenues (Warrior Park)","organic baked goods eggs vegetables honey jams meat nuts plants beans fruits mushrooms","","market","http://www.chilhowie.org","-81.676633","36.802950","24319"
"Chincoteague","","Chincoteague Island Farmers Market","va","6309 Church Street","organic baked goods cheese eggs seafood herbs vegetables honey nuts plants poultry fruits wild","","market","http://www.chincoteagueculturalalliance.org","-75.3734494","37.9328247","23336"
"Christiansburg","http://www.facebook.com/ChristiansburgFarmersMarket","Christiansburg Farmers Market","va","West Main Street and Hickok Street","baked goods flowers eggs herbs vegetables honey jams maple meat nuts plants poultry prepared soap trees wine coffee fruits juices mushrooms","","market","http://www.christiansburg.org/farmersmarket","-80.410187","37.128770","24073"
"Appomattox ","","Church + Main Market","va","1848 Church Street","baked goods crafts eggs herbs vegetables honey jams meat poultry soap coffee fruits pet food","","market","http://churchmain.com","-78.826597","37.353163","24522"
"Blackstone","com/groups/CSFarmersMarket","Church Street Farmers' Market","va","603 Church Street","organic baked goods flowers eggs herbs vegetables honey jams nuts plants trees fruits","","market","","-78.008079","37.077437","23824"
"Galax","","City of Galax Farmers Market","va","221 Main Street","","","market","","-80.9241","36.6604","24333"
"Galax ","https://www.facebook.com/pages/Galax-Farmers-Market/436987119716502","City of Galax Farmers Market","va","Main Street and Washington Street","baked goods eggs vegetables honey jams poultry prepared fruits","","market","http://www.galaxfarmersmarket.com","-80.925092","36.663427","24333"
"Manassas ","https://www.facebook.com/manassas","City of Manassas Farmer's Market- Saturday ","va","West St. and Prince William St.","baked goods cheese crafts flowers eggs herbs vegetables honey jams meat plants poultry prepared soap wine fruits","https://twitter.com/visitmanassas","market","http://media.visitmanassas.org/farmersmarket","-77.473074","38.749490","20110"
"Manassas","https://www.facebook.com/manassas","City of Manassas Farmer's Market- Thursday","va","9201 Center Street ","baked goods flowers eggs herbs vegetables honey jams meat plants poultry prepared wine fruits","https://twitter.com/visitmanassas","market","http://media.visitmanassas.org/farmersmarket","-77.4737608","38.7505391","20110"
"Arlington","","Clarendon Farmers Market","va","3101 Wilson Blvd.","baked goods crafts herbs vegetables jams meat plants poultry prepared soap fruits pet food","","market","http://clarendon.org/farmersmarket/","-77.095245","38.887065","22201"
"Berryville","","Clarke County Farmers Market","va","Town parking lot, S.Church St.","","","market","http://www.clarkecountyfarmersmarket.com","-77.9555","39.1006","22611"
"St. Paul","","Clinch River Farmers Market","va","4th Street and Russell St.","baked goods crafts eggs herbs vegetables honey jams meat nursery nuts plants soap wine","","market","","-82.707138","36.909823","24283"
"Clintwood","","Clintwood Farmers Market","va","Main St.","","","market","","-82.4584","37.1505","24228"
"Coeburn","","Coeburn Farmers Market","va","Front Street and Grand Ave.","baked goods crafts eggs herbs vegetables honey jams plants fruits","","market","","-82.4631270","36.9432199","24230"
"Colonial Beach","https://www.facebook.com/GrowRVA","Colonial Beach Farmers Market","va","117 Washington Avenue ","baked goods flowers eggs seafood herbs vegetables jams meat plants poultry prepared soap fruits","https://twitter.com/growrva","market","http://growrva.com/","-76.9632693","38.2508327","22443"
"Colonial Heights ","@colonialheightsfarmersmarket","Colonial Heights Farmer's Market","va","2600 Boulevard","baked goods cheese crafts eggs seafood herbs vegetables honey jams maple meat nuts plants poultry prepared soap trees fruits mushrooms","","market","","-77.412031","37.265694","23834"
"Arlington","www.facebook.com/pages/Columbia-Pike-Farmers-Marke","Columbia Pike Farmers Market","va","2820 Columbia Pike","baked goods cheese crafts flowers eggs seafood herbs vegetables honey jams meat plants poultry prepared soap trees coffee fruits juices","","market","http://www.columbiapike.org","-77.086638","38.862393","22204"
"Blacksburg","https://www.facebook.com/TCFMB","Community Market of Blacksburg","va","1400 Block South Main Street","baked goods cheese crafts flowers eggs seafood herbs vegetables honey jams maple meat plants poultry prepared soap beans fruits juices mushrooms","https://twitter.com/burgslocalfoods","market","http://www.thecommunityfarmersmarket.com","-80.400238","37.215805","24060"
"Covington","","Covington Farmers Market","va","134 West Main Street","baked goods cheese crafts flowers eggs herbs vegetables jams trees fruits","","market","http://www.covingtonfarmersmarket.com","-79.99436","37.79351","24426"
"Crozet","","Crozet Farmers Market","va","Corner of Jarmans Gap Rd. & Crozet Ave.","","","market","","-78.7019","38.068","22932"
"Culpeper","","Culpeper Farmers Market","va","E. Main St. & Commerce St.,Adjacent to train depot","","","market","","-77.9969","38.4714","22701"
"Dale City","","Dale City Farmers Market","va","14090 Gemini Way","baked goods cheese flowers eggs seafood herbs vegetables honey jams meat nuts plants poultry prepared soap trees coffee fruits grains juices","","market","http://www.pwcparks.org/farmersmarket/","-77.3410794","38.6471464","22193"
"Danville","","Danville Farmers' Market","va","629 Craghead Street","organic baked goods cheese crafts flowers eggs herbs vegetables honey jams meat nuts poultry prepared soap trees wine coffee fruits mushrooms wild","","market","http://www.playdanvilleva.com","-79.3838932","36.5840182","24541"
"Dayton","","Dayton Farmers Market","va","3105 John Wayland Highway","","","market","http://www.daytonfarmersmarket.com","-78.8763","38.4258","22824"
"Alexandria","https://www.facebook.com/pages/Del-Ray-Farmers-Market/141370742562263","Del Ray Farmers' Market","va","Mt. Vernon & Oxford Ave.","baked goods cheese flowers eggs herbs vegetables honey jams meat plants poultry fruits","https://twitter.com/DelRayFarmMkt","market","http://delrayfarmersmarket.com/","-77.058777","38.826863","22301"
"Deltaville","","Deltaville Farmers Market","va","287 Jackson Creek Road","","","market","http://www.deltavilleva.com/MuseumPark/FarmersMarket.aspx","-76.3267","37.5528",""
"Henrico","@doreyparkfarmersmarket.org","Dorey Park Farmers Market ","va","2999 Darbytown Road ","flowers eggs vegetables honey meat prepared","@DoreyMarket","market","http://www.doreyparkfarmersmarket.org","-77.3350620","37.4722708","23231"
"Hampton","","Downtown Hampton Farmers Market","va","","","","market","http://www.downtownhampton.com/farmersmarket/","-76.3232","37.0125",""
"South Boston","https://www.facebook.com/Downtown-South-Boston-Farmers-Market-116983188377428/","Downtown South Boston Farmers Market","va","300 Broad Street","organic baked goods cheese crafts flowers eggs herbs vegetables honey jams meat plants fruits","","market","http://www.downtownsobo.com/?link=farmers_market","-78.900135","36.697453","24592"
"Draper","","Draper Valley Farmer's Market","va","3054 Greenbriar Road","baked goods cheese crafts flowers herbs vegetables jams meat plants soap","","market","","-80.7422","37.0009","24324"
"Jonesville","","Duffield Farmers Market","va","","","","market","","-83.154","36.695","24263"
"Earlysville","","Earlysville Farmers Market","va","4167 Earlysville Rd ","baked goods crafts flowers eggs herbs vegetables honey jams plants soap fruits","","market","http://www.earlysvillefarmersmarket.wordpress.com","-78.4809130","38.1545000","22936"
"Spotsylvania","","Eastern Orange County Farmers' Market","va","Locust Grove Town Center","","","market","","-77.8102","38.3051","22553"
"Chesapeake","","Edinburgh Commons Green Market","va","141 Hillcrest Parkway","","","market","http://www.edinburghcommons.net","-76.2313","36.6534","23322"
"Emporia","","Emporia Farmers Market","va","107 South Main Street","baked goods flowers eggs herbs vegetables honey jams nursery plants trees","","market","","-77.541547","36.688794","23847"
"Fairfax","https://www.facebook.com/FairfaxSaturdayMarket/","Fairfax Community Farmers' Market","va","10500 Page Avenue","baked goods cheese crafts flowers eggs seafood herbs vegetables honey jams meat plants poultry prepared soap coffee fruits juices pet food","","market","http://www.FairfaxSaturdayMarket.com","-77.308647","38.846056","22030"
"Arlington ","https://www.facebook.com/pages/Fairlington-Farmers-Market/398096920324762?ref=br_tf","Fairlington Farmers Market","va","3308 S. Stafford Street","baked goods cheese flowers eggs vegetables meat poultry prepared soap coffee fruits juices","https://twitter.com/search?q=Fairlington%20Farmers%20Market&src=typd&lang=en","market","http://www.fairlingtonfarmersmarket.org/","-77.087205","38.834958","22206"
"Falls Church ","https://www.facebook.com/FallsChurchFarmersMarket","Falls Church Farmers Market","va","300 Park Avenue","baked goods cheese flowers eggs seafood herbs vegetables honey jams meat plants poultry prepared soap trees wine coffee fruits juices mushrooms pet food","","market","http://www.fallschurchva.gov/farmersmarket","-77.1725310","38.8855300","22046"
"","https://www.facebook.com/Farm2Family","Farm to family","va","","","","market","http://thefarmbus.com/","","",""
"Charlottesville","https://www.facebook.com/farmersinthepark/","Farmers in the Park","va","300 Meade Avenue","organic baked goods cheese eggs seafood herbs vegetables honey jams meat plants poultry prepared fruits juices","","market","http://www.charlottesville.org/departments-and-services/departments-h-z/parks-recreation-/city-market/farmers-in-the-park","-78.4650920","38.0276780","22902"
"Newport News","www.facebook.com/pages/Farmers-Market-at-CNU/144989902236428","Farmers Market at Christopher Newport University","va","1 Avenue of the Arts","baked goods cheese crafts flowers eggs herbs vegetables honey jams meat nuts plants poultry prepared soap","","market","","-76.493382","37.062506","23606"
"Rural Retreat ","https://www.facebook.com/theruralretreatdepot","Farmers Market at Rural Retreat Depot","va","105 West Railroad Ave","organic baked goods cheese crafts flowers eggs herbs vegetables honey jams soap fruits","https://twitter.com/saverrdepot","market","http://www.theruralretreatdepot.com","-81.276261","36.893894","24368"
"Richmond","https://www.facebook.com/pages/The-Farmers-Market-at-St-Stephens/75493291449","Farmers Market@St. Stephen's","va","6000 Grove Ave","organic baked goods cheese crafts flowers eggs seafood herbs vegetables honey jams meat nuts plants poultry prepared soap trees coffee fruits juices mushrooms pet food","","market","http://saintstephensrichmond.net/farmersmarket","-77.522305","37.573516","23226"
"Farmville ","Farmville Community Marketplace","Farmville Community Marketplace","va","213 North Street, ","organic baked goods crafts flowers eggs herbs vegetables honey jams meat plants poultry prepared soap trees fruits juices mushrooms","","market","http://farmvilleva.com","-78.392913","37.304001","23901"
"Norfolk","https://www.facebook.com/FivePointsCommunityFarmMarket","Five Points Community Farm Market","va","2500 Church St.","baked goods cheese eggs seafood vegetables honey jams meat nuts plants poultry prepared coffee beans fruits grains mushrooms pet food tofu","","market","http://www.5ptsfarmmarket.org/","-76.279675","36.869974","23504"
"Floyd","https://www.facebook.com/FloydFarmersMarket/","Floyd Farmers Market","va","203 S. Locust St.","organic baked goods cheese crafts flowers eggs herbs vegetables honey jams meat nuts plants poultry prepared soap trees coffee beans fruits grains juices mushrooms wild","https://www.instagram.com/floydfarmersmarket/","market","https://floydfarmersmarket.org/","-80.319831","36.910605","24091"
"Palmyra","https://www.facebook.com/pages/Fluvanna-Farmers-Market-Pleasant-Grove/368116841344","Fluvanna Farmers Market","va","1730 Thomas Jefferson Parkway","baked goods crafts flowers eggs herbs vegetables jams meat plants prepared soap trees fruits pet food","","market","http://fluvannafarmersmarket.webs.com/","-78.293310","37.869263","22963"
"Forest","https://www.facebook.com/pages/Forest-farmers-market/193117547377111","Forest farmers market","va","15583 Forest Road","baked goods cheese crafts flowers eggs seafood herbs vegetables honey jams meat plants poultry prepared soap trees wine coffee beans fruits mushrooms","https://twitter.com/FFM221","market","http://www.forestfarmersmarket.com","-79.2854430","37.3643700","24551"
"Charlottesville","https://www.facebook.com/ForestLakesFarmersMarket","Forest Lakes Farmers Market","va","1650 Ashwood Blvd.","baked goods crafts flowers eggs herbs vegetables honey jams maple meat nuts plants poultry soap trees fruits","","market","","-78.44106","38.1087","22911"
"Alexandria","https://www.facebook.com/4MRMarket/","Four Mile Run Farmers & Artisans Market","va","4109 Mt Vernon Avenue","cheese crafts eggs seafood vegetables honey jams maple plants prepared soap coffee fruits juices mushrooms wild","@4MRMarket","market","http://www.4mrmarket.org","-77.063714","38.843302","22305"
"Tazewell","","Four Way Farmers Market","va","704 E Riverside Dr","","","market","","-81.494013","37.133690",""
"Franklin","","Franklin Farmers' Market","va","210 S. Main Street","baked goods crafts flowers eggs vegetables jams meat plants prepared trees","","market","http://www.downtownfranklinva.org","-76.9212462","36.6762426","23851"
"Fredericksburg","https://www.facebook.com/FXBGFarmersMarket","Fredericksburg City Farmers Market","va","500 William Street","organic baked goods cheese crafts flowers eggs seafood herbs vegetables honey jams meat plants poultry prepared soap trees wine coffee fruits juices pet food","https://twitter.com/FXBGFarmMkt","market","","-77.462549","38.302011","22401"
"Arlington ","https://www.facebook.com/freshfarmmarkets/","FRESHFARM Ballston Market","va","901 North Taylor Street","organic baked goods flowers eggs herbs vegetables jams meat poultry prepared soap wine fruits juices","https://twitter.com/FRESHFARMBllstn","market","http://freshfarm.org/ballston.html","-77.1122462","38.8812590","22203"
"Arlington ","https://www.facebook.com/freshfarmmarkets/","FRESHFARM Crystal City Market","va","1965 Crystal Drive","baked goods cheese eggs herbs vegetables jams meat poultry prepared fruits","https://twitter.com/FRESHFARMCrystl","market","http://freshfarm.org/crystal-city.html","-77.0493350","38.8563597","22202"
"Arlington ","https://www.facebook.com/freshfarmmarkets/","FRESHFARM Rosslyn Farmers Market","va","1800 N. Lynn Street","organic baked goods cheese flowers eggs vegetables meat poultry prepared fruits juices","https://twitter.com/FRESHFARMRslyn","market","http://freshfarm.org/rosslyn.html","-77.071216","38.896144","22209"
"Front Royal ","","Front Royal Farmers Market","va","","organic baked goods cheese crafts flowers eggs herbs vegetables honey jams meat plants poultry soap trees beans fruits pet food","","market","http://www.FrontRoyalFarmersMarket.com","-78.189568","38.918034","22630"
"Herndon","","Frying Pan Park Farmers Market","va","2709 West Ox Road","","","market","http://www.fairfaxcounty.gov/parks/wp-farm-mkt.htm","-77.4083","38.9381",""
"Galax","","Galax Downtown Farmers Market","va","111 E. Grayson St.","","","market","","-80.9246","36.662","24333"
"Glade Spring","https://www.facebook.com/pages/Glade-Spring-Farmers-Market/236947732287","Glade Spring Farmers Market","va","100 Town Square St","baked goods crafts flowers eggs herbs vegetables honey jams meat nuts plants soap wine coffee fruits mushrooms wild","","market","http://www.gladespringfarmersmarket.com/","-81.771026","36.790892","24340"
"Glasgow","Glasgow Farmers Market","Glasgow Farmers Market","va","1000 Kanawha ST","crafts eggs seafood vegetables honey meat wine fruits","","market","","-79.4520750","37.6292390","24555"
"Goochland","https://www.facebook.com/GoochlandFairgroundFarmersMarket/","Goochland Fairground Farmers Market","va","2650 Fairground Road","baked goods eggs seafood herbs vegetables honey jams meat plants poultry prepared soap fruits mushrooms","https://twitter.com/rvag_inc","market","http://www.rvagriculture.org","-77.888294","37.698311","23063"
"Fairfax ","","Government Center Farmers Market ","va","12000 Government Center Pkwy","baked goods vegetables honey jams meat poultry fruits grains","","market","http://www.fairfaxcounty.gov/parks/farmersmarkets/governmentcntr-mrkt.htm","-77.3563658","38.8541263","22035"
"Roanoke","facebook.com/grandinvillagecommunitymarket","Grandin Village Farmers Market","va","2080 Westover Ave SW","organic baked goods cheese crafts flowers eggs seafood herbs vegetables honey jams maple meat nuts plants poultry prepared soap trees coffee beans fruits grains juices mushrooms pet food wild","@leapforlocal","market","http://www.leapforlocalfood.org/grandin","-79.977892","37.264872","24015"
"Great Falls","https://www.facebook.com/GreatFallsCommunityFarmersMarket","Great Falls Community Farmers Market","va","778 Walker Road","organic baked goods cheese crafts flowers eggs seafood herbs vegetables honey jams meat plants poultry prepared soap coffee fruits mushrooms wild","","market","http://www.greatfallsfarmersmarket.org","-77.288773","38.996177","22066"
"Ruckersville","https://www.facebook.com/greenefarmersmarket/","Greene Farmers Market","va","42 Carmen Place","baked goods cheese flowers eggs herbs vegetables honey jams meat plants prepared soap coffee fruits","","market","http://exploregreene.com/events/farmersmarket","-78.384143","38.233858","22968"
"Goochland","https://www.facebook.com/RVAgriculture.org/?fref=ts","Grown to Go Mobile Market - Western Goochland","va","2397 Hadensville Fife Road","baked goods eggs vegetables meat poultry fruits","https://www.twitter.com/rvag_inc","market","http://www.rvagriculture.org","-78.0563570","37.7400960","23063"
"Norfolk","https://www.facebook.com/hamptonblvdfarmersmarket/","Hampton Blvd Farmers Market","va","7400 Hampton Blvd.","organic baked goods cheese flowers eggs seafood herbs vegetables honey jams meat plants poultry prepared soap wine coffee fruits grains pet food","","market","https://www.hamptonblvdfarmersmarket.com","-76.305582","36.912352","23505"
"Harrisonburg","https://www.facebook.com/Harrisonburg-Farmers-Market-Official-262022707255/?ref=aymt_homepage_panel","Harrisonburg Farmers Market","va","228 South Liberty St.","baked goods cheese crafts flowers eggs seafood herbs vegetables honey jams maple meat nuts plants poultry prepared soap trees wine coffee beans fruits juices mushrooms wild","","market","","-78.8708844","38.4463180",""
"Luray","www.facebook.com/hawksbilltradingco","Hawksbill Trading Company","va","139 Virginia Ave","baked goods cheese crafts flowers eggs herbs vegetables honey jams meat nuts plants poultry soap trees coffee beans fruits grains juices mushrooms wild","","market","http://www.hawksbilltradingcompany.org","-78.461762","38.662840","22835"
"Haymarket","Haymarket Thursday Afternoon Market","Haymarket Thursday Afternoon Market","va","14600 Washington ST.","baked goods crafts eggs seafood herbs vegetables honey jams meat poultry prepared soap coffee fruits","","market","","-77.6304112","38.8093847","20169"
"Broad Run","Haymarket Thursday Afternoon Market","Haymarket Thursday Afternoon Market","va","16015 John Marshall Highway","baked goods crafts flowers eggs herbs vegetables honey jams meat plants poultry prepared soap coffee fruits mushrooms","","market","","-77.668037","38.820340","20137"
"Heathsville","https://www.facebook.com/RHHTFoundationinc/","Heathsville Farmers Market","va","73 Monument Place","baked goods cheese crafts flowers eggs seafood herbs vegetables jams meat plants poultry prepared soap fruits","","market","http://www.RHHTFoundationinc.org","-76.473143","37.916700","22473"
"Herndon ","https://www.facebook.com/events/804594679906261/","Herndon Farmers Market ","va","768 Lynn Street ","baked goods flowers eggs herbs vegetables honey jams plants prepared fruits juices","","market","https://www.fairfaxcounty.gov/parks/farmersmarkets/herndon","-77.387108","38.970411","20170"
"Monterey","https://www.facebook.com/thehighlandcenter","Highland Farmers' Market","va","61 Highland Center Drive","organic baked goods cheese crafts flowers eggs seafood herbs vegetables honey jams maple meat plants poultry prepared soap fruits mushrooms","","market","http://thehighlandcenter.org/farmers-market","-79.586195","38.409646","24465"
"Hillsboro","https://www.facebook.com/pages/Hillsboro-Farmers-Market-at-the-Old-Stone-School/278929038828436?ref=ts","Hillsboro Farmers Market at the Old Stone School","va","37098 Charles Town Pike ","","","market","http://hillsborofarmersmarket.org","-77.719881","39.198369","20132"
"Manassas","","Historic Manassas Farmers Market","va","Church St. & Quarry St.","","","market","http://www.historicmanassasinc.org","-77.4765","38.7528","20110"
"Richmond","Huguenot-Robious Farmers Market","Huguenot-Robious Farmers Market","va","2051 Huguenot Road","baked goods crafts eggs herbs vegetables honey jams prepared soap wine fruits mushrooms pet food","","market","","-77.6103980","37.5195160","23236"
"Independence ","https://www.facebook.com/independencefarmersmarketva/","Independence Farmers Market","va","","organic baked goods cheese crafts flowers eggs herbs vegetables honey jams meat poultry prepared soap trees coffee fruits mushrooms wild","","market","https://independencefarmersmarket.org/","-81.151438","36.622003",""
"Irvington","","Irvington Farmers Market","va","","","","market","","-76.408","37.6759","22480-0056"
"Walkerton","","King & Queen Community Development Farmers Market","va","120 Marsh Lane- Walkerton Boat Ramp","organic baked goods cheese crafts flowers herbs vegetables jams maple plants soap","","market","http://www.kqcd.org","-77.0231","37.725","23177"
" King George","@KingGeorgeFarmersMarket","King George Farmers Market","va","King George Middle School at 8246 Dahlgren Rd","baked goods crafts flowers eggs seafood herbs vegetables honey jams meat plants prepared soap coffee fruits juices","","market","","-77.202800","38.276780","22485"
"Alexandria ","https://www.facebook.com/upperkingfarmersmarket","King Street Station Farmers' Market","va","1755 Duke Street  (in the courtyard)","baked goods cheese flowers eggs herbs vegetables jams prepared fruits mushrooms","","market","","-77.060783","38.805003","22314"
"Alexandrida ","https://www.facebook.com/events/388112988700408/","Kingstowne","va","5870 Kingstowne Towne Center","baked goods cheese eggs herbs vegetables honey jams meat plants poultry prepared coffee fruits juices","","market","https://www.fairfaxcounty.gov/parks/farmersmarkets/kingstowne","-77.276198","38.8347926","22315"
"Alexandria ","","Kingstowne Farmers Market","va","5870 Kingstowne Center","baked goods flowers eggs herbs vegetables honey jams meat plants poultry fruits juices","","market","","-77.135729","38.772536","22315"
"Richmond","https://www.facebook.com/laplazalatinmarket","La Plaza Latino Farmer's Market","va","4802 Warwick Road, Richmond, VA 23224","baked goods cheese crafts flowers eggs herbs vegetables meat plants poultry prepared coffee fruits","https://twitter.com/La_Plaza_Market","market","http://www.clubcmva.com","-77.4797785","37.4835568","23224"
"RICHMOND","https://www.facebook.com/LakesideMarketRVA/","Lakeside Farmers Market - Saturday - year round","va","6110 Lakeside Avenue","baked goods cheese crafts flowers eggs seafood herbs vegetables honey jams meat plants poultry prepared soap trees fruits juices","","market","http://www.lakesidefarmersmarket.net/","-77.4710931","37.6145155","23228"
"henrico","https://www.facebook.com/pages/Lakeside-farmers-market/96856541016","Lakeside Farmers' Market","va","1606 lakeside ave.","baked goods cheese crafts flowers eggs seafood herbs vegetables honey jams maple meat nuts plants poultry prepared soap trees wine coffee fruits juices mushrooms pet food","","market","http://www.lakesidefarmersmarket.net","-77.470522","37.614945","23228"
"Lawrenceville","","Lawrenceville Farmers Market","va","400 N. Main Street","baked goods crafts eggs herbs vegetables jams plants fruits pet food","","market","","-77.853212","36.752006","23868"
"Lexington ","https://www.facebook.com/pages/Lexington-Virginia-Farmers-Market/302763089563","Lexington (Virginia) Farmers Market","va","Downtown McCrum's Parking Lot","baked goods cheese flowers eggs herbs vegetables honey jams meat plants poultry prepared soap trees fruits wild","","market","","-79.443159","37.784937","24450"
"Appomattox ","https://www.facebook.com/LocalAPX/","Local APX Market - Seasonal","va","1848 Church Street","baked goods crafts eggs herbs vegetables honey jams meat poultry prepared soap coffee","","market","http://www.localapxmarket.com","-78.826847","37.353215","24522"
"Fredericksburg","https://www.facebook.com/longfarmersmarket/","Long Farmers Market","va","121 University Boulevard","baked goods flowers eggs vegetables honey jams meat plants poultry prepared soap wine coffee fruits mushrooms wild","","market","","-77.531572","38.370276","22406"
"Lorton ","https://www.facebook.com/events/1096089703908635/","Lorton ","va","8990 Lorton Station Blvd","baked goods cheese eggs herbs vegetables honey meat poultry prepared coffee fruits juices","","market","https://www.fairfaxcounty.gov/parks/farmersmarkets/lorton","-77.216355","38.698239","22079"
"Louisa","","Louisa County Farmers Market","va","Glen Marye Shopping Center Parking Lot","","","market","","-78.0042","38.0251","23093"
"SHIPMAN","","Lovingston Farm Market","va","2327 Laurel Road","","","market","","-78.7475","37.7996","22971"
"Luray","","Luray/Page County Farmers Market","va","Luray-Norfolk Western Train Depot","","","market","","-78.4595","38.6654","22835"
"Bluemont","https://www.facebook.com/BluemontFarmersMarket/","LVHMC Bluemont Farmers Market","va","EE Lake General Store, 33721 Snickersville Turnpike","organic baked goods crafts flowers eggs herbs vegetables jams meat nuts soap fruits","","market","http://www.loudounfarmersmarkets.org","-77.833365","39.110875","20135"
"Sterling","https://www.facebook.com/CascadesFarmersMarket","LVHMC Cascades Farmers' Market","va","21060 Whitfield Drive","organic baked goods cheese crafts flowers eggs seafood herbs vegetables honey jams meat nuts plants poultry prepared soap trees wine coffee fruits grains juices mushrooms pet food wild","@LoudounFarmMkts","market","http://www.loudounfarmersmarkets.org","-77.395364","39.031603","20165"
"Leesburg","https://www.facebook.com/LeesburgFarmersMarket/","LVHMC Leesburg Farmers Market","va","101 Catoctin Circle, S. E.","organic baked goods cheese crafts flowers eggs herbs vegetables honey jams maple meat nuts plants poultry prepared soap trees wine coffee fruits juices pet food wild","@LoudounFarmMkts","market","http://www.loudounfarmersmarkets.org","-77.565734","39.107555","20175"
"Ashburn","https://www.facebook.com/LoudounStationFarmersMarket/","LVHMC Loudoun Station Farmers Market","va","Gramercy Park Drive and Central Station Drive","organic baked goods cheese crafts flowers eggs herbs vegetables honey jams meat poultry prepared soap coffee fruits grains pet food","@LoudounFarmMkts","market","","-77.489597","39.006277","20147"
"Lynchburg","https://www.facebook.com/LynchburgCommunityMarket","Lynchburg Community Market","va","1219 Main Street","baked goods cheese crafts flowers eggs herbs vegetables honey jams meat nuts plants poultry prepared soap trees wine coffee beans fruits grains juices mushrooms pet food tofu wild","","market","http://www.lynchburgva.gov or www.lynchburgcommunitymarket.com","-79.1401950","37.4115850","24504"
"Madison","","Madison County Farmers' Market","va","1110 Fairgrounds Road (Hoover Ridge Park)","organic baked goods flowers eggs herbs vegetables honey jams meat nursery nuts plants poultry soap","","market","http://www.themadisonfarmersmarket.com","-78.262053","38.367031","22727"
"New Kent","","Maidstone Farmer's Market","va","11833 Aspengraf Lane","","","market","","-76.9896","37.5121","23124"
"Manakin-Sabot","https://www.facebook.com/rvagriculture.org","Manakin Market","va","68 Broad Street Road","organic baked goods cheese crafts flowers eggs seafood herbs vegetables honey jams meat nuts plants poultry prepared soap trees wine coffee beans fruits juices mushrooms pet food wild","https://twitter.com/twitter.com/rvag_inc","market","http://www.rvagriculture.org","-77.685336","37.671905","23103"
"Marion","https://www.facebook.com/pages/The-Town-of-Marion-Virginia/198715876807088","Marion (VA) Regional Farmers Market","va","Corner of Chestnut and Cherry Streets","baked goods cheese crafts flowers eggs herbs vegetables honey jams maple meat nuts plants poultry prepared soap trees wine fruits","https://twitter.com/marionvirginia","market","http://www.marionva.org","-81.518052","36.832647","24354"
"Arlington","","Marymount Farmers Market","va","2807 N. Glebe Road","organic baked goods eggs vegetables jams meat poultry prepared coffee fruits juices","","market","http://www.marymountfarmersmarket.org","-77.128471","38.904309","22207"
"Mathews","","Mathews Farmers Market","va","Court Street","baked goods crafts flowers eggs herbs vegetables honey jams meat plants poultry soap trees fruits","","market","http://www.mathewsmainstreet.org","-76.3215915","37.4335336","23109"
"Alexandria ","https://www.facebook.com/events/424552635030264","McCutcheon/Mount Vernon ","va","2501 Sherwood Hall Lane","baked goods cheese flowers eggs seafood herbs vegetables honey jams meat prepared coffee fruits juices","","market","https://www.fairfaxcounty.gov/parks/farmersmarkets/mccutcheon-mount-vernon","-77.082026","38.818343","22306"
"Alexandria ","","McCutcheon/Mount Vernon Farmers Market ","va","2501 Sherwood Hall Lane","baked goods cheese herbs vegetables honey jams meat plants poultry fruits","","market","http://www.fairfaxcounty.gov/parks/farmersmarkets/mtvernonmkt.htm","-77.0749236","38.7434755","22306"
"McLean","https://www.facebook.com/events/909125412812849/","McLean ","va","1659 Chain Bridge Rd","baked goods cheese eggs herbs vegetables honey jams meat plants poultry prepared fruits juices","","market","https://www.fairfaxcounty.gov/parks/farmersmarkets/mclean","-77.192913","38.943545","22101"
"Middleburg","https://www.facebook.com/pages/Middleburg-Community-Farmers-Market/137216962957560","Middleburg Community Farmers Market","va","200-400 Stonewall Street","baked goods flowers eggs vegetables jams maple meat poultry fruits mushrooms","","market","http://www.middleburgfarmersmarket.com","-77.7388","38.969","20117"
"Middlesex","","Middlesex County Farmers Market","va","Route 33","","","market","","-76.5771","37.6359",""
"Mineral","https://www.facebook.com/MineralMarketVA","Mineral Farmer's Market","va","81 Louisa Ave.","baked goods crafts flowers eggs herbs vegetables honey jams meat plants poultry prepared soap trees fruits pet food wild","","market","http://www.mineralmarket.org","-77.907787","38.012166","23117"
"Montross","https://www.facebook.com/pages/Visit-Montross-Virginia/427120500764874","Montross Market Days","va","15803 Kings a Highway","baked goods cheese crafts eggs jams plants prepared soap wine","","market","http://Visitmontross.com","-76.8285523","38.0954214","22520"
"Richmond","","Monument Market","va","2581 Monument Avenue","","","market","","-77.4687","37.5588","23220"
"Fairfax ","www.facebook.com/CentralFarmMarkets","Mosaic Central Farm Market","va","2910 District Avenue","baked goods cheese crafts flowers eggs seafood herbs vegetables honey jams meat poultry prepared soap wine coffee fruits juices pet food","@CentralFarmMKTs","market","http://www.centralfarmmarkets.com","-77.229791","38.872423","22031"
"Mount Jackson","www.facebook/mjfarmersmarket","Mount Jackson Farmers Market","va","5973 South King Street","baked goods flowers eggs herbs vegetables honey fruits","https://twitter.com/MJFarmersMarket","market","http://www.mjfarmersmarket.com","-78.643629","38.746076","22842"
"Nellysford","https://www.facebook.com/pages/Nelson-Farmers-Market-Nellysford-VA/196017627093928?ref=hl","Nelson Farmers Market","va","3079 Rockfish Valley Hwy","baked goods cheese crafts flowers eggs herbs vegetables honey jams meat plants poultry prepared soap trees coffee fruits mushrooms wild","","market","http://www.nelsonfarmersmarket.com","-78.87131","37.89156","22958"
"Mechanicsville","https://www.facebook.com/#!/NHBCFarmersMarket","New Highland Baptist Church Farmers Market","va","9200 New Ashcake Road","organic baked goods cheese crafts flowers eggs herbs vegetables honey jams meat plants poultry prepared soap trees fruits juices","","market","http://newhighlandbaptist.org/farmers-market/","-77.410676","37.699238","23116"
"Newport News","","Newport News Farmers Market","va","2801 Jefferson Ave.","","","market","http://www.nnparks.com/parks_farmersmarket2.php","-76.4223","36.9834","23607"
"Nickelsville","","Nickelsville Farmers Market","va","11826 Nickelsville Hwy","baked goods crafts eggs herbs vegetables honey jams plants prepared fruits","","market","","-82.4157","36.752","24271"
"Verona ","https://www.facebook.com/NAFarmMarket/?ref=bookmarks","North Augusta Farmer's Market","va","","baked goods crafts flowers eggs herbs vegetables honey jams meat plants prepared soap fruits","","market","","-79.015829","38.192430",""
"Stafford","www.facebook.com/northstaffordfm","North Stafford Farmers Market","va","125 Hospital Center Blvd.","baked goods crafts flowers eggs herbs vegetables honey jams meat nuts plants poultry prepared soap wine coffee fruits mushrooms pet food wild","nsfm","market","http://northstaffordfm.com","-77.4055960","38.4149430","22554"
"Stafford","https://www.facebook.com/northstaffordfm/","North Stafford Farmers Market - Long & Long LLC","va","125 Hospital Center Boulevard, Behind Stafford Hospital","baked goods cheese crafts flowers eggs herbs vegetables honey jams meat plants poultry prepared soap wine coffee fruits mushrooms pet food wild","","market","http://www.northstaffordfm.com","-77.4072103","38.4151736","22554"
"Norton","https://www.facebook.com/pages/Norton-Friends-and-Farmers-Market/102346129813453","Norton Friends & Farmers Market","va","815 Park Avenue, S.W.","organic baked goods cheese crafts flowers eggs herbs vegetables honey jams meat nuts plants soap trees wine fruits mushrooms","","market","","-82.629976","36.933188","24273"
"Oakton","https://www.facebook.com/events/344006939558658/","Oak Marr","va","3200 Jermantown Road","baked goods cheese flowers eggs herbs vegetables honey jams meat plants prepared fruits juices","","market","https://www.fairfaxcounty.gov/parks/farmersmarkets/oak-marr","-77.302226","38.889444","22124"
"Virginia Beach","","Old Beach Farmers Market","va","19th Street","","","market","http://www.oldbeachfarmersmarket.com/","-75.9839","36.846","23451"
"Alexandria","https://www.facebook.com/OldTownFarmersMarketAlexandriaVA","Old Town Alexandria Farmers' Market","va","301 King Street","organic baked goods cheese crafts flowers eggs seafood herbs honey jams meat nuts plants poultry prepared soap trees coffee fruits juices mushrooms tofu","","market","https://alexandriava.gov/OldTownFarmersMarket","-77.043015","38.804839","22314"
"Orange","","Orange County Farmers Market II","va","Historic Downtwon Orange Train Station and Visitor Center","","","market","http://www.orangedowtownalliance.org","-78.1108","38.2454","22960"
"Stuart","","Patrick County Farmers Market","va","Courthouse Parking Lot","","","market","","-80.2384","36.6555","24171"
"Pearisburg","https://www.facebook.com/pearisburgcommunitymarket","Pearisburg Community Market","va","1410 Wenonah Avenue","baked goods crafts flowers eggs herbs vegetables honey jams meat plants poultry prepared soap wine coffee fruits","","market","http://www.pearisburgfarmtofork.org","-80.719213","37.326041","24134"
"Hampton","","Peninsula Town Center Farmers Market","va","5101 Kilgore Avenue","baked goods crafts flowers seafood herbs vegetables jams nuts plants prepared soap trees beans fruits pet food","","market","http://www.peninsulatowncenter.com/Events/EventDetail/tabid/3345/ArticleId/3120/Peninsula-Town-Center-Farmers-Market.aspx","-76.392022","37.044882","23690"
"Lebanon","","People's Market of Lebanon","va","Lebanon Elementary & Middle Schools","","","market","","-82.0757","36.9001","24266-0697"
"Newport News","","Port Warwick Mid Week Farmers Market","va","3100 William Styron Square","organic baked goods cheese crafts flowers eggs seafood herbs vegetables honey jams maple meat nursery nuts plants poultry soap","","market","http://www.pwfarmersmarket.org","-76.487492","37.083812","23606"
"Portsmouth","https://www.facebook.com/pages/Portsmouth-Olde-Towne-Farmers-Market/106639089426039","Portsmouth Olde Towne Farmers' Market","va","Court Street and High Street","baked goods cheese crafts flowers eggs seafood herbs vegetables honey jams meat plants poultry prepared soap fruits","","market","http://www.portsmoutholdetownefarmersmarket.com","-76.300908","36.835299","23704"
"Powhatan","Powhatan Farmers Market","Powhatan Farmers Market","va","2470 Anderson Hwy","organic baked goods cheese crafts eggs herbs vegetables jams maple meat plants poultry prepared soap trees wine fruits grains mushrooms pet food wild","","market","http://www.powhatanfarmersmarket.com","-77.817293","37.522266","23139"
"Prince George","https://www.facebook.com/PrinceGeorgeFarmersMarket/","Prince George Farmers Market","va","6605 Courts Drive","baked goods cheese crafts flowers eggs vegetables honey jams maple nuts plants prepared soap coffee fruits mushrooms pet food wild","","market","https://www.princegeorgecountyva.gov/farmersmarket/index.php","-77.287343","37.224538","23875"
"Pulaski","facebook.com/pulaskimarketplace","Pulaski The Marketplace","va","20 SOUTH WASHINGTON","baked goods cheese flowers eggs herbs vegetables honey jams plants prepared soap wine coffee beans fruits","","market","http://pulaskimarketplace.com","-80.7792887","37.0458736","24301"
"Quantico ","","Quantico Farmers Market","va","3500 Russell Rd","baked goods eggs herbs vegetables meat fruits","","market","","-77.349926","38.520335","22134"
"Radford","https://www.facebook.com/rfmkt","Radford Farmers' Market","va","East Main Street","baked goods crafts flowers eggs herbs vegetables plants prepared soap fruits","","market","http://www.radfordchamber.com","-80.557664","37.141092","24141"
"Virginia Beach","www.facebook.com/RedMillGreenMarket","Red Mill Green Market","va","2181 Upton Drive","baked goods cheese crafts flowers eggs seafood vegetables plants prepared soap","","market","","-76.007506","36.756654","23454"
"Fauquier","","Remington Farmers Market","va","Market St., in the Muncipal Parking Lot","","","market","http://www.fauquiercounty.gov/government/departments/agdev/","-77.6621","38.8099",""
"Reston ","https://www.facebook.com/events/2109984659095016/","Reston ","va","1609 Washington Plaza","baked goods cheese flowers eggs seafood vegetables honey jams meat nuts plants prepared fruits juices","","market","https://www.fairfaxcounty.gov/parks/farmersmarkets/reston","-77.342215","38.948449","20190"
"Richlands","","Richlands Farmers Market","va","","","","market","","-81.7976","37.0947","24641"
"Richmond","","Richmond VAMC Farmers Market","va","1201 Broad Rock Blvd","","","market","","-77.4666","37.4969",""
"Petersburg ","www.facebook.com/riverstreetfarmersmarket","River Street Market","va","30 River Street","baked goods crafts flowers eggs seafood herbs vegetables honey jams meat nuts plants poultry prepared soap trees wine coffee fruits juices mushrooms pet food wild","@rsmpetersburg","market","http://www.riverstreetmarket.com","-77.403730","37.233787","23803"
"Lexington","https://www.facebook.com/pages/Rockbridge-Farmers-Market/134687889939243","Rockbridge Farmers' Market","va","487 Maury River Road","organic baked goods cheese crafts flowers eggs seafood herbs vegetables honey jams meat plants poultry prepared soap trees coffee fruits juices mushrooms","","market","","-79.4230200","37.8066650","24450"
"Rocky Mount","","Rocky Mount Farmers' Market","va","Franklin Street","","","market","http://www.rockymountva.org","-79.8921","36.9993","24151"
"Arlington","","Rosslyn Farmers and Artists Market","va","1911 North Fort Myer Drive","","","market","http://www.rosslynva.org/play/markets","-77.0725","38.8976","22209"
"Ruther Glen","https://www.facebook.com/groups/586850535001520","RT 639 Farmers Market","va","7278 Ladysmith Road, ","baked goods crafts flowers eggs herbs vegetables honey jams meat nuts prepared coffee fruits pet food","","market","","-77.518506","38.016661","22546"
"Afton","","RVCC Winter Market","va","Rockfish School Lane","baked goods cheese crafts flowers eggs herbs vegetables jams meat plants poultry prepared soap fruits mushrooms","","market","","-78.886752","37.7874422","22920"
"Salem","","Salem Farmers Market","va","3 East Main Street","baked goods cheese flowers eggs seafood herbs vegetables honey jams meat plants poultry prepared soap trees fruits","https://twitter.com/SalemVaMarket","market","http://market.salemva.gov","-80.058606","37.292997","24153"
"Saluda","","Saluda Outdoor Farmers Market","va","Courthouse Square","","","market","","-76.6336","37.5429","23149"
"Schuyler","","Schuyler Community Farmers Market","va","6484 Rockfish River Road","","","market","","-78.7014","37.7901",""
"Scottsville","","Scottsville Community Farmers Market","va","125 Fleet Street","baked goods cheese crafts flowers herbs vegetables honey jams meat plants prepared soap","","market","http://www.goscottsvilleva.com","-78.4953","37.7983","24590"
"Scottsville","","Scottsville Farmers Market","va","1800 Scottsville-Chili Rd","","","market","http://www.scottsvilleicearena.com","-78.4956","37.7988","24590"
"Shawsville","https://www.facebook.com/pages/Shawsville-Farmers-Market/387248851313781","Shawsville Farmers' Market","va","267 Alleghany Spring Rd.","baked goods crafts eggs herbs vegetables plants soap fruits","","market","http://www.ShawsvilleFarmersMarket.webs.com","-80.2558","37.167","24162"
"Shenandoah","https://www.facebook.com/pages/Shenandoah-Marketplace/1604540023122052","Shenandoah Marketplace","va","201 Maryland Ave","organic baked goods crafts eggs seafood herbs vegetables honey jams maple meat nuts plants poultry prepared soap trees fruits mushrooms","NA","market","","-78.6228306","38.4839133","22849"
"Bristow","https://www.facebook.com/SmartMarketsBristow","Smart Markets Bristow","va","8301 Linton Hall Rd.","baked goods herbs vegetables honey jams meat poultry prepared fruits","https://twitter.com/smartmarkets","market","http://www.smartmarkets.org","-77.5944539","38.7744892","20136"
"Chantilly","www.facebook.com/smartmarketschantilly","Smart Markets Chantilly","va","3460 Centreville Road","baked goods cheese eggs herbs vegetables honey jams poultry prepared fruits","@smartmarkets","market","http://www.smartmarkets.org","-77.4237072","38.9090074","22051"
"Alexandria","www.facebook.com/smartmarketshuntington","Smart Markets Huntington","va","5918 North Kings Highway","baked goods herbs vegetables honey jams poultry fruits","@smartmarkets","market","http://www.smartmarkets.org","-77.0770722","38.7894498","22003"
"Oakton","https://www.facebook.com/smartmarketsoakton","Smart Markets Oakton","va","2854 Hunter Mill Rd.","baked goods cheese eggs vegetables honey maple meat poultry prepared wine coffee fruits juices","https://twitter.com/smartmarkets","market","http://www.smartmarkets.org","-77.30214","38.88491","22124"
"Reston","https://www.facebook.com/smartmarketsreston","Smart Markets Reston","va","1900 Reston Station Boulevard","baked goods cheese flowers eggs herbs vegetables honey jams maple meat poultry prepared soap trees beans fruits juices","https://twitter.com/smartmarkets","market","http://www.smartmarkets.org","-77.3387970","38.9493603","20190"
"Springfield","https://www.facebook.com/smartmarketsspringfield","Smart Markets Springfield","va","6699 Spring Mall Drive","baked goods eggs vegetables meat poultry prepared wine fruits juices","https://twitter.com/smartmarkets","market","http://www.smartmarkets.org","-77.1775352","38.7736798","22150"
"McLean","https://www.facebook.com/smartmarketstysons","Smart Markets Tysons","va","8400 Westpark Dr. ","baked goods cheese vegetables honey jams maple meat poultry prepared fruits juices pet food","https://twitter.com/smartmarkets","market","http://www.smartmarkets.org","-77.2346700","38.9255810","22012"
"Smithfield","https://www.facebook.com/smithfieldfarmersmarket","Smithfield Farmers Market","va","319B Main Street","baked goods cheese crafts flowers eggs herbs vegetables honey jams meat nuts plants poultry prepared soap trees coffee fruits pet food","","market","http://www.smithfieldfarmersmarket.org/","-76.631282","36.981723","23430"
"South Hill","https://www.facebook.com/southhillfarmersmarket","South Hill Farmers Market","va","105 W. Danville Street","organic baked goods cheese crafts flowers eggs herbs vegetables honey jams meat plants poultry prepared soap trees beans fruits grains mushrooms pet food wild","","market","http://www.southhillva.org","-78.1301422","36.7244013","23970"
"South Riding","","South Riding Farmers Market","va","Town Green in front of Town Hall","","","market","http://www.loudounfarms.org","-77.5014","38.9558","20152"
"Woodstock","https://www.facebook.com/southstreetbarnmarket/","South Street Barn Market","va","411 S. Muhlenberg St.","organic baked goods cheese crafts eggs herbs vegetables honey jams meat nuts poultry prepared soap coffee beans fruits pet food","@southstmarket","market","http://www.southstreetbarnmarket.com","-78.5096105","38.8788412","22664"
"Midlothian","","Southside Vendors Market","va","12800 Genito Rd.","","","market","http://www.southsidevendorsmkt.com/","-77.6294","37.4518","23113"
"Hillsville","https://www.facebook.com/swvafarmersmarket","Southwest Virginia Farmers' Market","va","497 Farmers Market Drive","baked goods cheese crafts flowers eggs herbs vegetables honey jams maple nuts plants prepared soap beans fruits grains juices","","market","http://www.swvafarmersmarket.org/","-80.772836","36.742228","24343"
"Spotsylvania","https://www.facebook.com/SpotsyFarmersMarket/","Spotsylvania Farmers Market - Spotsylvania Regional Medical Center","va","4600 Spotsylvania Parkway","baked goods eggs herbs vegetables jams meat plants prepared fruits pet food","@SpotsyFarmMkt","market","https://www.spotsylvaniafarmersmarket.com/","-77.495899","38.219747","22407"
"Fredericksburg","https://www.facebook.com/SpotsyFarmersMarket/","Spotsylvania Farmers Market - VDOT Commuter Parking Lot","va","12150 Gordon Road","baked goods cheese flowers eggs seafood herbs vegetables honey jams meat plants poultry prepared soap trees coffee fruits juices mushrooms pet food wild","@spotsyfarmmkt","market","http://www.spotsylvaniafarmersmarket.com","-77.563047","38.290380","22407"
"Fredericksburg","https://www.facebook.com/SpotsyFarmersMarket/","Spotsylvania Farmers Market - VDOT Commuter Parking Lot","va","12150 Gordon Road","baked goods cheese flowers eggs seafood herbs vegetables honey jams meat plants poultry prepared soap trees coffee fruits mushrooms pet food","@spotsyfarmmkt","market","http://SpotsylvaniaFarmersMarket.com","-77.559528","38.289909","22170"
"Staunton","https://www.facebook.com/safarmersmarket?ref=nf","Staunton/Augusta Farmers' Market","va","Johnson St. and Byers St.","baked goods cheese crafts flowers eggs herbs vegetables honey jams meat nuts plants poultry prepared soap trees wine fruits","","market","http://www.safarmersmarket.com","-79.073882","38.147889","24401"
"Stuart","https://www.facebook.com/pages/Stuart-Farmers-Market/113677132003596","Stuart Farmers Market","va","320 Chestnut Street","organic baked goods crafts flowers eggs herbs vegetables honey jams meat nuts plants soap trees coffee fruits juices mushrooms","","market","http://www.townofstuartva.com","-80.26824","36.63798","24171"
"Stuarts Draft","","Stuarts Draft Farm Market ","va","2964 Stuarts Draft Highway","","","market","http://www.stuartsdraftfarmmarket.com/","-79.023","38.0396","24477"
"Suffolk","https://www.facebook.com/SuffolkFarmersMarketVirginia/","Suffolk Farmers' Market","va","524 N. Main Street","baked goods cheese crafts flowers eggs herbs vegetables honey jams meat plants poultry prepared soap trees coffee fruits","","market","http://VisitSuffolkVa.com","-76.581850","36.737591","23434"
"Gloucester ","https://www.facebook.com/GloucesterMainStreet","Summer Nights Market ","va","6539 Main Street ","baked goods cheese crafts flowers seafood herbs vegetables honey jams meat poultry prepared soap fruits","","market","http://www.gloucestervillage.com","-76.5271230","37.4185060","23061"
"Glen Allen","https://www.facebook.com/GrowRVA","Sunday Brunch Market","va","2880 Mountain Road","baked goods cheese crafts flowers eggs seafood herbs vegetables honey jams meat nuts plants poultry prepared soap trees wine coffee fruits grains juices mushrooms pet food wild","https://twitter.com/growrva","market","http://growrva.com/","-77.501406","37.667350","23060"
"Surry","","Surry Farmers Market","va","Courthouse Square","","","market","","-76.8349","37.1384","23883"
"Tappahannock","https://www.facebook.com/TappahannockMarket ","Tappahannock Farmers Market","va","PO Box 1011","baked goods cheese crafts flowers eggs seafood vegetables honey jams meat plants poultry prepared trees wine fruits","","market","http://www.tappahannockmarket.com/","-76.8591301","37.9254135","22560"
"Tazewell","https://www.facebook.com/tazewellfarmersmarket","Tazewell Farmers Market","va","106 Gratton Rd","baked goods crafts flowers eggs herbs vegetables jams maple meat plants poultry wine fruits","","market","","-81.484880","37.124670","24651"
"Midlothian","","The Brandermill Green Market","va","3001 E. Boundry Terrace","","","market","","-77.6469","37.4492","23112"
"Richmond","https://www.facebook.com/carytownmarket/","The Carytown Farmers Market","va","3201 West Cary Street","baked goods cheese crafts flowers eggs herbs vegetables honey jams plants prepared soap coffee fruits pet food","https://twitter.com/CtownFarmersMkt","market","http://www.CarytownMarket.com","-77.482639","37.553690","23221"
"Onancock","https://www.facebook.com/OnancockMarket","The Onancock Market","va","Market Street and Ames Street","organic baked goods crafts flowers eggs seafood herbs vegetables honey jams meat nuts plants poultry soap fruits mushrooms pet food wild","","market","http://www.onancockmarket.com","-75.749976","37.712092","23417"
"Richmond","www.facebook.com/growrva","The South of the James Farmers Market","va","New Kent Avenue & 42nd Street","organic baked goods cheese crafts flowers eggs seafood herbs vegetables honey jams maple meat nuts plants poultry prepared soap trees coffee fruits juices mushrooms pet food tofu","@growrva","market","http://www.growrva.com","-77.4765723","37.5209343","23225"
"Virginia Beach ","VBFarmersMarket","The Virginia Beach Farmers Market","va","3640 Dam Neck Road","organic baked goods cheese crafts flowers eggs seafood herbs vegetables honey jams maple meat nuts plants poultry prepared soap trees coffee beans fruits grains juices mushrooms pet food tofu wild","VABeachFarmMrkt","market","http://www.vbgov.com/farmersmarket","-76.091095","36.776811","23453"
"Chatham","","The Virginia Grown Farmers Market at the Olde Dominion Agriculture Complex","va","19783 US Hwy. 29 South","baked goods flowers eggs herbs vegetables honey jams meat plants poultry prepared soap trees wine fruits mushrooms","","market","","-79.403628","36.864529","24531"
"Gate City","","Town of Gate City Farmer's Market","va","156 East Jackson Street","","","market","http://www.townofgatecity.com/","-82.5791","36.6392","24251"
"Halifax","https://www.facebook.com/pages/Town-of-Halifax-Farmers-Market/129973857024452","Town of Halifax Farmers Market","va","209 South Main Street","baked goods cheese crafts flowers eggs herbs vegetables honey jams plants poultry prepared soap trees coffee fruits wild","","market","http://www.townofhalifax.com","-78.92836","36.76317","24558"
"Hillsville","www.facebook.com/townofhillsvillefarmersmarket/","Town of Hillsville Farmers Market","va","410 N. Main Street","baked goods crafts flowers eggs seafood herbs vegetables jams plants prepared fruits pet food","","market","https://hillsvillefarmersm.wixsite.com/mysite ","-80.736200","36.766222","24343"
"West Point","","Town of West Point, Virginia","va","1000 Chelsea Road ","baked goods eggs seafood vegetables jams poultry fruits","","market","http://www.west-point.va.us","-76.793868","37.538998","23181"
"Culpeper","","Tri-County Farmers Market","va","","","","market","","-78.032","38.4429",""
"Richmond","facebook.com/tricyclegardens","Tricycle Gardens Four Season Farmers' Market","va"," 31st Street Baptist Church, 823 North 31st Street","baked goods flowers eggs herbs vegetables honey jams plants fruits","@tricyclegardens","market","http://tricyclegardens.org","-77.4082803","37.5332180","23223"
"Troutville","","Troutville Farmers' Market in the Park","va","5340 Lee Highway","","","market","http://www.townoftroutville.com","-79.87611","37.41689","24175"
"Martinsville","https://www.facebook.com/groups/48152046033/","Uptown Martinsville Farmers' Market","va","65 W Main St","baked goods crafts flowers herbs vegetables honey jams plants prepared soap wine coffee fruits","","market","http://www.martinsvilleuptown.com","-79.8745407","36.6920800","24112"
"Urbanna","","Urbanna Farmers Market","va","Bonner St and Rappahannock St.","","","market","http://www.urbanna.com/pages/allEvents.html","-76.5772","37.638","23175"
"Vienna","www.facebook.com/Vienna-Farmers-Market","Vienna Saturday Farmers Market","va","301 Center St Sotuh","baked goods cheese flowers eggs seafood herbs vegetables honey jams meat nuts plants poultry prepared soap trees coffee fruits juices mushrooms pet food","","market","http://VIENNAFARMERSMARKET.COM","-77.2628865","38.8991973","22180"
"Vinton","https://www.facebook/vinton farmers' market","Vinton Farmers Market","va","204 W. Lee Ave.","baked goods crafts flowers eggs herbs vegetables honey jams meat nuts plants prepared soap beans fruits","","market","http://www.vintonva.gov","-79.8988910","37.2803308","24179"
"Richmond","","Virginia Street Farmers Market","va","114 Virginia Street","baked goods cheese crafts flowers eggs seafood herbs vegetables honey jams meat nursery nuts plants poultry prepared soap","","market","http://www.growrva.com","-77.4335510","37.5340450","23219"
"toano","","Volunteer fire dept.farmers market","va","3135 forge road","baked goods cheese flowers eggs seafood herbs vegetables honey jams meat nuts poultry prepared trees beans fruits grains juices","","market","","-76.8075","37.3814","23168"
" Annandale ","https://www.facebook.com/events/420079218795888/","Wakefield ","va","8100 Braddock Road ","baked goods cheese eggs herbs vegetables honey jams meat plants poultry prepared fruits juices","","market","https://www.fairfaxcounty.gov/parks/farmersmarkets/wakefield","-77.196229","38.832801","22003"
"Annandale","","Wakefield Farmers Market ","va","8100 Braddock Road","organic baked goods cheese flowers eggs herbs vegetables honey jams meat poultry fruits juices mushrooms","","market","http://www.fairfaxcounty.gov/parks/farmersmarkets/wakefieldmkt.htm","-77.2252242","38.8146476","22003"
"Wallops Island","https://www.facebook.com/WallopsFarmersMarket","Wallops Farmers Market","va","Mill Dam Road","baked goods cheese crafts eggs seafood vegetables honey jams plants poultry prepared soap trees fruits pet food","","market","","-75.480169","37.934379","23337"
"Warrenton","https://www.facebook.com/officialwarrentonfarmersmarket/","Warrenton Farmers Market","va","Corner of Lee Street and South Fifth Street","baked goods crafts flowers eggs herbs vegetables honey jams meat plants poultry soap coffee fruits","","market","http://www.warrentonva.gov/visitors/local_attractions/index.php","-77.793458","38.711660","20186"
"Warrenton ","https://www.facebook.com/officialwarrentonfarmersmarket/","Warrenton Farmers Wednesday Market","va","800 Waterloo Road","baked goods crafts flowers eggs vegetables honey jams meat plants poultry soap fruits","","market","http://www.warrentonva.gov/visitors/local_attractions/index.php","-77.818482","38.717439","20186"
"Warsaw","","Warsaw Farmers Market","va","Route 360 and Main Street","","","market","http://www.warsawfarmersmarket.com/about.html","-76.758","37.9585","22572"
"Waynesboro","","Waynesboro Farmers Market","va","Pavilion at Constitution Park","","","market","http://www.waynesbororiverfrontmarket.com","-78.8992","38.0753","22980"
"Aldi","https://www.facebook.com/FarmersMarketWC","Wellness Connection Farmer's Market","va","24.600 Millstream Drive","baked goods crafts flowers eggs seafood herbs vegetables honey jams meat plants poultry prepared soap coffee fruits pet food","","market","http://www.WellnessConnectionLLC.com","-77.5494010","38.9387742","20105"
"Henrico","","West End Farmers Market","va","Gayton Road & Ridgefield Pkwy.","","","market","http://www.westendfarmersmarket.com/","-77.638","37.6241",""
"Alexandria","https://www.facebook.com/WestEndFarmersMarket","West End Farmers Market","va","Ben Brenman Park  4800 Brenman Park Drive","baked goods cheese crafts flowers eggs herbs vegetables honey jams meat plants prepared soap fruits","https://twitter.com/wefm_","market","http://www.westendfarmersmarket.org","-77.116073","38.807356","22304"
"Roanoke","https://www.facebook.com/WestEndCommunityMarket/","West End Farmers Market","va","1210 Patterson Ave. SW","baked goods cheese crafts flowers eggs seafood herbs vegetables honey jams maple meat nuts plants poultry prepared soap trees coffee beans fruits grains juices mushrooms pet food tofu wild","http://twitter.com/leap4local","market","http://leapforlocalfood.org/westend","-79.958472","37.27783","24016"
"Moneta","","Westlake Farmers' Market","va","Intersection Booker T. Washington Hwy. & Enterprise Lane","","","market","","-79.7624","37.0888","24184"
"Arlington","https://www.facebook.com/westoverfarmersmarket","Westover Farmers Market","va","1644 N. McKinley Road","baked goods cheese flowers eggs herbs vegetables honey jams meat poultry prepared fruits juices","https://twitter.com/WestoverFarmMkt","market","http://www.westoverfarmersmarket.org/","-77.141807","38.886205","22205"
"Williamsburg","https://www.facebook.com/pages/WilliamsburgFM","Williamsburg Farmers Market","va","402 W Duke of Gloucester Street","organic baked goods cheese flowers eggs seafood herbs vegetables honey jams meat nuts plants poultry soap trees wine coffee fruits juices mushrooms pet food wild","https://twitter.com/WilliamsburgFM","market","http://www.williamsburgfarmersmarket.com","-76.706674","37.270942","23185"
"Williamsburg","http://www.facebook.com/WilliamsburgFM ","Williamsburg Farmers Market","va","402 W Duke of Gloucester Street","organic baked goods cheese flowers eggs seafood herbs vegetables honey jams meat nuts plants poultry prepared soap wine coffee fruits grains juices mushrooms wild","https://twitter.com/williamsburgFM","market","https://williamsburgfarmersmarket.com","-76.706824","37.270881","23185"
"Dundas","","Willowland Farm","va","199 Potts Spring Road","vegetables plants fruits","","market","","-78.021331","36.918993","23938"
"Winchester","https://www.facebook.com/pages/Freight-Station-Farmers-Market/304266982986?ref=br_tf","Winchester Freight Station Farmers Market","va","315 W, Boscawen St","baked goods flowers eggs seafood herbs vegetables honey jams maple meat nuts plants poultry prepared soap trees beans fruits juices mushrooms","","market","","-78.1711492","39.1852270","22601"
"Windsor","","Windsor Farmers Market","va","Route 460 in Windsor","","","market","http://www.iwus.net/agriculture","-76.6313","36.9821","23487"
"Wise ","https://www.facebook.com/WiseSpecialEvents","Wise Farmers' Market","va","309 E. Main Street","baked goods crafts flowers eggs herbs vegetables honey jams plants prepared soap fruits","","market","http://www.townofwise.net","-82.5782570","36.9768742","24293"
"South Chesterfield","","Woods Farmers Market","va","7200 Hickory Road","baked goods cheese flowers eggs herbs vegetables honey jams nursery nuts plants prepared soap trees","","market","","-77.4952","37.2644","23803"
"Woodstock","https://www.facebook.com/pages/Woodstock-Virginia-Farmers-Market/174631302598353","Woodstock Farmers' Market","va","1175 S. Hisey Avenue","organic baked goods crafts flowers eggs vegetables honey jams meat plants poultry prepared soap fruits mushrooms pet food","","market","http://www.woodstockvafarmers'market.com","-78.5374805","38.8698461","22664"
"Wytheville ","Wytheville Farmers Market","Wytheville Farmers Market","va","210 W. Spring Street","baked goods cheese crafts flowers eggs herbs vegetables honey jams meat plants poultry prepared soap coffee fruits","","market","http://www.wythevillefarmersmarket.com","-81.0833677","36.9486397","24368"
"Virginia Beach","","Y Not Wednesday Farmers Market at Town Center","va","201 Market Street,","organic baked goods cheese flowers eggs seafood vegetables honey jams prepared soap wine","","market","http://www.sandlercenter.org/index/ynotwednesdays","-76.135361","36.841885","23462"
"Virginia Beach ","https://www.facebook.com/VBFarmersMarket","YNOT Wednesday at Town Center","va","201 Market Street","organic vegetables honey jams fruits","","market","","-76.1356421","36.8422429","23462"
"Yorktown","Village Events, ltd.","Yorktown Market Days","va","331 Water Street,","baked goods cheese crafts flowers eggs seafood herbs vegetables honey jams maple meat nuts plants poultry prepared soap coffee fruits grains juices mushrooms pet food","","market","http://villageevents.org/","-76.508206","37.238105","23690"
