"city","facebook","name","state","street","tags","twitter","type","website","x","y","zip"
"Eugne","https://www.facebook.com/pages/Adkins-Blueberry-Farm/120648141360744?ref_type=bookmark","Adkins Blueberry Farm","or","85995 Gossler Rd","","","farm","","-122.986537","43.996830","97405"
"BORING","https://www.facebook.com/aslans.how.organics/","Aslan's How Organics","or","24041 SE HWY 224","dairy products eggs herbs fresh-fruits fresh-vegetables","","farm","www.aslans-how-organics.com","-122.4148310","45.3920040","97009"
"sherwood","https://www.facebook.com/BaggenstosFarmStore","Baggenstos Farm Store Inc.","or","15801 sw roy rogers road","","","farm","baggenstosfarms.com","-122.852326","45.40518","97140"
"Lebanon","https://www.facebook.com/pages/Berkeys-Blueberries/119818494730952","Berkey's Blueberries","or","32589 Berlin Road","canned preserved fresh-fruits pet-food","","farm","Berkeysblueberries.com","-122.867948","44.519116","97355"
"Newberg","www.facebook.com/bideaweefarm","bide a wee farm","or","19562 NE Calkins Lane","","","farm","www.bideaweefarm.com","-123.059620","45.354299","97132"
"Cornelius","https://www.facebook.com/bloomingjunction","Blooming Junction Garden and Farmstore","or","35105 NW Zion Church rd.","bedding plants herbs fresh-fruits fresh-vegetables nursery-stock pet-food","https://www.twitter.com/BloomingJnction","farm","www.bloomingjunction.com","-123.0387972","45.5724067","97113"
"Corvallis","","Blueberry Meadows","or","3860 NE Hwy 20","","","farm","","-123.222828","44.599086","97330"
"Albany","www.Facebook.com/bosefamilyfarm","Bose Family Farm, LLC","or","35765 Cyrus Road NE","canned preserved coffee tea cut-flowers fresh-fruits fresh-vegetables grains flour","","farm","www.bosefamilyfarm.com","-122.969581","44.664483","97322"
"Monroe","","Crooked Gate Ranch LLC","or","PO Box 310","red-meat non-poultry-meat","","farm","www.greatgrassbeef.com","-123.2967637","44.3140116","97456"
"Keno","https://www.facebook.com/KlamathBees","Davitt Apiaries","or","22802 Highway 66","eggs honey","","farm","http://davitt9.wix.com/klamathbees","-122.018427","42.138836","97627"
"Estacada","","Don smith blueberries at Estacada ","or","22530 s. Stormer rd.  Off sprinwater","fresh-fruits","","farm","","-122.399840","45.310088","97023"
"Cove","","Double J Natural Beef","or","69542 Haefer Lane","red-meat non-poultry-meat","","farm","","-117.798204","45.296739","97824"
"Sandy","","Drumcliffe Farm","or","52203 E. Terra Fern Road","","","farm","","-122.1244570","45.3647289","97055"
"Hillsboro","https://www.facebook.com/easygofarm","EasyGo Farm","or","16430 SW Holly Hill Road","crafts woodworking","","farm","http://easygofarm.net","-123.029722","45.408216","97123"
"Sandy","","Fungi Farm Shiitake LLC","or","47025 SE Brian Ranch Road","mushrooms","","farm","www.fungifarm.com","-122.179962","45.330508","97055"
"Beaverton","https://www.facebook.com/pages/Hoffman-Farm-Store/105922359450313?ref=hl","Hoffman Farms Store","or","22242 SW Scholls Ferry Road","canned preserved fresh-fruits fresh-vegetables honey soap body-care","https://twitter.com/HoffmanBerries","farm","www.hoffmanfarmsstore.com","-122.907370","45.419272","97007"
"WIKSONVILLE","","HOLLY BLUE ACRES","or","23556 Southwest Gage Road","fresh-fruits","","farm","SAME","-122.728923","45.346973","97070"
"Hood River","www.facebook.com/hoodriverlavender","Hood River Lavender Farm","or","3801 Straight Hill Rd","canned preserved coffee tea cut-flowers herbs nursery-stock soap body-care","https://twitter.com/Lavenderfarm","farm","http://hoodriverlavender.com","-121.5433735","45.6152453","97031"
"Dayton","","Jeff and Jen's U-Pick","or","18265 SE Neck Road","","","farm","goddik@frontier.com","-123.050342","45.231250","97114"
"Milwaukie","https://www.facebook.com/pages/Justys-Produce-and-Flowers/115072718584534?ref=br_tf","Justys Produce and Flowers","or","7924 SE Lake Road","baked-goods bedding plants canned preserved cut-flowers dairy products dry beans eggs fresh-fruits fresh-vegetables honey juices ciders mushrooms nuts","","farm","www.justysproduce.com ","-122.581942","45.421352","97267"
"Hermiston","https://www.facebook.com/pages/K-and-K-Bluberries/104303779663777","K & K Blueberries","or","29555 Minnehaha Road","","","farm","www.kandkblueberries.com","-119.333750","45.812648","97838"
"Mosier","","Keylock Orchard","or","Mosier Oregon State Road","","","farm","","-121.383927","45.679607","97040"
"Parkdale","https://www.facebook.com/KiyokawaFamilyOrchards","Kiyokawa Family Orchards","or","8129 Clear Creek Rd.","baked-goods canned preserved fresh-fruits fresh-vegetables honey juices ciders nuts","","farm","http://www.kiyokawafamilyorchards.com/","-121.596442","45.497191","97041"
"Corbett","","Klock Farm","or","931 NE SALZMAN Rd.","fresh-fruits","","farm","www.klockfarm.com","-122.250970","45.528897","97019"
"Boing","","Liepold Farms","or","14480 Se Richey Rd","fresh-fruits","","farm","www.liepoldfarms.com","-122.378251","45.417906","97009"
"Forest Grove","https://www.facebook.com/LoveFarmOrganics","Love Farm Organics","or","46125 NW Hillside Rd","herbs fresh-fruits fresh-vegetables honey soap body-care","https://twitter.com/lovfarmorganics","farm","www.lovefarmorganics.com","-123.151593","45.573045","97116"
"Salem","","MelRose Farm","or","5586 72nd Avenue SE","","","farm","","-122.912842","44.873291","97317"
"Salem","","Meyer Peach Orchard","or","5495 Center Street Ne","fresh-fruits","","farm","","-122.949149","44.939772","97317"
"Salem","https://www.facebook.com/mintogrowers","Minto Island Growers","or","3394 Brown Island Rd S","baked-goods bedding plants coffee tea cut-flowers fish seafood herbs fresh-fruits fresh-vegetables nursery-stock prepared foods","https://www.twitter.com/mintogrowers","farm","http://www.mintogrowers.com/farm-stand/","-123.096049","44.910466","97302"
"Milton Freewater","","Morningstar Berry Farm","or","53941 E Ferndale Rd","canned preserved fresh-fruits","","farm","www.morningstarberryfarm.com","-118.383851","45.980492","97862"
"Mt Hood","Mt Hood Organic farms","Mt Hood Organic Farms","or","7130 Smullin Rd","fresh-fruits","","farm","www.mthoodorganicfarms.com","-121.563289","45.523347","97041"
"Mount Hood Parkdale","","Mt. Views Orchards Fruit Stand","or","6670 Trout Creek Ridge Road","baked-goods canned preserved coffee tea fresh-fruits fresh-vegetables honey juices ciders wine spirits beer hard-cider","","farm","www.mtvieworchards.com","-121.65118","45.5190171","97041"
"Hillsboro","https://www.facebook.com/NewEarthFarmOregon","New Earth Farm","or","11000 NW Jackson Quarry Rd","bedding plants canned preserved eggs fresh-fruits fresh-vegetables wild-harvested forest-products","","farm","newearthfarm.net","-122.939259","45.599028","97124"
"Newberg","https://www.facebook.com/OregonDreamPonies?ref=stream","Oregon Dream Ponies - Christmas Trees & Pony Rides","or","16725 Ne Hillside Drive","","","farm","www.OregonDreamPonies.com","-123.018236","45.337028","97132"
"Brookings-Harbor","http://www.facebook.com/ournaturalfarm","Our Natural Farm","or","15840 Pedrioli Dr","bedding plants cut-flowers eggs herbs fresh-fruits fresh-vegetables","http://twitter.com/ournaturalfarm","farm","http://OurNaturalFarm.com","-124.247655","42.038515","97415"
"Elgin","https://www.facebook.com/pages/Pd-Farms/124161761765","PD Farms","or","71990 Gordon Creek Road","fresh-vegetables","","farm","greifsgourmetgarlic.com","-117.9445269","45.6055017","97827"
"Portland","https://www.facebook.com/BigYellowFarmstead-494765957337088/","Peck & Bleat Neighborhood Farmstand","or","3806 SE 34th Ave","bedding plants canned preserved dairy products eggs herbs fresh-fruits fresh-vegetables honey mushrooms soap body-care","","farm","","-122.6288360","45.4953069","97202"
"Prineville ","","Prineville Lavender Farm","or","483 NE Short Lane","crafts woodworking cut-flowers herbs fresh-vegetables soap body-care","","farm","","-120.7665159","44.3047673","97754"
"Corvallis","Radke's Blueberries","Radke's Blueberries","or","490 SE Three Mile Avenue","","","farm","","-123.263729","44.512595","97333"
"Ashland","https://www.facebook.com/pages/Restoration-Seeds-100-Open-Pollinated-Seeds/245861858822125?ref=hl","Restoration Seeds","or","1133 Old Highway 99 S","fresh-fruits","","farm","www.restorationseeds.com","-122.609819","42.129122","97520"
"Coquille","https://www.facebook.com/RiversBlessings","River's Blessings LLC","or","90322 Highway 42S","eggs","","farm","","-124.3299634","43.1278609","97423"
"Jacksonville","https://m.facebook.com/rogueartisanfoods","Rogue Artisan Foods","or","10414 Hwy 238","dairy products eggs fresh-fruits fresh-vegetables red-meat non-poultry-meat wild-harvested forest-products","","farm","Www.rogueartisanfoods.com","-123.0923190","42.2415610","97530"
"Selma","","Ronan Country Fibers","or","4001 Deer Creek Road","eggs poultry fowl red-meat non-poultry-meat","","farm","http://ronanfibers.com/","-123.5420386","42.2789057","97538"
"Central Point","","Spring Grove Acre Farm","or","6935 Cork Drive","cut-flowers eggs herbs fresh-fruits fresh-vegetables","","farm","","-122.844710","42.417333","97502"
"Corvallis","https://www.facebook.com/SunsetValleyOrganics","Sunset Valley Organics","or","31567 Hwy 99W","canned preserved fresh-fruits","","farm","www.SunsetValleyOrganics.com","-123.2713149","44.4932698","97333"
"Corvallis","https://www.facebook.com/Territorial.Road.Orchard","Territorial Road Orchard","or","5570 SW 3rd Street","cut-flowers herbs fresh-fruits fresh-vegetables","","farm","","-123.270770","44.502179","97333"
"Salem","www.facebook.com/thankyouberrymuchfarms","Thank You Berry Much Farms","or","5975 Culver Drive Southeast","","","farm","www.thankyouberrymuchfarms.com","-122.938707","44.905624","97317"
"Junction city","Thistledown farms ","Thistledown Farms ","or","91455 River Rd","","","farm","http://www.thistledownfarms.net","-123.144448","44.145816","97448"
"Cornelius","www.facebook.com/ungerfarmsinc","Unger Farms","or","34880 SW Johnson School Rd","baked-goods canned preserved coffee tea crafts woodworking cut-flowers eggs herbs fresh-fruits fresh-vegetables honey nuts prepared foods soap body-care wine spirits beer hard-cider","www.twitter.com/ungers","farm","www.ungerfarms.com","-123.043548","45.472839","97113"
"Corvallis","https://www.facebook.com/urbanfarmcollegehill/","Urban Farm","or","32nd and Harrison","eggs fresh-vegetables","","farm","","-123.278285","44.569949","97330"
"Langlois","","Valley Flora","or","94938 Floras Creek Road","bedding plants canned preserved cut-flowers eggs herbs fresh-fruits fresh-vegetables","","farm","http://www.valleyflorafarm.com/","-124.425022","42.912908","97450"
"Portland","","16th Ave Farmers Market","or","NE 16th Ave & Broadway","baked goods crafts flowers vegetables honey jams plants prepared soap trees coffee fruits wild","","market","http://16thavefarmersmarket.com","-122.649446","45.534498","97212"
"Albany","https://www.facebook.com/Corvallis.Albany.Farmers.Markets","Albany Farmers' Market","or","4th Avenue & Ellsworth Street","organic baked goods cheese flowers eggs herbs vegetables honey jams meat nuts plants poultry prepared soap trees wine beans fruits grains juices mushrooms pet food wild","https://twitter.com/RebeccaCAFM","market","http://www.locallygrown.org","-123.1061","44.6349","97321"
"Aloha","https://www.facebook.com/Aloha-Community-Farmers-Market-913645008655691/","Aloha Community Farmers' Market","or","17675 SW Farmington Rd and SW Kinnaman Rd","baked goods crafts herbs vegetables nuts plants prepared soap trees coffee beans fruits pet food","@AlohaFarmMarket","market","http://www.alohacommunityfarmersmarket.org","-122.858722","45.480164","97007"
"Astoria","","Astoria Sunday Market","or","12th Street","baked goods crafts flowers eggs herbs vegetables honey jams meat plants poultry prepared soap trees wine fruits","","market","http://www.AstoriaSundayMarket.com","-123.8302951","46.1855090","97103"
"Baker City","https://www.facebook.com/pages/Baker-City-Farmers-Market/106757499355968?ref=hl","Baker City Farmers Market","or","2600 East Street","organic baked goods crafts flowers eggs herbs vegetables honey jams meat nuts plants poultry prepared soap fruits","","market","","-117.8230360","44.7828360","97814"
"Beaverton","https://www.facebook.com/pages/Beaverton-Farmers-Market/157043335073?ref=hl","Beaverton Farmers Market","or","Hall Blvd.","organic baked goods cheese flowers eggs seafood herbs vegetables honey jams meat nuts plants poultry prepared trees wine coffee beans fruits grains juices mushrooms pet food wild","","market","http://www.beavertonfarmersmarket.com","-122.805002","45.484265","97075"
"Beaverton ","https://www.facebook.com/pages/Beaverton-Farmers-Market/157043335073?ref=hl","Beaverton Farmers Market - Wednesday","or","Hall Blvd.","organic baked goods cheese flowers eggs seafood herbs vegetables honey jams meat nuts poultry prepared fruits","","market","http://www.beavertonfarmersmarket.com","-122.805002","45.484265","97075"
"Bend","","Bend Farmers Market","or","Top of Mirror Pond off of Franklin Downtown Bend","","","market","http://www.bendfarmersmarket.com","-121.321","44.06","97075"
"Boring","https://www.facebook.com/pages/Boring-Farmers-Market/223625564346989","Boring Farmer's Market","or"," 28151 SE Hwy 212","","","market","http://www.boringfarmersmarket.com","-122.373674","45.431356","97009"
"Brookings ","https://www.facebook.com/Brookingsharborfarmersmarket/","BROOKINGS HARBOR FARMERS MARKET","or","15786 HWY 101 SOUTH","organic baked goods cheese crafts flowers eggs seafood herbs vegetables honey jams meat nuts plants poultry prepared soap trees wine coffee beans fruits grains mushrooms pet food wild","","market","http://www.101farmersmarket.com/","-124.244963","42.037301","97415"
"Brownsville","","Brownsville Farmers Market","or","Park and Main","organic baked goods crafts flowers eggs vegetables honey jams nuts plants poultry soap fruits grains juices mushrooms wild","","market","http://www.gocfa.org","-122.984640","44.393595","97327"
"Canby","https://www.facebook.com/CanbySaturdayMarket","Canby Saturday Market","or","1st Ave at Holly Street","","","market","http://www.canby.com/canbycbr","-122.6939354","45.2624984","97013"
"Cannon Beach ","Cannon Beach Farmers Market","Cannon Beach Farmers Market","or","163 Gower St.","organic baked goods cheese flowers eggs seafood herbs vegetables honey jams meat nuts poultry prepared wine coffee beans fruits juices mushrooms pet food wild","info@cannon Beach Farmers Market","market","http://Cannon Beach Market.org","-123.9607538","45.8898257","97110"
"Canyonville","https://www.facebook.com/CanyonvilleFarmersMarket","Canyonville Farmer's Market","or","146 Chief Miwaleta Ln","baked goods crafts flowers eggs herbs vegetables honey jams plants prepared soap trees coffee fruits pet food","","market","http://www.CanyonvilleFarmersMarket.org","-123.283313","42.939199","97417"
"Cascade Locks","","Cascade Locks Farmers & Artists market","or","Cascade Locks Mall","","","market","http://www.windancefarmsandart.com","-121.891","45.6698","97220"
"Bonanza","","CCC Farmers Market In Bonanza ","or","Highway 70 between 5th and 6th","","","market","http://www.localharvest.org/ccc-farmers-market-in-bonanza-M56709","-121.408","42.1987","97623"
"Portland","Cedar Mill Farmers market","Cedar Mill Farmers Market","or","Corner Of NW Cornell and Murray Roads","baked goods crafts flowers eggs herbs vegetables honey jams meat nuts plants poultry prepared soap trees coffee beans fruits","","market","http://www.cedarmillfarmersmarket.org","-122.8141034","45.5263877","97229"
"Chiloquin","","Chiloquin Farm & Craft Market","or","Chiloquin parking lot at Chocktoot and 1st Street","","","market","","-121.863","42.5766",""
"Clackamas","","Clackamas Sunnyside Grange Farmers' & Artists' Market","or","13100 SE Sunnyside Rd.","organic","","market","http://www.windancemarkets.com","-122.529130","45.426497","97015"
"Sutherlin","https://www.facebook.com/97479CloverLeafMktpl","Clover Leaf Marketplace","or","100 Clover Leaf Loop","baked goods cheese crafts flowers eggs herbs vegetables honey jams meat plants poultry prepared soap trees coffee fruits juices mushrooms pet food wild","","market","","-123.3422923","43.3872218","97479"
"Colton","","Colton Farmers and Crafters Market ","or","20983 S Hwy 211","","","market","http://www.coltonfarmerscraftersmarket.weebly.com/","-122.382","45.2017","97017"
"Condon","https://www.facebook.com/pages/Condon-Community-Farmers-Market/463077227050262","Condon Community Farmers Market","or","","eggs seafood vegetables plants fruits","","market","http://www.condonchamber.org/CondonCommunityFarmersMarket.htm","-120.184691","45.232559",""
"Coos Bay","https://www.facebook.com/CoosBayFarmersMarket","Coos Bay Farmers Market","or","320 Central Ave., Suite 410","organic baked goods cheese crafts flowers eggs herbs vegetables honey jams meat nuts plants poultry prepared soap trees coffee fruits mushrooms pet food wild","","market","https://coosbaydowntown.org/farmers-market/","-124.215299","43.367982","97420"
"Coquille","","Coquille Farmers Market","or","115 N. Birch St.","","","market","","-124.191","43.1755","97423"
"Corvallis","https://www.facebook.com/Corvallis.Albany.Farmers.Markets","Corvallis Farmers' Market","or","1st & Jackson","organic baked goods cheese flowers eggs seafood herbs vegetables honey jams meat nuts plants poultry prepared soap trees wine beans fruits grains juices mushrooms pet food wild","https://twitter.com/RebeccaCAFM","market","http://www.locallygrown.org","-123.2582494","44.5648128","97330"
"Corvallis","https://www.facebook.com/Corvallis.Indoor.Winter.Market","Corvallis Indoor Winter Market","or","110 SW 53rd St","organic baked goods cheese crafts flowers eggs herbs vegetables honey jams meat nuts plants poultry prepared soap trees fruits grains mushrooms pet food wild","","market","","-123.314881","44.567022","97333"
"Creswell","https://www.facebook.com/CreswellFarmersMkt","Creswell Farmers' Market","or","64 W. Oregon Ave (1st St. and Oregon Ave.)","crafts eggs vegetables honey jams meat plants fruits","","market","http://www.creswellfarmersmarket.wordpress.com","-123.018482","43.918649","97426"
"Damascus","https://www.facebook.com/Damascus-Farmers-Market-230160453775285/","Damascus Farmers Market","or","20100 SE Hwy 212","crafts flowers eggs seafood herbs vegetables honey jams poultry prepared soap trees fruits pet food","","market","http://damascusfarmersmarket.org/home.aspx","-122.4556058","45.4172227","97089"
"Dayville","","Dayville Mercantile","or","207 W. Franklin Ave","","","market","","-119.537","44.4701","97825"
"Dundee","","Dundee Farmers Market","or","Highway 99 and 7th Street","","","market","","-123.015","45.2796","97115"
"Medford","","Eden Valley New Heritage Public Market","or","310 Voorhies Rd","","","market","","-122.845","42.288","97501"
"Estacada","","Estacada Farmers Market","or","664 Wade St","","","market","http://estacadafarmersmarket.org","-122.331858","45.297544","97023"
"Eugene","","Fairmount Neighborhood Farmers' Market","or","","","","market","http://www.fairmountmarket.blogspot.com/","-123.07","44.0389",""
"Fairview","","Fairview Farmers & Artist Market","or","1300 Village St.","organic","","market","http://www.windancemarkets.com","-122.438690","45.531244","97220"
"Selma","","Farmers' Friday Market","or","Selma Community Center","","","market","","-123.613","42.2825","97538"
"Cave Junction","","Farmers' Friday Market","or","101 S. Kerbey","","","market","","-123.648","42.1671",""
"Florence","","Florence Local Organic Farmers Market","or","","","","market","","-124.101","43.9747",""
"Forest Grove","https://www.facebook.com/fgfm1/","Forest Grove Farmers Market","or","Main St. between 21st Street and Pacific Ave.","organic baked goods cheese crafts flowers eggs herbs vegetables honey jams meat nuts plants poultry prepared soap trees wine coffee beans fruits grains juices","","market","http://www.adelantemujeres.org/fg-farmers-market/","-123.112063","45.520623","97116"
"Gladstone ","","Gladstone Summer Farmers Market","or","580 Portland Ave","","","market","http://gladstonefarmersmarket.wordpress.com/","-122.595126","45.380667","97027"
"","https://www.facebook.com/pages/Gorge-Grown-Food-Network/62066472820","Gorge Grown Mobile Farmers' Market","or","","","","market","http://www.gorgegrown.com/project/mobile-market.cfm","","",""
"Grants Pass ","www.facebook.com/grantspassgrowersmarket/","Grants Pass Growers' Market","or","4th St & F St","organic baked goods cheese crafts flowers eggs seafood herbs vegetables honey jams meat nuts plants prepared soap trees wine coffee fruits juices mushrooms wild","","market","http://growersmarket.org","-123.3289830","42.4408321","97526"
"Gresham","Gresham Saturday Market","Gresham Saturday Market at MHCC","or","","baked goods crafts flowers eggs herbs vegetables honey jams plants prepared soap trees wine coffee fruits pet food","twitter.com/gatmarket","market","http://greshamsaturdaymarket.com","-122.397929","45.518722","97030"
"Hines","","Harney County Farmers Market","or","","","","market","","-119.084","43.5611",""
"Hermiston","","Hermiston Farmers Market","or","Hermiston Conference Center Parking Lot","","","market","","-119.289","45.8376","97838"
"Eugene","","Hideaway Farmers Market","or","3377 East Amazon, behind Mazzi's Restaurant","","","market","http://www.localharvest.org/hideaway-farmers-market-M30807","-123.08","44.0202",""
"Hillsboro","Hillsboro Farmers' Market","Hillsboro Farmers' Markets - Downtown Hillsboro","or","Main Street, between 1st St and 3rd St","organic baked goods cheese crafts flowers eggs seafood herbs vegetables honey jams maple meat nuts plants poultry prepared soap trees wine coffee fruits grains juices mushrooms","","market","http://hillsboromarkets.org","-122.987933","45.522635","97124"
"Hillsboro","Hillsboro Farmers' Market","Hillsboro Farmers' Markets - Orenco Station","or","NE Orenco Station Parkway and 61st St","baked goods cheese crafts flowers eggs seafood herbs vegetables honey jams maple meat nuts plants poultry prepared soap trees wine coffee fruits grains juices mushrooms","","market","http://hillsboromarkets.org","-122.917572","45.534526","97124"
"Hillsboro","Hillsboro Farmers' Market","Hillsboro Farmers' Markets - Tuality Hospital","or","Corner of 8th and Baseline","baked goods vegetables prepared soap fruits","","market","http://hillsboromarkets.org","-122.977275","45.519771","97123"
"Hillsboro ","Hillsboro Farmers' Markets","Hillsboro Farmers' Markets - Westside Kaiser Hospital","or","2875 NW Stucki Avenue","baked goods cheese flowers eggs vegetables meat nuts poultry prepared fruits","","market","http://hillsboromarkets.org","-122.877355","45.539835","97124"
"Portland","https://www.Facebook.com/HillsdaleFM","Hillsdale Farmers' Market","or","1405 SW Vermont Street","organic baked goods cheese flowers eggs seafood herbs vegetables honey jams meat nuts plants poultry prepared trees coffee beans fruits grains juices mushrooms wild","https://twitter.com/HillsdaleFM","market","http://www.hillsdalefarmersmarket.com","-122.693689","45.477780","97219"
"Portland","https://www.facebook.com/HollywoodFarmersMarketPDX","Hollywood Farmers Market","or","NE Hancock St. between 44th and 45th Aves","organic baked goods cheese crafts flowers eggs seafood herbs vegetables honey jams meat nuts plants poultry prepared soap trees wine coffee beans fruits grains juices mushrooms wild","https://twitter.com/HFMPortland","market","http://www.hollywoodfarmersmarket.org","-122.618428","45.536650","97213"
"Hood River","https://www.facebook.com/HoodRiverFarmersMarket","Hood River Farmers Market","or","5th Street & Columbia Street","organic baked goods cheese crafts flowers eggs seafood herbs vegetables honey jams meat poultry prepared soap trees wine fruits juices mushrooms pet food wild","","market","http://www.gorgegrown.com","-121.515814","45.710094","OR"
"Independence","","Independence Farmers Market","or","302 Main St.","","","market","","-123.184","44.8511","97351"
"Portland","","Interstate Farmers Market - Lombard location","or","N. Interstate Ave & N. Lombard St.","organic baked goods cheese flowers seafood herbs vegetables honey jams meat nuts plants prepared","","market","http://www.interstatefarmersmarket.com","-122.683","45.5774","97217"
"John Day","","John Day Farmers' Market","or","SW Brent Drive","","","market","","-118.954","44.416","97845"
"Eugene","","King Estate Market Place","or","20 Miles SW of Eugene near Lorane","","","market","http://www.kingestate.com","-121.531","45.6905","97405"
"Klamath Falls","https://www.facebook.com/pages/Klamath-Falls-Farmers-Market/399618840083261","Klamath Falls Farmers Market Assoc. Inc.","or","100 block S 9th st.","organic baked goods cheese crafts flowers eggs herbs vegetables honey jams meat plants poultry prepared soap trees coffee beans fruits grains juices mushrooms wild","","market","http://www.klamathfallsfarmersmarket.org","-121.779885","42.226484","97601"
"La Grande","https://www.facebook.com/pages/La-Grande-Farmers-Market/285515517634","La Grande Farmers' Market","or","Adams Ave and 4th Street","organic baked goods cheese crafts flowers eggs seafood herbs vegetables honey jams meat plants poultry prepared soap wine coffee fruits grains mushrooms wild","","market","http://www.lagrandefarmersmarket.org","-118.096306","45.329908","97850"
"Lake Oswego","https://www.facebook.com/pages/Lake-Oswego-Farmers-Market/","Lake Oswego Farmers' Market","or","Millennium Plaza Park, 200 First Street","organic baked goods cheese crafts flowers eggs seafood herbs vegetables honey jams meat nuts plants poultry prepared soap trees wine coffee fruits grains juices mushrooms wild","","market","","-122.699154","45.412305","97034"
"Eugene","https://www.facebook.com/lanecounty.farmersmarket.3?fref=ts","Lane County Farmers Holiday Market","or","Lane Event Center (Fairgrounds)","organic baked goods cheese crafts flowers seafood herbs vegetables honey jams meat nuts soap wine coffee beans fruits grains juices mushrooms tofu wild","https://twitter.com/farmmarketeers","market","http://www.lanecountyfarmersmarket.org/","-123.116207","44.056748","97401"
"Eugene ","https://www.facebook.com/lanecounty.farmersmarket.3?fref=ts","Lane County Farmers Market","or","8th Ave & Oak St.","organic baked goods cheese flowers eggs seafood herbs vegetables honey jams meat nuts plants poultry prepared soap trees wine coffee beans fruits grains juices mushrooms wild","https://twitter.com/farmmarketeers","market","http://www.lanecountyfarmersmarket.org/","-123.091540","44.050826","97401"
"Lebanon","http://www.facebook.com/pages/Lebanon-Downtown-Farmers-Market/281372887093?fref=ts","Lebanon Downtown Farmers' Market","or","Main and Grant Streets","organic baked goods cheese crafts flowers eggs seafood herbs vegetables honey meat plants poultry prepared soap trees wine fruits","","market","http://www.lebanondowntownfarmersmarket.org","-122.9070482","44.5384263","97355"
"Lincoln City","https://www.facebook.com/lincolncityfarmersmarket","Lincoln City Farmers and Crafters Market","or","540 NE Hwy 101","organic baked goods crafts flowers eggs herbs vegetables honey jams meat nuts plants poultry prepared soap trees fruits","","market","http://www.lincolncityfarmersmarket.org","-124.017440","44.964669","97367"
"Newport","https://www.facebook.com/lcffarmersmarket","Lincoln County Fairgrounds Farmers Market","or","633 NE 3rd Street","organic baked goods crafts eggs herbs vegetables honey jams meat plants poultry prepared soap trees wine fruits","","market","http://www.lcffarmersmarket.org","-124.044768","44.638200","07365"
"Portland","https://www.facebook.com/lloydfarmersmarket/","Lloyd Farmers Market","or","NE Holladay St. between 7th and 9th","organic baked goods flowers eggs herbs vegetables honey jams meat nuts poultry prepared soap wine coffee fruits juices mushrooms wild","https://twitter.com/lloydmkt","market","http://www.lloydfarmersmarket.com","-122.6573311","45.5296819",""
"Roseburg","www.facebook.com/pages/Lookingglass-Grange-Farm-Market/165152183533569","Lookingglass Grange Farmers Market","or","7426 Lookingglass Road","organic baked goods cheese crafts flowers eggs herbs vegetables honey jams meat plants poultry prepared soap trees fruits","","market","","-123.485634","43.177386","97470"
"Wallowa","","Lower Valley Farmers Market","or","301 E 1st Street","crafts eggs herbs vegetables honey jams meat nuts poultry soap trees fruits mushrooms wild","","market","https://www.facebook.com/LowerValleyFarmersMarket/timeline","-117.5265110","45.5704440","97885"
"Madras ","Madras Saturday Market","Madras Saturday Market Holiday Market","or","7th Street, between C and B Streets","baked goods crafts eggs honey jams prepared soap coffee","","market","http://www.madrassaturdaymarket.com","-121.127162","44.638418","97741"
"Manzanita","https://www.facebook.com/manzanitafarmersmarket/","Manzanita Farmers Market","or","175 5th Street South","baked goods cheese crafts flowers eggs seafood herbs vegetables honey jams meat nuts poultry prepared soap wine coffee fruits juices mushrooms wild","","market","http://www.manzanitafarmersmarket.com","-123.932820","45.718515","97130"
"Springfield","https://www.facebook.com/Marketplace.Sprout","Marketplace@Sprout!","or","4th St. and A St.","organic baked goods cheese crafts flowers eggs seafood herbs vegetables honey jams meat nuts plants poultry prepared soap trees wine fruits","","market","http://www.sproutfoodhub.org","-123.0207983","44.0470594","97477"
"Maupin","","Maupin Farmers Market","or","500 Deschutes Ave","organic baked goods vegetables jams meat","","market","","-121.082","45.175","97037"
"McMinnville","","McMinnville Farmers Market","or","Cowls Street, Between 2nd & 3rd","organic baked goods cheese crafts flowers eggs herbs vegetables honey jams meat nursery nuts plants poultry prepared soap trees wine","","market","http://www.downtownmcminnville.com/mcminnville-farmers'-market","-123.197","45.2136","97128"
"McMinnville","","McMinnville Public Market","or","845 NE 5th St.","","","market","http://www.mcminnvillepublicmarket.com","-123.19","45.2119","97129"
"Hood River","https://www.facebook.com/mercadodelvalle/","Mercado del Valle","or","Atkinson Drive","baked goods eggs vegetables plants prepared fruits","","market","http://www.gorgegrown.org","-121.541646","45.625517","97031"
"Milton-Freewater","","Milton-Freewater Farmers Market","or","1221 South Main Street","baked goods cheese crafts herbs vegetables honey jams maple meat nuts plants prepared soap","","market","http://www.mffarmersmarket.com","-118.382","45.9244","97862"
"Milwaukie","https://www.facebook.com/pages/Milwaukie-Sunday-Farmers-Market/107131262675244","Milwaukie Sunday Farmers Market","or","SE Harrison St. & Main St.","","","market","http://www.milwaukiefarmersmarket.com","-122.642","45.4451","97222"
"Portland","https://www.facebook.com/MontavillaMarket","Montavilla Farmers Market","or","7700 SE Stark Street","organic baked goods cheese flowers eggs seafood herbs vegetables honey jams maple meat nuts plants poultry prepared trees wine coffee beans fruits grains juices mushrooms tofu wild","https://twitter.com/montavillamkt","market","http://www.montavillamarket.org","-122.584211","45.518932","97215"
"Portland","https://www.facebook.com/morelandfarmersmarket/","Moreland Farmers Market","or","1400 SE Bybee Blvd","organic baked goods flowers eggs seafood herbs vegetables honey jams meat nuts poultry prepared soap wine coffee fruits mushrooms pet food","","market","http://www.morelandfarmersmarket.org","-122.651387","45.473940","97202"
"Mosier","https://www.facebook.com/Mosier-Farmers-Market-136907079719940/","Mosier Farmers Market","or","1202 First Street","organic crafts eggs seafood herbs vegetables honey jams prepared fruits mushrooms wild","","market","","-121.3996920","45.6832769","97040"
"Neskowin","https://www.facebook.com/NeskowinFarmersMarket/","Neskowin Farmers Market","or","Neskowin Beach Wayside ","baked goods cheese crafts flowers eggs herbs vegetables jams meat prepared soap coffee fruits","","market","http://neskowinfarmersmarket.com","-123.982222","45.103228","97149"
"Portland","https://www.facebook.com/Village-Gardens-Janus-Youth-Programs-131053303584040/","New Columbia Farmers Market","or","4632 N Trenton St","organic crafts flowers vegetables jams plants fruits juices","","market","http://www.villagegardens.org/farmers-market/","-122.715627","45.588575","97203"
"Newberg ","https://www.facebook.com/newbergdowntownpage","Newberg Farmers' Market ","or","First St and Howard, next to the Post Office and across from City Hall","","","market","http://www.newbergdowntown.org/newberg-farmers-market/","-122.975","45.3003","97132"
"Newport","https://www.facebook.com/pages/Newport-Farmers-Market/117682191581005","Newport Farmer's Market","or","Hwy 101 and Angle St.","organic baked goods cheese crafts flowers eggs herbs vegetables honey jams meat nuts plants poultry prepared soap trees wine coffee fruits grains juices mushrooms pet food tofu wild","","market","http://www.newportfarmersmarket.org","-124.0543361","44.6344577","97365"
"North Plains","https://www.facebook.com/NorthPlainsFarmersMarket?ref=br_tf","North Plains Farmers' Market","or","NW Commercial Street","organic baked goods crafts flowers eggs seafood herbs vegetables honey jams nuts plants prepared soap trees wine coffee fruits grains wild","https://twitter.com/NPFMarket","market","http://www.northplainsfarmersmarket.org","-123.001725","45.597870","97133"
"Drain","","North Umpqua Farmers and Artisans Regional Marketplace (NUFARM)","or","110 East B. Avenue","","","market","","-123.313","43.6627",""
"Oakridge","https://www.facebook.com/OakridgeFarmersMarket","Oakridge Oregon Farmers Market ","or","76453 Willow Street","","","market","http://www.localharvest.org/oakridge-oregon-farmers-market-M59339","-122.465","43.7476","97463"
"Portland","https://www.facebook.com/ohsufarmersmarket","OHSU Farmers Market","or","Mailcode L338, 3181 SW Sam Jackson Park Rd","baked goods crafts flowers eggs seafood herbs vegetables honey jams meat nuts plants poultry prepared soap trees coffee fruits juices","https://twitter.com/OHSUfarmmarket","market","http://www.ohsu.edu/farmersmarket","-122.687706","45.499865","97239"
"Bandon, Oregon","https://www.facebook.com/oldtownmarketplacebandon?ref=hl","Old Town Marketplace Bandon","or","250 First St. SW","organic baked goods cheese crafts eggs seafood herbs vegetables honey jams meat nuts plants prepared soap trees wine coffee fruits juices pet food wild","","market","http://www.portofbandon.com/general/page/old-town-marketplace-farmers-market","-124.416226","43.120278","97411"
"Oregon City","https://www.facebook.com/ocfarmersmarket/","Oregon City Year-Round Farmers Market","or","2051, Kaen Rd, off Beavercreek Rd.","baked goods cheese crafts flowers eggs seafood vegetables honey jams meat nuts plants poultry prepared soap trees wine coffee beans fruits juices mushrooms wild","","market","http://www.orcityfarmersmarket.com","-122.597822","45.333082","97045"
"Pacific City","https://www.facebook.com/PacificCityFarmersMarket?ref=hl","Pacific City Farmers Market","or","6200 Camp St","organic baked goods crafts flowers eggs seafood herbs vegetables honey jams meat plants poultry prepared soap trees coffee fruits wild","","market","","-123.9607490","45.2050760","97135"
"Portland","https://www.facebook.com/pages/Parkrose-Farmers-Market/272160405895?ref=hl","Parkrose Farmers Market - Saturday","or","12505 NE Halsey","organic baked goods cheese crafts flowers eggs seafood herbs vegetables honey jams plants poultry prepared soap wine coffee fruits juices mushrooms pet food wild","","market","http://www.parkrosefarmersmarket.org","-122.534700","45.534003","97230"
"Portland","https://www.facebook.com/pages/Parkrose-Farmers-Market/272160405895?ref=hl","Parkrose Farmers Market - Wednesday","or","12505 NE Halsey Street","organic baked goods cheese crafts flowers eggs seafood herbs vegetables honey jams meat plants poultry prepared soap trees wine coffee fruits juices mushrooms pet food wild","","market","http://www.Parkrosefarmersmarket.org","-122.534755","45.533755","97230"
"Pendleton","","Pendleton Farmers Market","or","400 block, S. Main","","","market","http://www.pendletonfarmersmarket.net","-118.781","45.6686","97801"
"Portland","https://www.facebook.com/PeoplesFoodCoopPDX","People's Farmers Market","or","3029 se 21st Avenue","organic baked goods cheese flowers eggs herbs vegetables honey jams nuts prepared soap wine fruits grains mushrooms tofu wild","https://twitter.com/peoplescooppdx","market","","-122.644825","45.500722","97202"
"Pilot Rock","","Pilot Rock Farmers Market","or","Main Street","","","market","","-118.834","45.4828",""
"Dallas","https://www.facebook.com/bountymarket","Polk County Bounty Market - Dallas ","or","182 SW Academy Street","baked goods cheese crafts flowers eggs herbs vegetables honey jams plants poultry prepared soap trees beans fruits juices mushrooms","","market","","-123.316846","44.924361","97338"
"Portland","https://www.facebook.com/portlandfarmersmarket/","Portland Farmers Market - Kenton ","or","N Denver and McClellan","organic flowers eggs herbs vegetables honey jams meat plants wine beans fruits","https://twitter.com/portlandfarmers?lang=en","market","https://www.portlandfarmersmarket.org/","-122.6868880","45.5831060","97217"
"Portland","https://www.facebook.com/portlandfarmersmarket/","Portland Farmers Market - King","or","NE 7th and Wygant","organic baked goods cheese flowers eggs seafood herbs vegetables honey jams meat nuts plants poultry prepared trees wine coffee fruits mushrooms wild","https://twitter.com/portlandfarmers?lang=en","market","https://www.portlandfarmersmarket.org/","-122.6585746","45.5573069","97211"
"Portland","https://www.facebook.com/portlandfarmersmarket/","Portland Farmers Market - Lents International","or","SE 92nd and Reedway","baked goods flowers eggs seafood herbs vegetables honey jams meat prepared wine coffee fruits","https://twitter.com/portlandfarmers?lang=en","market","https://www.portlandfarmersmarket.org/","-122.5685894","45.4813183","97266"
"Portland","https://www.facebook.com/portlandfarmersmarket/","Portland Farmers Market - Northwest","or","NW 19th and Everett","organic baked goods flowers eggs vegetables honey jams meat wine fruits","https://twitter.com/portlandfarmers?lang=en","market","https://www.portlandfarmersmarket.org/","-122.6903025","45.5249448","97209"
"Portland ","https://www.facebook.com/portlandfarmersmarket/","Portland Farmers Market - Pioneer Courthouse Square","or","SW 6th and Morrison","organic baked goods flowers vegetables honey jams prepared wine fruits","https://twitter.com/portlandfarmers?lang=en","market","https://www.portlandfarmersmarket.org/","-122.6786220","45.5191021","97205"
"Portland ","https://www.facebook.com/portlandfarmersmarket/","Portland Farmers Market - Portland State University","or","SW Park and Montgomery","organic baked goods cheese flowers eggs seafood herbs vegetables honey jams meat nuts poultry prepared soap trees wine coffee beans fruits grains juices mushrooms tofu wild","https://twitter.com/portlandfarmers?lang=en","market","https://www.portlandfarmersmarket.org/","-122.6850889","45.5124099","97201"
"Portland ","https://www.facebook.com/portlandfarmersmarket/","Portland Farmers Market - Shemanski Park","or","SW Park and Main","organic baked goods cheese flowers seafood herbs vegetables honey jams meat nuts plants prepared wine coffee beans fruits mushrooms wild","https://twitter.com/portlandfarmers?lang=en","market","https://www.portlandfarmersmarket.org/","-122.6825474","45.5170877","97205"
"Prineville","https://www.facebook.com/pages/Prineville-Farmers-Market/123633747675731","Prineville Farmers' Market","or","Third and Elm Street","baked goods cheese flowers eggs herbs vegetables honey meat plants poultry prepared soap fruits","","market","","-120.8422335","44.3029189","97754"
"rainer","","Rainier Marina Market","or","115 East ""A"" Street","","","market","http://www.rainier97048.org","-122.416013","45.546734",""
"Redmond","","Redmond Farmers Market","or","437 SW 9th Street","","","market","","-121.182","44.3526","97756"
"Astoria ","https://www.facebook.com/pages/North-Coast-Food-Web/198933090223194","River People Farmers Market","or","12th Street and Exchange Street","organic baked goods flowers eggs seafood herbs vegetables honey jams meat nuts plants poultry prepared trees fruits","","market","http://www.northcoastfoodweb.org","-123.8302194","46.1876420","97103"
"Rogue RIver","","Rogue River SUnday Market","or","110 Pine Street","organic baked goods crafts flowers eggs herbs vegetables honey jams plants prepared soap trees fruits","","market","http://www.rrsundaymarket.com","-123.169731","42.434789","97537"
"Ashland","https://www.facebook.com/rvgrowersmarket/","Rogue Valley Growers & Crafters Market","or","1492 East Main","organic cheese crafts flowers eggs seafood herbs vegetables honey jams meat nuts plants poultry prepared soap trees coffee fruits grains juices mushrooms pet food tofu wild","","market","http://www.rvgrowersmarket.com","-122.6905","42.1949","97520"
"Medford","https://www.facebook.com/rvgrowersmarket/","Rogue Valley Growers & Crafters Market","or","99 Hawthorne St","organic baked goods cheese crafts flowers eggs seafood herbs vegetables honey jams meat nuts plants poultry prepared soap trees wine coffee fruits grains juices mushrooms pet food tofu wild","","market","http://www.rvgrowersmarket.com","-122.854244","42.336896","97501"
"Ashland","https://www.facebook.com/rvgrowersmarket","Rogue Valley Growers & Crafters Market","or","Oak & N Main","organic baked goods cheese crafts flowers eggs seafood herbs vegetables honey jams nuts plants poultry soap trees wine fruits juices wild","https://twitter.com/rvgrowersmarket","market","http://www.rvgrowersmarket.com","-122.700426","42.192172","97520"
"Salem","","Salem Public Market","or","1240 Rural Ave SE","organic baked goods cheese crafts flowers eggs seafood herbs vegetables honey jams meat nursery nuts plants poultry prepared soap trees","","market","http://www.salempublicmarket.com","-123.0299990","44.9208960","97302"
"Salem","https://www.facebook.com/SalemSaturdayMarketOR","Salem Saturday Market","or","Summer & Marion Street (block)","organic baked goods cheese crafts flowers eggs seafood herbs vegetables honey jams meat plants poultry prepared soap trees wine coffee fruits grains juices mushrooms pet food wild","","market","http://www.salemsaturdaymarket.com","-123.028992","44.943064","97309"
"Salem","https://www.facebook.com/SalemSaturdayMarketOR?ref=hl","Salem Saturday Market - Holiday Market","or","Oregon State Fairgrounds","organic baked goods cheese crafts honey jams meat nuts poultry prepared soap wine coffee grains juices pet food","","market","http://www.salemsaturdaymarket.com","-123.010552","44.959011","97309"
"Salem ","https://www.facebook.com/SalemSaturdayMarketOR","Salem Saturday Market - Monday Hospital Market","or","880 Oak Street","organic baked goods cheese flowers vegetables honey jams meat prepared coffee fruits grains","","market","http://www.salemsaturdaymarket.com","-123.033914","44.933153","97309"
"Salem","https://www.facebook.com/SalemSaturdayMarketOR","Salem Saturday Market - Wednesday Farmers Market","or","Chemeketa Street - between Liberty & High Streets","organic baked goods crafts flowers eggs herbs vegetables honey meat plants prepared soap coffee fruits","","market","http://www.salemsaturdaymarket.com","-123.036886","44.942000","97309"
"Florence","","Salmonberry Naturals Organic Farmers Market","or","Highway 126 and Quince Street","","","market","","-124.101","43.9746","97439"
"Ontario","Facebook.com/OntarioSaturdayMarket","Saturday Market","or","Oregon and SW 1st Ave.","baked goods crafts flowers eggs herbs vegetables honey jams meat plants soap trees coffee fruits","","market","","-116.963516","44.025666","97914"
"Lakeview","","Saturday Market of Lake County","or","Town parking lot at North E & 2nd Streets","","","market","","-120.345","42.1911",""
"Scappoose","https://www.facebook.com/pages/Scappoose-Farmers-Market/101498953227218?ref=hl","Scappoose Community Cub Farmers Market","or","Off Highway 30, on 2nd Street near E. Columbia Avenue","organic baked goods crafts flowers eggs herbs vegetables honey jams plants prepared soap trees fruits pet food wild","","market","http://www.scappoosefarmermarket.com","-122.8768","45.75723","97056"
"Seaside","https://www.facebook.com/SeasideORFarmersMarket/","Seaside Farmer's Marekt","or","Hwy 101 & Broadway","organic cheese crafts flowers eggs herbs vegetables honey jams nuts plants poultry prepared soap trees wine coffee fruits mushrooms wild","","market","http://www.seasidemarket.org","-123.920084","45.993302","97138"
"Moro","https://www.facebook.com/shermancountyfarmersmarket?ref=br_tf","Sherman County Farmers Market","or","Hwy 97","herbs vegetables soap fruits mushrooms","","market","","-120.731598","45.483229","97039"
"Moro ","https://www.facebook.com/shermancountyfarmersmarket","Sherman County Farmers Market (Indoor)","or","city park","","","market","http://www.gorgegrown.com/resource/sherman-county-farmers-market.cfm","-120.731671","45.482524",""
"Sherwood","www.facebook.com/Sherwood-Saturday-Market","Sherwood Saturday Market","or","22341 SW Pine St.","crafts flowers vegetables honey jams plants prepared soap fruits","","market","http://sherwoodmarket.blogspot.com","-122.839625","45.356332","97140"
"Siletz","https://www.facebook.com/pages/Siletz-Valley-Farmers-Market/139405816252841","Siletz Valley Farmers Market","or","162 S. Gaither St.","baked goods crafts flowers eggs herbs vegetables jams meat plants poultry soap fruits wild","","market","","-123.917872","44.722480","97380"
"Silverton","","Silverton Farmers Market","or","Corner of Main and Fiske","baked goods crafts flowers herbs vegetables jams meat nuts plants prepared soap","","market","http://www.silvertonfarmersmarket.org","-122.784","45.0046","97381"
"Silverton","","Silverton Market","or","201 Division St NE","organic baked goods cheese crafts flowers seafood herbs vegetables honey jams meat nuts plants prepared soap","","market","http://www.silvertonmarket.com","-122.762","44.9858","97381"
"Cottage Grove ","https://www.facebook.com/FarmersonMain/","South Valley Farmers Market","or","7th & Main St.","organic baked goods flowers eggs herbs vegetables honey soap beans fruits juices wild","","market","","-123.0609659","43.7972757","97434"
"Eugene","Spencer Creek Community Growers Market","Spencer Creek Community Growers' Market","or","86013 Lorane Hwy.","organic baked goods crafts flowers eggs herbs vegetables honey jams meat nuts plants prepared trees wine coffee fruits grains","","market","http://www.spencercreekmarket.org/market","-123.153402","43.995670","97405"
"Chiloquin","","Sprague River Farmers Market","or","","","","market","","-121.516","42.4814",""
"Portland","https://www.facebook.com/stjohnsfarmersmarket/","St. Johns Farmers Market","or","N.Lombard and N.Philidelphia","organic baked goods cheese crafts flowers eggs seafood herbs vegetables honey jams meat nuts poultry prepared wine coffee beans fruits grains mushrooms tofu","https://twitter.com/pdxsjfm","market","http://www.stjohnsopportunity.org/","-122.7544853","45.5901096","97203"
"Stayton","","Stayton Market","or","400 West Virginia Street","organic baked goods cheese crafts flowers seafood herbs vegetables honey jams meat nuts plants prepared soap","","market","http://www.staytonmarket.com","-122.798","44.8","97383"
"Sutherlin","https://www.facebook.com/SutherlinFarmersMarket","Sutherlin Farmers Market","or","215 W. Central Avenue","crafts eggs seafood herbs jams plants soap fruits mushrooms pet food","","market","","-123.315289","43.389888","97479"
"Sweet Home ","sweet home farmers market","Sweet Home Farmers Market","or","corner of 12th/Kalmia St.","organic meat poultry wine","","market","http://ww.sweethomefarmersmarket.org","-122.7296064","44.3960920","97386"
"Talent","https://www.facebook.com/pages/Talent-Evening-Market/120405628041436","Talent Evening Market","or","110 E Main St","organic flowers eggs seafood herbs vegetables plants prepared soap trees fruits","","market","http://www.talenteveningmarket.org","-122.789340","42.243928","97540"
"The Dalles","https://www.facebook.com/pages/The-Dalles-Farmers-Market/140134815736","The Dalles Farmers' Market","or","5th & Union Street","organic baked goods cheese crafts flowers eggs herbs vegetables honey jams meat nuts plants prepared soap trees fruits juices","","market","http://www.thedallesfarmersmarket.com","-121.187071","45.599781","97058"
"Wilsonville","https://www.facebook.com/thursdaymarket?sk=info","Thursday Market at the Ville","or","cle West, Wilsonville, OR 97070, Wilsonville, OR 97070","","","market","","-122.795","45.3124","97070"
"Tigard ","https://www.facebook.com/TigardBullMountainFarmersMarket/info","Tigard Bull Mountain Farmers Market","or","14389 SW Pacific Hwy","","","market","https://sites.google.com/a/tbmfm.org/home/contact","-122.792539","45.414880",""
"Tigard ","https://www.facebook.com/tigardfarmersmarket","Tigard Farmers Market","or","Burnham Street at Main Street","baked goods crafts flowers eggs vegetables honey jams meat nuts poultry prepared soap wine fruits mushrooms","https://twitter.com/Tigardfarmers","market","http://www.tigardfarmersmarket.org","-122.772142","45.429956",""
"Tillamook","https://www.facebook.com/tillamookfarmersmarket ","Tillamook Farmers' Market","or","2nd and Laurel Ave.","baked goods crafts flowers eggs herbs vegetables honey jams nuts plants prepared soap trees wine coffee fruits mushrooms pet food wild","","market","http://www.tillamookfarmersmarket.com","-123.8420719","45.4570544","97141"
"Toledo ","https://www.facebook.com/pages/Toledo-Street-Market/353152561418781","Toledo Street Market","or","Main street","baked goods cheese crafts flowers eggs herbs vegetables honey jams nuts plants prepared trees coffee fruits","","market","http://www.toledostmarketoregon.com","-123.937310","44.621813","97391"
"Troutdale","","Troutdale Farmers and Artists Market","or","551 E.Columbia River Highway","organic","","market","http://www.windancemarkets.com","-122.385279","45.540557","97060"
"Tualatin","https://www.facebook.com/TualatinFarmersMarket","Tualatin Farmers Market","or"," 8325 SW Nyberg St, Tualatin, OR  97062","baked goods flowers eggs seafood herbs vegetables honey jams meat plants prepared soap trees wine fruits","https://twitter.com/tualatinfarmers","market","http://www.tualatinfarmersmarket.com","-122.760415","45.382168","97062"
"Christmas Valley","https://www.facebook.com/pages/Tumbleweed-Farmers-Crafters-Market/248012928568687?ref=ts&fref=ts","Tumbleweed Farmers' & Crafters' Market","or","At Flowerree Memorial Park","crafts eggs herbs vegetables jams plants soap fruits","","market","","-120.688492","43.238036","97641"
"Umatilla","","Umatilla Farmers Market","or","306 6th Street","baked goods crafts herbs vegetables honey jams plants prepared","","market","http://www.umatillafarmersmarket.com","-119.348","45.9165","97882"
"Roseburg","https://www.facebook.com/umpquavalleyfarmersmarket","Umpqua Valley Farmers Market","or","2082 Diamond Lake Blvd.","organic baked goods cheese crafts flowers eggs seafood herbs vegetables honey jams meat plants poultry prepared soap trees fruits","","market","http://www.uvfarmersmarket.com","-123.3325500","43.2136970","97470"
"Vale","","Vale Farmers Market","or","Main & A Street","","","market","","-117.24","43.9819",""
"Vernonia","https://www.facebook.com/pages/Vernonia-Open-Air-Market/206139596070574","Vernonia Open Air Market","or","Adams Ave","baked goods crafts flowers eggs herbs vegetables honey jams plants prepared soap trees coffee beans fruits juices wild","","market","","-123.192809","45.858472","97064"
"Wilsonville","","Villebois Sunday Market","or","11422 SW Barber St.","","","market","http://www.villeboissundaymarket.com","-122.795","45.311","97070"
"Joseph","https://www.facebook.com/WallowaCountyFarmersMarket","Wallowa County Farmers Market","or","Main and Joseph Streets","baked goods crafts flowers eggs herbs vegetables honey jams meat plants poultry prepared soap wine fruits","","market","http://www.wallowacountyfarmersmarket.com","-117.230226","45.353398","97846"
"Happy Valley","","Wednesday Market Place at the Clackamas Town Center","or","8600 Sunnyside Road","","","market","http://www.windancemarkets.com","-122.569","45.4336","97086"
"Woodburn","","Wellspring Saturday Marketplace","or","1475 Mt. Hood Avenue","","","market","http://www.wellspringsaturdaymarketplace.com","-122.836","45.1523","97071"
"West Linn","https://www.facebook.com/WestLinnFarmersMarket","West Linn Farmers Market","or","1780 Willamette Falls Drive","","","market","http://westlinnfarmersmarket.org/","-122.655707","45.343988","97068"
"West Linn ","https://www.facebook.com/willamettesaturdayfarmersmarket","Willamette Saturday Farmers Market","or","1720 Willamette Falls Dr","","","market","http://www.willamettefarmersmarket.com","-122.657047","45.344391",""
"Clackamas","","Windance Farms Open-Air Market","or","13100 Sunnyside Road","","","market","http://www.windancemarkets.com","-122.528","45.4262","97086"
"Woodburn","","Woodburn Farmers Market","or","390 Andrea Court","","","market","","-122.859","45.1374","97071"
"Portland","https://www.facebook.com/woodlawnneighborhoodfarmersmarket/","Woodlawn Farmers Market","or","NE Dekum St and Durham Ave","organic baked goods crafts flowers eggs herbs vegetables jams meat nuts plants prepared fruits","","market","http://woodlawnfarmersmarket.org","-122.656968","45.571925","97211"
"Portland","https://www.facebook.com/woodstockmarketpdx/","Woodstock Farmers Market","or","4600 SE Woodstock Blvd","organic baked goods cheese flowers eggs seafood herbs vegetables honey jams meat nuts poultry prepared soap wine coffee fruits juices mushrooms wild","https://twitter.com/woodstockfarmer","market","http://www.woodstockmarketpdx.com","-122.6149508","45.4789791","97206"
"Yachats","www.FaceBook.com/YachatsFarmersMarket","Yachats Farmers Market","or","Hwy 101 and 4th Street","organic baked goods crafts flowers eggs herbs vegetables jams nursery plants poultry prepared soap trees","","market","","-124.1044104","44.3123618","97498"
