"city","facebook","name","state","street","tags","twitter","type","website","x","y","zip"
"Fishers","https://www.facebook.com/AggressivelyFresh","Aggressively Fresh Fishers Market","in","9160 Ford Circle","bedding plants herbs fresh-vegetables grains flour mushrooms nursery-stock soap body-care","","farm","https://aggressivelyfresh.com/","-86.007339","39.973794","46038"
"Amboy ","","Amboy Honey Creek Farms","in","10262 S 800 E","honey","","farm","","-85.9205480","40.6195200","46911"
"Clinton","https://www.facebook.com/ArisFarmAlpacas","Aris Farm Alpacas","in","129 W 1800 S","crafts woodworking soap body-care","","farm","www.ArisFarmAlpacas.com","-87.466855","39.621846","47842"
"North vernon ","","Armand Family Farms","in","9240 n co rd 30 w","eggs fresh-vegetables red-meat non-poultry-meat","","farm","","-85.619821","39.120663","47265"
"Monroe City","","Brads Berry and Peach","in","6066 South State Road 61","fresh-fruits fresh-vegetables honey","","farm","","-87.3339600","38.5897750","47557"
"New Haven","https://www.facebook.com/AdvancedTreeTechnology","Bruick Brothers Produce INC","in","12818 Edgerton Road","","","farm","www.advancedtree.com","-84.9755830","41.0761020","46774"
"New Salisbury","https://www.facebook.com/pages/Bryants-Blueberries/296127074527","Bryant's Blueberries","in","6900 Oak Park Road NE","","","farm","www.bryantsblueberries.com","-86.088252","38.300519","47161"
"Evansville","Facebook.com/budsfarmmarket","Bud's Farm Market","in","3301 S Weinbach Ave","fresh-fruits fresh-vegetables","","farm","budsfarm.com","-87.530205","37.936180","47714"
"Plymouth","www.facebook.com/pages/Childs-Farm/104283862951552","Childs' Farm","in","14118 Peach Road","bedding plants crafts woodworking dry beans eggs herbs fresh-vegetables poultry fowl soap body-care","","farm","www.childsfarm.net","-86.3612930","41.2724336","46563"
"North Vernon","https://www.facebook.com/clarkberryfarm","Clarks Berry Farm","in","8905 West 350 South","fresh-fruits","","farm","","-85.7760690","38.9290890","47265"
"Cloverdale","www.facebook.com/Cliffordfeed","Clifford Feed & Straight From the Farm Market","in","10128 E CR 650 S","bedding plants crafts woodworking herbs fresh-fruits fresh-vegetables red-meat non-poultry-meat soap body-care","","farm","","-86.6671388","39.5658168","46120"
"Lanesville","https://www.facebook.com/DeereFarmsCornMaze","Deere Farms Corn Maze and Pumpkin Patch","in","1565 Saint Johns Church Road NE","baked-goods bedding plants","","farm","www.deerefarms.com","-85.9694093","38.2233474","47136"
"Sunman","https://www.facebook.com/ForkRightFarm","Fork Right Farm","in","8495 E CR 900 N","red-meat non-poultry-meat","","farm","www.forkrightfarm.com","-85.103989","39.203497","47041"
"Sheridan","","Garden of Good","in","206 N 46 W Hamilton Co","fresh-fruits fresh-vegetables","","farm","","-86.240938","40.083722","46069"
"Leopold","https://www.facebook.com/Grasscorp.net/","Grass Corp.","in","15606 Oriole Road","dairy products eggs pet-food poultry fowl red-meat non-poultry-meat soap body-care","","farm","https://grasscorp.net/","-86.522822","38.165649","47551"
"Leesburg","","Green Acres produce, LLC","in","5975e 500n","fresh-vegetables","","farm","","-85.7299150","41.3068150","46538"
"North Manchester","https://www.facebook.com/hawkinsfamilyfarm","J.L. Hawkins Family Farm L.P.","in","10373 N 300 E","eggs honey maple-products poultry fowl red-meat non-poultry-meat","https://www.twitter.com/hawkinsfarm","farm","www.hawkinsfamilyfarm.com","-85.738850","40.977922","46962"
"Bloomfield","https://www.facebook.com/pages/Jones-5-Star-Ranch/623618880995653","Jones 5 Star Ranch & Country Store","in","4879 E ST. RD 58","","","farm","","-86.9375068","39.0269903","47424"
"Vallonia","https://www.facebook.com/kammansfarmmarket","Kamman's Greenhouses & Farm Market","in","4683 S. St. Rd. 135","","https://twitter.com/KammansFarms","farm","www.kammansfarmmarket.com","-86.101735","38.810188","47281"
"Goshen","https://www.facebook.com/pages/Kerchers-Sunrise-Orchards/140862185948471","Kercher's Sunrise Orchards","in","19498 County Road 38","","","farm","","-85.838435","41.549790","46526"
"North Manchester","","Kindys' Organically Grown Produce","in","4874 E 1400 N","cut-flowers eggs herbs fresh-fruits fresh-vegetables","","farm","","-85.705937","41.031582","46962"
"Floyds Knobs","Kruer Family Farm Poultry & Fowl ","Kruer Family Farm Poultry & Fowl ","in","6403 Loi Road","bedding plants eggs herbs fresh-vegetables poultry fowl","","farm","","-85.874050","38.366417","47119"
"New Haven","https://www.facebook.com/kurtzproduce/","Kurtz Produce","in","14212 State Road 37E","fresh-vegetables","","farm","","-84.9603735","41.1697509","46774"
"Plainfield ","","Lazy A Ranch","in","5165 E US Highway 40","cut-flowers eggs herbs fresh-vegetables honey","","farm","","-86.434469","39.691679","46168"
"Bloomington","","Marble Hill Farm","in","8101 S. Victor Pike","eggs red-meat non-poultry-meat","","farm","","-86.603126","39.052321","47403"
"Paoli","","Maria Louisa Vineyard","in","88 E. County Road 1000 S. Providence Church Road","fresh-fruits","","farm","","-86.454737","38.412000","47454"
"South Bend","","Matthys Farm Market","in","57754 Crumstown Hwy","bedding plants fresh-fruits fresh-vegetables honey juices ciders pet-food","","farm","www.matthysfarmmarket.com","-86.3533214","41.6567535","46619"
"Peru","https://www.facebook.com/mcclures.orchard","McClures Orchard/Winery","in","5450 North Us 31","baked-goods canned preserved fresh-fruits fresh-vegetables honey juices ciders maple-products nursery-stock prepared foods wine spirits beer hard-cider","https://twitter.com/mccluresorchard","farm","http://www.mccluresorchard.com/","-86.131347","40.837522","46970"
"Huntington","","Phils UPickIt","in","780N 500W","","","farm","","-85.549335","40.839561","46750"
"Terre haute","","Pounds Farms","in","7000 N Stuthard Street","","","farm","","-87.2668939","39.5511985","47805"
"Sunman","www.facebook.com/pages/Quarteramish-by-Life-Simple-Pleasure/150748645024012?focus_composer=true&ref_type=bookmark","Quarter Amish","in","24611 Van Wedding Road","canned preserved herbs fresh-vegetables soap body-care","","farm","","-85.0582890","39.2256440","47041"
"Michigan City","","Radke Orchards","in","8999 W. 200 N.","canned preserved fresh-fruits fresh-vegetables honey juices ciders nuts","","farm","www.radkeorchards.com","-86.8734209","41.6369600","46360"
"New Carlisle","https://www.facebook.com/rainfieldfarm","Rainfield Farm","in","8531 N 650 E","eggs herbs fresh-fruits fresh-vegetables honey maple-products","","farm","www.rainfieldfarm.com","-86.565215","41.732297","46552"
"Terre Haute","https://www.facebook.com/richmondacres","Richmond Acres","in","10131 S Edison Place","eggs poultry fowl red-meat non-poultry-meat","","farm","www.richmondacres.weebly.com","-87.469610","39.343476","47802"
"Lakeville","Rock Icelandics and Suffolks","Rock Icelandics","in","67625 Mulberry Rd","red-meat non-poultry-meat","","farm","","-86.314816","41.514460","46536"
"Michigan City","","Scherf Farms Dairy & Creamery","in","7059 North County Road 600 West","dairy products","","farm","www.scherffarms.com","-86.816333","41.710214","46360"
"Danville ","www.facebook.com/StamperFarmsAndGardens","Stamper Farms & Gardens","in","1288 S. County Rd. 600 West","canned preserved herbs fresh-fruits fresh-vegetables","","farm","","-86.6328900","39.7418369","46122"
"Dale","https://www.facebook.com/pages/Steckler-Grassfed/123392397746374","Steckler Grassfed LLC","in","21477 North CR 600 East","dairy products eggs red-meat non-poultry-meat","","farm","www.StecklerGrassfed.com","-86.939880","38.198899","47523"
"Bloomington","https://www.facebook.com/SunnyBranchFarm","Sunny Branch Farm","in","5285 E. State Rd. 45","bedding plants canned preserved coffee tea cut-flowers eggs herbs fresh-fruits fresh-vegetables honey nursery-stock soap body-care","https://www.twitter.com/sunnybranchfarm","farm","http://www.sunnybranchfarm.com","-86.468346","39.198114","47408"
"Etna Green ","https://www.facebook.com/pages/The-Berry-Patch/260825307322692","The Berry Patch","in","8171 W 300 N","fresh-fruits","","farm","","-86.0018429","41.2730940","46524"
"Corunna","","The Blueberry Patch","in","0540 County Road 5","","","farm","","-85.170414","41.510023","46730"
"Bloomington","https://www.facebook.com/TheChileWoman","The Chile Woman","in","1704 S. Weimer Rd.","bedding plants canned preserved fresh-vegetables","https://www.twitter.com/TheChileWoman","farm","www.thechilewoman.com","-86.5654450","39.1471130","47403"
"Clay City","","Tucker Farms Produce","in","","canned preserved fresh-fruits fresh-vegetables honey","","farm","","-87.110518","39.304845","47841"
"Goshen","https:///www.facebook.com/pages/Uncle-Pauls-Gardens/136825963012535","Uncle Paul's Gardens","in","404 Olive St.","bedding plants canned preserved dry beans herbs fresh-vegetables","","farm","","-85.824658","41.591367","46528"
"Lafayette","https://www.facebook.com/WeaCreekOrchard?ref=hl","Wea Creek Orchard","in","5618 South County Road 200 East","baked-goods canned preserved fresh-fruits honey maple-products","","farm","www.weacreekorchard.com","-86.861472","40.336633","47909"
"Whiteland","","Whiteland Orchard","in","5559 N Graham Rd","bedding plants canned preserved herbs fresh-fruits fresh-vegetables honey juices ciders prepared foods","","farm","whitelandorchard.com","-86.057032","39.557765","46184"
"Indianapolis","","38th & Meridian Farmer's Market ","in","3808 N Meridian St","baked goods cheese flowers eggs seafood herbs vegetables honey jams maple meat poultry prepared soap coffee fruits juices pet food","","market","","-86.1575468","39.8255595","46208"
"Indianapolis","","52 & Shadeland Avenue Farmers Market","in","5200 N. Shadeland Avenue","","","market","","-86.0476","39.8481","46226"
"Albany","https://www.facebook.com/Albany-IN-Farmers-Market-405175829889200/?modal=admin_todo_tour","Albany IN Farmers Market","in","208 E. State Street","baked goods cheese crafts flowers eggs herbs vegetables honey jams meat plants prepared soap fruits","","market","","-85.235831","40.299191","47320"
"Anderson","","Anderson City Market","in","802 E 5th St","baked goods cheese crafts flowers eggs herbs vegetables honey jams meat nuts poultry prepared soap coffee fruits grains juices pet food","","market","http://www.ppchog.org/acm","-85.6691170","40.1110630","46012"
"Columbus ","http://www.facebook.com/ArtisanFoodworksMKT","Artisan Foodworks Thursday Evening Market","in","9600 North US Hwy 31","organic baked goods cheese crafts flowers eggs herbs vegetables jams maple meat plants poultry prepared soap fruits","https://twitter.com/AFoodworksMKT","market","http://www.artisanfoodworks.com/","-85.953111","39.292351","47201"
"Auburn","","Auburn Farmers Market","in","Courthouse Square","","","market","","-85.0514","41.3606","46706"
"Avon","http://facebook.com/avonfarmersmarket","Avon Farmers Market","in","8190 E US Highway 36","baked goods crafts flowers eggs honey jams meat prepared soap","","market","http://www.avongov.org/category/subcategory.php?categoryid=28","-86.38263","39.765279",""
"bainbridge","bainbridgefarmmarket","Bainbridge Farm Market","in","201 Grant Ave","organic baked goods cheese crafts flowers eggs herbs vegetables honey jams meat plants poultry prepared soap fruits wild","","market","","-86.8176960","39.7622329","46105"
"Morgantown","https://www.facebook.com/beanblossomfarmersmarket","Bean Blossom Farmers' Market","in","135 W St Rd 45","baked goods cheese crafts flowers eggs herbs honey jams maple meat plants prepared soap fruits grains juices mushrooms wild","","market","https://beanblossom.wordpress.com/bean-blossom-farmers-market/","-86.250092","39.266784","46160"
"Bedford","www.facebook.com/BedfordFarmMarket","Bedford Farmers Market","in","924 16th Street","baked goods crafts flowers eggs herbs vegetables honey jams maple meat nuts plants poultry soap trees fruits wild","","market","","-86.483982","38.861548","47421"
"Princeton ","","Berry's Produce & Country Market","in","1415  W. Brumfield Ave.","","","market","","-87.583806","38.357542","47670"
"Bloomfield","https://www.facebook.com/Bloomfield.community.farmers.market/?fref=ts","Bloomfield Community Farmers' Market","in","Greene County Courthouse Square","organic baked goods eggs herbs vegetables honey jams meat prepared soap fruits","","market","https://sites.google.com/view/bloomfieldfarmkt/home","-86.9379330","39.0262269","47424"
"Bloomington, IN ","https://www.facebook.com/pages/Bloomington-Community-Farmers-Market/130635957114110","Bloomington Community Farmers' Market","in","401 N MortonSt","organic baked goods cheese crafts flowers eggs seafood herbs vegetables honey jams maple meat nuts plants poultry prepared soap trees coffee beans fruits grains pet food wild","","market","http://bloomington.in.gov/farmersmarket","-86.5369425","39.1703084","47404"
"Bloomington","https://www.facebook.com/Bloomington-Winter-Farmers-Market-205299875349/","Bloomington Winter Farmers' Market","in","909 E. 2nd St.","organic baked goods cheese crafts flowers eggs seafood herbs vegetables honey jams maple meat poultry prepared soap coffee beans fruits grains mushrooms wild","","market","http://bloomingtonwinterfarmersmarket.org","-86.521677","39.161531","47401"
"Bluffton","https://www.facebook.com/BlufftonIndianaFarmersMarket/","Bluffton Farmers' & Artisans' Market","in","360 N Main St","baked goods crafts flowers eggs vegetables honey jams plants soap fruits","","market","","-85.172111","40.743479","46714"
"Bourbon","https://www.facebook.com/BourbonFarmersMarket","Bourbon Farmers Market","in","201 N Bourbon St","","","market","http://www.bourbonfarmersmarket.com/","-86.1185","41.2966","46504"
"Bremen","Bremen Community Cares","Bremen Farmers Market","in","South Jackson Street and US 6","baked goods flowers eggs herbs vegetables honey jams maple plants soap trees fruits","","market","","-86.147566","41.446463","46506"
"Indianapolis IN","BroadRippleFarmersMarket","Broad Ripple Farmers Market","in","1115 Broad Ripple Avenue","organic baked goods cheese crafts flowers eggs seafood herbs vegetables honey jams maple meat nuts plants poultry prepared coffee fruits juices mushrooms pet food wild","brfarmersmarket","market","http://brfm.org","-86.138451","39.7817086","64220"
"Brookville","https://www.facebook.com/groups/63096253830/","Brookville Farmers Market","in","South Main Street","organic baked goods cheese crafts flowers eggs herbs vegetables honey jams maple plants prepared soap trees beans fruits grains wild","","market","","-85.011762","39.414490","47012"
"Brownsburg","https://www.facebook.com/BrownsburgFarmersMarket/","Brownsburg Farmers Market","in","61 N. Green Street","baked goods cheese crafts flowers herbs vegetables honey jams meat prepared soap trees coffee fruits pet food","https://twitter.com/home","market","https://www.brownsburg.org/category/subcategory.php?categoryid=8","-86.396445","39.844272","46112"
"Brownstown","","Brownstown, Indiana Farmer's Market","in","Walnut St.","","","market","http://www.brownstownchamber.org","-86.053","38.8794","47220"
"Carmel","https://www.facebook.com/carmelfarmersmarket","Carmel Farmers Market","in","5 Center Green","organic baked goods cheese flowers eggs herbs vegetables honey jams maple meat nuts plants poultry prepared wine coffee beans fruits grains juices mushrooms pet food wild","https://twitter.com/carmelfarmmrkt","market","http://www.carmelfarmersmarket.com","-86.13041","39.96943","46032"
"Centerville","","Centerville Farmers Market","in","Behind Schraeder Real Estate","","","market","","-84.9963","39.8195","47330"
"Chesterton","","Chesterton's European Market","in","220 Broadway","organic baked goods cheese crafts flowers herbs vegetables honey jams maple meat nuts plants prepared soap","","market","http://www.chestertonseuropeanmarket.com","-87.0536","41.6108","46304"
"Cicero","","Cicero Farmers Market","in","Port Cicero Shopping Plaza","","","market","","-86.0135","40.1303","46034"
"Tell City","","City Hall Farmer's Market","in","700 Main Street","baked goods flowers honey","","market","","-86.769","37.9517","47586"
"Clermont ","https://www.facebook.com/pages/Clermont-Farmers-Market/368075276576854","Clermont Farmers Market","in","","baked goods crafts eggs vegetables honey fruits","","market","","-86.324648","39.816827","46234"
"Columbus","https://www.facebook.com/pages/Columbus-City-Farmers-Market/347949301937000","Columbus City Farmers Market","in","25th Street at Fair Oaks Mall","organic baked goods crafts flowers eggs herbs vegetables honey jams maple meat plants soap fruits","","market","","-85.900278","39.223468","47201"
"Crawfordsville","https://www.facebook.com/crawfordsvillefarmersmarket","Crawfordsville Farmers Market","in","Pike ST. between Washington St. & Walnut St.","baked goods cheese crafts flowers eggs herbs vegetables honey meat plants prepared soap fruits","","market","","-86.901777","40.040589","47933"
"Indianapolis","https://www.facebook.com/Crooked-Creek-Farmers-Market-443632155833480","Crooked Creek Farmers Market","in","2990 W 71st St","baked goods cheese crafts eggs seafood vegetables honey jams maple meat plants poultry prepared soap trees coffee fruits pet food","","market","http://www.crookedcreekcdc.org/farmers-market","-86.211863","39.885357","46268"
"Crown Point","","Crown Point Farmers Market","in","South Main Street","","","market","http://www.crownpoint.in.gov","-87.3647","41.4155","46307"
"Culver","@culverfarmersmarket","Culver Farmers' Market","in","819 E. Lake Shore Drive","organic baked goods crafts flowers eggs herbs vegetables honey jams maple meat nuts plants poultry prepared soap fruits wild","","market","","-86.419302","41.218494","46511"
"Culver","@culverfarmersmarket","Culver Farmers' Market","in","107 N Main Street","organic baked goods crafts flowers eggs herbs vegetables honey jams maple meat nuts poultry prepared soap fruits","","market","","-86.422907","41.216815","46511"
"Cumberland","https://www.facebook.com/CumberlandINFM/","Cumberland Farmers Market","in","11501 E Washington Street","baked goods cheese crafts flowers eggs herbs vegetables honey jams maple meat nuts plants poultry prepared soap fruits juices mushrooms pet food","","market","https://www.hoosierharvestcouncil.com/farmers-markets/cumberland-farmers-market/","-85.961442","39.775951","46229"
"Columbus","https://www.facebook.com/cumminsfarmersmarket/","Cummins Farmer's Market","in","501 Jackson St","baked goods cheese flowers eggs herbs vegetables jams meat poultry fruits mushrooms pet food wild","","market","https://www.instagram.com/cumminsmidweekmarket/?hl=en","-85.9225170","39.2034779","47201"
"Columbus","https://www.facebook.com/cumminsfarmersmarket/","Cummins Mid-Week Farmer's Market - Columbus Engine Plant (CEP)","in","500 Central Ave, Columbus, IN 47201","flowers vegetables honey meat plants poultry fruits","","market","https://www.instagram.com/cumminsmidweekmarket/?hl=en","-85.9086752","39.2011282","47201"
"Danville","https://www.facebook.com/DCOCFarmmarket/info","Danville Chamber of Commerce Farmer's Market","in","10 S Jefferson St.","baked goods cheese crafts flowers herbs vegetables honey jams maple meat plants poultry prepared soap coffee pet food","","market","http://www.danvillechamber.org","-86.5250684","39.7606302","46122"
"Decatur","","Decatur Farmer's Market","in","231 East Monroe Street","baked goods crafts flowers herbs vegetables honey jams nursery plants prepared soap trees","","market","http://www.decaturindianafarmersmarket.com/default.aspx","-84.92007","40.83229","46733"
"Dillsboro","https://www.facebook.com/Dillsboro-Farmers-Market-1682514815354955/","Dillsboro Farmers Market","in","12926 Bank Street","organic baked goods crafts eggs herbs vegetables honey maple meat plants soap trees fruits juices","","market","","-85.060079","39.018337","47018"
"Evansville,IN","downtown evansvillefarmersmarket.com","DOWNTOWN EVANSVILLE FARMERS MARKET","in","3rd, 4th and Bond Sts.","baked goods crafts flowers herbs vegetables honey jams meat plants poultry prepared soap coffee fruits juices mushrooms wild","","market","http://www.downtownevansvillefarmersmarket.com","-87.586443","37.993544","47708"
"Lawrenceburg","https://www.facebook.com/lawrenceburgfarmersmarket/?ref=br_rs","Downtown Lawrenceburg Farmer's Market","in","US 50 and Park Streets","baked goods crafts flowers eggs herbs vegetables honey jams maple meat plants poultry prepared soap coffee fruits wild","","market","https://www.thinklawrenceburg.com/event/downtown-lawrenceburg-farmers-market-13/","-84.857359","39.095734","47025"
"Madison","https://www.facebook.com/madison.farmers.market/","Downtown Madison Farmers Market","in","Broadway Street near the Broadway Fountain","organic baked goods flowers eggs herbs vegetables honey jams meat nuts poultry prepared soap trees beans fruits mushrooms pet food wild","","market","http://www.farmersmarketmadison.com","-85.382973","38.738245","47250"
"Terre Haute","https://www.facebook.com/Terrehautedowntownfarmersmarket","Downtown Terre Haute Farmers' Market","in","9th & Cherry Streets","organic baked goods cheese crafts flowers eggs herbs vegetables honey jams maple meat nuts plants poultry prepared soap trees coffee beans fruits grains juices mushrooms pet food wild","@farmersmarketTH","market","http://www.downtownterrehautefarmersmarket.com","-87.4044397","39.4675452","47807"
"Elkhart","","Elkhart Community Farmer's Market","in","100 North Elkhart Ave.","baked goods crafts flowers herbs vegetables honey jams maple nuts plants prepared","","market","","-85.9685","41.6901","46516"
"Ellettsville","https://www.facebook.com/","Ellettsville Farmers Market","in","631 W. Edgewood Dr.","organic baked goods cheese flowers eggs vegetables jams meat plants poultry prepared coffee fruits wild","https://twitter.com/area10agency","market","http://area10agency.org","-86.6387800","39.2317870","47429"
"English","","English Farmers Market","in","201 Indiana Ave","baked goods cheese crafts flowers herbs vegetables honey jams plants soap","","market","","-86.4432","38.3511","47118"
"Indianapolis","https://www.facebook.com/FarmtoForkMarketatNormandyFarms","Farm to Fork Farmers Market at Normandy Farms","in","7802 Marsh RD","organic baked goods cheese crafts flowers eggs herbs vegetables honey jams meat plants poultry prepared soap trees fruits","","market","http://www.farmtoforkmarket.org","-86.275251","39.894869","46278"
"Wakarusa","","Farmers Market","in","South Elkhart Street-across from the post office","","","market","","-86.021","41.5359","46573"
"Indianapolis","","Farmers Market at the Barn","in","At the Barn, 1201 E. 38th Street","","","market","","-86.1365","39.8257","46205"
"Greenfield","https://www.facebook.com/FarmersMarketAtTheFairgrounds/","Farmers Market at the Fairgrounds","in","620 N Apple Street","baked goods cheese crafts flowers eggs herbs vegetables honey jams maple meat plants poultry prepared soap fruits mushrooms pet food","theFairgrounds","market","https://www.hoosierharvestcouncil.com/farmers-markets/farmers-market-at-the-fairgrounds/","-85.756090","39.792129","46140"
"Connersville","https://www.facebook.com/FayettecountyfarmersmarketIN/?ref=bookmarks","Fayette County Farmers' Market","in","401 N Central Ave","baked goods cheese crafts flowers eggs herbs vegetables honey jams maple meat plants poultry soap coffee fruits","","market","","-85.139738","39.641132","47331"
"Fishers","","Fishers Farmers Market","in","11601 Municipal Drive","baked goods flowers eggs herbs vegetables honey jams maple meat nursery plants poultry prepared soap","","market","http://www.fishersfarmersmarket.com","-86.01632","39.9575","46038"
"Floyd Knobs","Floyds Knobs Farmers Market ","Floyds Knobs Farmers Market ","in","400 block Laffollette Station","baked goods crafts flowers eggs herbs vegetables honey jams meat plants soap fruits","","market","","-85.906999","38.3190556","47119"
"Lawrence","https://www.facebook.com/FortBenFarmersMarket/","Fort Ben Farmers Market","in","","organic baked goods crafts flowers eggs seafood vegetables honey jams maple meat plants poultry prepared soap coffee fruits mushrooms tofu","","market","http://www.cityoflawrence.org/fortbenfarmersmarket","-85.989646","39.865956",""
"Fortville ","https://www.facebook.com/FortvilleFarmersMarket","Fortville Farmers Market","in","701 South Maple Street","baked goods cheese crafts flowers eggs herbs vegetables honey jams maple meat plants poultry prepared soap fruits juices pet food","@FortvilleMarket","market","http://www.hoosierharvestcouncil.com/farmers-markets/fortville-farmers-market/","-85.846045","39.928813","46040"
"Frankfort","https://www.facebook.com/FrankfortFarmersMarket","Frankfort Farmers Market","in","Courthouse Square","baked goods crafts eggs vegetables honey jams meat plants poultry prepared soap fruits grains","","market","","-86.511368","40.280691","46041"
"Franklin","https://www.facebook.com/DiscoverDowntownFranklin/","Franklin Farmers Market","in","Parking Lot 2 Blocks West of the Courthouse","organic baked goods cheese crafts flowers eggs herbs vegetables jams meat nuts plants poultry prepared soap coffee fruits juices wild","","market","http://discoverdowntownfranklin.com","-86.057680","39.479799","46131"
"Evansville","","Franklin Street Bazaar","in","2000 W Franklin St","baked goods cheese crafts flowers eggs herbs vegetables honey jams maple meat nuts plants prepared soap wine coffee beans fruits juices pet food wild","","market","https://www.fallinlovewithfranklin.org/featuredevents","-87.594789","37.980389","47710"
"Corydon","https://www.facebook.com/corydonfarmersmarket","Fred Cammack Corydon Farmers Market ","in","124 Mulberry St ","baked goods cheese crafts flowers eggs seafood herbs vegetables honey jams maple meat plants poultry prepared soap wine coffee beans fruits grains mushrooms","","market","http://www.corydonfarmersmarket.org/","-86.1237785","38.2097481","47112"
"Fort Wayne","https://www.facebook.com/ftwaynesfm/","Ft. Wayne's Farmers Market - Summer","in","301 E Wayne Street","organic baked goods cheese crafts flowers eggs herbs vegetables honey maple meat plants poultry prepared soap wine coffee fruits grains juices mushrooms pet food wild","https://twitter.com/FtWaynesFM","market","https://ftwaynesfarmersmarket.com/","-85.136155","41.078388","46802"
"FORT WAYNE","https://www.facebook.com/ftwaynesfm/","Ft. Wayne's Farmers Market-Winter Market","in","216 W Douglas Ave","organic baked goods cheese crafts flowers eggs herbs vegetables honey jams maple meat plants poultry prepared soap trees wine coffee fruits grains juices mushrooms pet food","@FtwaynesFM","market","https://ftwaynesfarmersmarket.com/","-85.140411","41.074494","46802"
"Rochester","","Fulton County Farmers Market","in","","organic baked goods crafts flowers eggs herbs vegetables honey jams meat nuts plants prepared trees fruits","","market","","-86.2158331","41.0647645","46975"
"Indianapolis","https://www.facebook.com/GarfieldParkFarmersMarket/","Garfield Park Farmers Market","in","2345 Pagoda Dr","organic baked goods cheese crafts flowers eggs herbs vegetables honey jams maple meat nuts plants poultry prepared soap trees coffee beans fruits grains juices mushrooms pet food tofu wild","","market","","-86.141830","39.731109","46225"
"Gas City","https://m.facebook.com/FarmersMarketsinGasCityIndiana/?ref=bookmarks","Gas City, IN Farmers Market ","in","1028 E Main Street","baked goods flowers eggs vegetables honey jams meat fruits","","market","","-85.598506","40.489812","46933"
"Georgetown","","Georgetown United Methodist Farmers' Market ","in","1618 Canal Lane","","","market","http://www.georgetownchristumc.org/eventcal.aspx","-85.9661","38.297","47122"
"Goshen","https://www.facebook.com/goshenfm","Goshen Farmers Market","in","212 W Washington St","baked goods cheese crafts flowers eggs herbs vegetables honey jams maple meat nuts plants poultry prepared soap coffee fruits juices mushrooms pet food","","market","http://www.goshenfarmersmarket.org/","-85.837360","41.584882","46526"
"Nappanee","","Grace Point Farmers Market","in","1155 North Main St.","","","market","","-85.9979","41.4674","46550"
"granger","https://www.facebook.com/grangerfarmersmarket","Granger Farmers Market","in","12435 Adams Road","organic baked goods cheese crafts flowers eggs herbs vegetables honey maple meat nuts plants poultry soap coffee beans fruits grains juices mushrooms wild","","market","http://www.grangerfarmersmarket.com","-86.1102024","41.7535321","46530"
"Upland","","Grant County Farmer's Market","in"," Main and Railroad St","baked goods eggs vegetables jams maple plants soap fruits","","market","","-85.495520","40.474228","46989"
"Greencastle","https://www.facebook.com/GreencastleFarmersMarket","Greencastle Farmers' Market","in","Indiana Street between Washington and Franklin Streets","baked goods crafts flowers eggs herbs vegetables honey jams meat plants poultry prepared soap trees coffee fruits juices pet food wild","","market","","-86.864547","39.644176","46135"
"Greensburg","https://www.facebook.com/mainstreet.greensburg","Greensburg/Decatur County Farmers' Market","in","150 Courthouse Square","organic baked goods cheese flowers eggs herbs vegetables honey jams maple meat plants poultry soap fruits grains","","market","http://www.mainstreetgreensburg.com/#!farmers-market/c16au","-85.483491","39.336924","47240"
"Greenwood ","","Greenwood Farmers Market","in","525 North Madison Avenue","baked goods crafts flowers eggs herbs vegetables honey jams plants soap coffee fruits pet food","","market","","-86.1117271","39.6220094","46142"
"Fort Wayne","Hardy’s Farm Market","Hardy’s Farm Market","in","4525 Knoll Rd","baked goods crafts flowers eggs vegetables honey jams plants fruits","","market","","-85.2011808","41.0359345","46809"
"Corydon","https://www.facebook.com/harrisoncountyfarmersmarket","Harrison County Farmers' Market","in","1390 Old Hwy 135","baked goods crafts eggs vegetables honey jams meat plants soap fruits","","market","","-86.129079","38.222370","47112"
"Milford","","Harvest with a Heart","in","105 W. Emeline Street","","","market","http://www.harvestwithaheart.org/","-85.8466","41.4087","46542"
"Rushville","www.facebook.com/heartofRushFAM","Heart of Rushville's Farmers & Artisans Market","in","301 S Main St","baked goods crafts flowers eggs herbs vegetables honey jams plants prepared soap fruits","","market","","-85.4451439","39.6053452","46173"
"New Castle","","Henry County Farmers Market","in","100 block of S Main Street","","","market","","-85.355","39.9705","47632"
"Highland","www.facebook.com/highlandparks","Highland Street Market","in","3001 Ridge Road","baked goods cheese crafts herbs vegetables honey prepared soap fruits pet food","","market","http://www.highlandparks.org","-87.456239","41.555176","46322"
"Lafayette","https://www.facebook.com/LafayetteFarmersMarket/","Historic Lafayette Farmers Market","in","5th St between Main and Columbia","organic baked goods crafts flowers eggs herbs vegetables honey jams maple meat nuts plants poultry prepared soap trees coffee beans fruits","","market","http://www.lafayettefarmersmarket.com/","-86.891911","40.418574","47901"
"West Lafayette","https://www.facebook.com/LafayetteFarmersMarket/","Historic Lafayette Farmers Market--Purdue Market","in","Memorial Mall on the Purdue University Campus","baked goods flowers herbs vegetables honey jams maple plants prepared soap coffee fruits","","market","http://www.lafayettefarmersmarket.com/","-86.9143117","40.4257807","47906"
"Newburgh","facebook.com/newburghfarmersmarket","Historic Newburgh Farmers Market","in","1 E Water St","baked goods cheese crafts flowers eggs herbs vegetables honey jams meat plants poultry prepared soap coffee fruits pet food","@marketnewburgh","market","http://newburghfarmersmarket.org","-87.405321","37.944042","47630"
"Fort Wayne","https://www.facebook.com/mainstreetfarmmarket","Historic West Main Street Farmers Market","in","1936 West Main Street","organic baked goods cheese crafts flowers eggs herbs vegetables honey jams maple meat nuts plants prepared soap trees coffee fruits mushrooms pet food wild","https://twitter.com/west_main_st","market","","-85.1679","41.0787","46808"
"Hobart","","Hobart Summer Market on the Lake","in","Festival Park - 111 E. Old Ridge Road","baked goods crafts vegetables honey jams plants prepared soap wine fruits","","market","http://www.cityofhobart.org","-87.2586634","41.5369057","46342"
"Howe","","Howe Farmers Market","in","Town Park","","","market","","-85.379","41.7227","46746"
"Huntingburg","","Huntingburg Farmers Market","in","507 North Main Street","baked goods crafts flowers herbs vegetables honey jams maple meat nursery nuts plants prepared soap trees","","market","http://www.huntingburgchamberofcommerce.org","-86.95513","38.29863","47542"
"Huntingon","https://www.facebook.com/HuntingtonDowntownMarket/","Huntington County Farmers Market","in","Cherry & Market Streets","baked goods cheese eggs vegetables honey jams maple meat nuts plants poultry prepared soap coffee fruits","","market","","-85.488165","40.8292342","46750"
"Huntington","","Huntington WIC Market","in","350 Hauenstein Rd","","","market","","-85.5204","40.8955","46750"
"Indianapolis","","Hurlock Farmers' and Watermen's Market","in","7010 E. Raymond Street","","","market","","-86.0437","39.7415","46239"
"Indianapolis","https://www.facebook.com/IndyWFMkt","Indy Winter Farmers Market","in","1125 E. Brookside Ave., Circle City Industrial Complex","organic baked goods cheese crafts flowers eggs seafood herbs vegetables honey jams maple meat plants poultry prepared soap wine coffee fruits grains juices mushrooms pet food wild","https://twitter.com/IndyWFMkt","market","http://www.indywinterfarmersmarket.org","-86.137726","39.781728","46202"
"Indianapolis","","Irvington Farmers Market ","in","5301 E. St. Clair Street (East Side Indy)","baked goods cheese crafts flowers eggs herbs vegetables honey jams meat plants poultry prepared soap coffee fruits","","market","http://www.irvingtongardenclub.org","-86.0782","39.7776","46219"
"Indianapolis","www.facebook.com/jccindianapolis","JCC Farmers Market","in","6701 Hoover Road","baked goods seafood herbs vegetables honey jams coffee fruits grains","https://twitter.com/JCCIndianapolis","market","http://www.jccindy.org","-86.174004","39.879689","46260"
"Jeffersonville","","Jeffersonville Farmers Market","in","Corner of Chestnut Street and Locust Street","baked goods crafts eggs herbs vegetables honey meat plants prepared soap trees fruits","","market","http://www.jeffmainstreet.org/events/farmers-market","-85.737895","38.272747","47130"
"Jeffersonville","","Jeffersonville Farmers Market at Jeffersonville High School","in","","","","market","","-85.7151","38.3176",""
"North Vernon","","Jennings County Farmers Market","in","North Vernon City Park","","","market","","-85.6389","39.013","47265"
"Kendallville","https://www.facebook.com/#!/kendallvillefarmersmarket?fref=ts","Kendallville Main Street Farmer's Market","in","South Main Street in downtown Kendallville","organic baked goods crafts flowers herbs vegetables honey jams plants prepared fruits","","market","","-85.265532","41.443153","46755"
"Knightstown","","Knightstown Farmers' Market","in","N Washington St","","","market","","-85.5245","39.796","46148"
"Knox","","Knox Farmers Market","in","1601 South Heaton Street","baked goods cheese crafts flowers eggs herbs vegetables honey jams maple plants soap trees beans fruits","","market","http://www.knoxfarmersmarket.org","-86.6206576","41.2826208","46534"
"Kokomo","www.facebook.com/kokomofarmersmarket","Kokomo Downtown Farmers' Market","in","Intersection of Mulberry and Washington Streets","baked goods cheese crafts flowers eggs herbs vegetables honey jams maple meat plants poultry prepared soap coffee fruits juices mushrooms","","market","http://www.kokomofarmersmarket.com","-86.133519","40.488463","46901"
"Warsaw","","Kosciusko County Farmers' Market, LLC","in","1400 Smith Street (Kosciusko County Fairgrounds)","organic baked goods crafts flowers herbs vegetables honey jams maple meat plants prepared soap","","market","","-85.8379","41.2322","46580"
"LaGrange","","LaGrange Community Farmers Market","in","East Spring Street","","","market","","-85.4141","41.644","46761"
"LaPorte","","LaPorte Farmers Market","in","Downtown on State St. North of Courthouse","","","market","","-86.7215","41.6111","46350"
"Lebanon ","www.facebook.com/lebanoncitymarket","Lebanon City Market","in","309 S Lebanon St.","baked goods cheese crafts flowers eggs herbs vegetables honey jams maple plants poultry prepared soap wine coffee fruits mushrooms","https://twitter.com/lebanoncitymkt","market","","-86.4690470","40.0456714","46052"
"Linton","@lintonfarmersmarket","Linton Farmers' Market","in","","baked goods crafts flowers eggs herbs vegetables honey jams maple meat nuts plants poultry prepared soap wine coffee fruits mushrooms wild","","market","http://www.lintonfarmersmarket.com","-87.149098","39.039325","47441"
"Logansport","","Logansport Farmers Market","in","4th and Market Street","baked goods eggs herbs vegetables honey maple plants poultry soap fruits","","market","","-86.365328","40.752621","46947"
"Lowell","https://www.facebook.com/CommunityEvent2013","Lowell Farmers Market","in","8402 W 159th Ave","baked goods crafts flowers eggs herbs vegetables honey jams meat plants poultry prepared soap coffee fruits","","market","http://lowellfarmersmarket.webs.com/","-87.421560","41.291407","46356"
"Indianapolis","","Marian University Farmers' Market at the Indy Cycloplex","in","3649 Cold Spring Road","organic baked goods vegetables honey soap coffee fruits grains","","market","http://marian.edu/marian-university-farmers'-market","-86.200018","39.820815","46222"
"Marion","https://www.facebook.com/MarionsOpenAirMarket","Marion Open Air Market","in","1500 S. Western Ave.","baked goods crafts flowers eggs herbs vegetables jams plants poultry prepared soap coffee fruits","","market","","-85.676091","40.546438","46953"
"LaPorte","","Mark's Farm Market & Greenhouses","in","4374 W US Hwy 20","flowers vegetables honey plants","","market","http://www.marksfarmmarket.com","-86.7849","41.6903","46350"
"Indianapolis","https://www.facebook.com/The-Market-at-Hague-111165068392/timeline/?ref=nf","Market at Hague","in","7800 N Hague Rd","baked goods cheese crafts flowers eggs seafood vegetables honey jams maple plants soap coffee fruits juices mushrooms pet food","https://twitter.com/MarketatHague","market","http://www.marketathague.com","-86.035248","39.897043","46220"
"Gary ","","Market of Life","in","3510 W 15th Ave","organic baked goods cheese crafts flowers eggs herbs vegetables honey jams maple plants prepared soap trees coffee fruits pet food wild","","market","","-87.344853","41.595883","46404"
"Evansville","https://www.facebook.com/MarketonMainEVV/","Market on Main ","in","Ford Center Plaza 6th and Main St","baked goods cheese crafts flowers eggs vegetables honey jams meat prepared soap coffee fruits","","market","","-87.568349","37.972884","47715"
"Versailles ","","Market on the Square","in","1st North St.  ","baked goods crafts flowers eggs herbs vegetables honey jams maple meat plants prepared soap fruits","","market","","-85.2502966","39.0723288","47042"
"Westfield","https://www.facebook.com/events/113817195494487/","Marketplace at Westfield ","in","3333 East State Rd.","","","market","http://www.localharvest.org/marketplace-at-westfield-M30913","-86.1281","40.1388","46074"
"Markleville","https://www.facebook.com/pages/Markleville-Farmers-Market/122632817748753","Markleville Farmers Market","in","St. Rd. 38....1 mile east of St. Rd. 109","baked goods cheese crafts flowers eggs herbs vegetables honey jams plants soap fruits wild","","market","","-85.618732","39.978019","46056"
"South Bend","Matthys farm market","Matthys Farm Market","in","57754 Crumstown Hwy","crafts vegetables honey jams maple plants trees fruits","","market","http://www.matthysfarmmarket.com","-86.35873","41.65516","46619"
"Peru","Miami County Farmers' Market","Miami County Farmers Market","in","North Broadway and East 5th Street","baked goods crafts flowers eggs herbs vegetables honey plants soap fruits mushrooms","","market","","-86.069521","40.755229","46970"
"Gary","https://www.facebook.com/MillerMarket","Miller Beach Farmers Market","in","667 S Lake St","baked goods cheese crafts flowers eggs seafood herbs vegetables honey jams plants prepared soap fruits juices","","market","http://dragonflynwi.com/groups/miller-beach-farmers-market/","-87.2661954","41.5983480","46403"
"Muncie ","https://www.facebook.com/minnetrista","Minnetrista Farmers Market","in","1200 North Minnetrista Pkwy","organic baked goods cheese crafts flowers eggs herbs vegetables honey jams maple meat plants poultry prepared soap coffee fruits grains juices","","market","https://minnetrista.net/home/things-to-do/farmers-market2/","-85.393346","40.198978","47303"
"Muncie","","Minnetrista's Farmers Market","in","1200 n Minnetrista Parkway","baked goods cheese flowers herbs vegetables honey jams maple meat plants prepared soap","","market","http://www.minnetrista.net","-85.3969","40.2275","47303"
"Monticello ","https://www.facebook.com/monticellofarmermarket/","Monticello Farmer's Market","in","110 N. Main St","organic baked goods cheese flowers eggs vegetables honey maple meat plants soap fruits pet food","","market","http://www.monticellofarmersmarket.weebly.com","-86.7625086","40.7452318","47960"
"Martinsville ","morgan county farmers market","Morgan County Farmers' Market Association","in","Main St. & Indiana St.","baked goods cheese crafts flowers eggs herbs vegetables jams maple meat plants prepared soap fruits grains","","market","","-86.428695","39.423392","46151"
"Mooresville ","morgan county farmers market","Morgan County farmers' Market Association","in","Monroe & Main St.","baked goods cheese crafts flowers eggs herbs vegetables jams maple meat plants prepared soap fruits grains","","market","","-86.3796098","39.6128060","46158"
"Mt. Vernon","https://www.facebook.com/pages/Mt-Vernon-Farmers-Market-in-SW-Indiana/111089392250491","Mt. Vernon Farmers Market","in","1006 E. Fourth St.","baked goods vegetables jams nuts plants soap fruits","","market","http://www3.ag.purdue.edu/counties/posey/Pages/MtVernonFarmers%27Market.aspx","-87.884274","37.934822","47620"
"Muncie","https://www.facebook.com/groups/1627047027524961/","Muncie Makers Market ","in","Outside at Books & Brews, 2100 West White River Boulevard","organic baked goods crafts flowers eggs herbs vegetables honey jams plants soap trees coffee fruits mushrooms","","market","","-85.4106750","40.1883942","47303"
"Munster","https://www.facebook.com/munster.parks1","Munster Farmer's Market","in","1005 N Centennial Drive","baked goods cheese crafts vegetables honey jams meat plants poultry prepared soap","","market","http://www.munster.org/department/division.php?fDD=6-177","-87.505723","41.536804","46321"
"Nashville","https://www.facebook.com/NashvilleFarmersMarketNashvilleIndiana/","Nashville Farmer's Market","in","51 St Rd 46 E ","baked goods cheese eggs vegetables honey jams maple meat plants poultry soap coffee fruits juices","","market","","-86.2458828","39.2014580","47448"
"New Albany","https://www.facebook.com/pages/New-Albany-Farmers-Market/217753735295","New Albany Farmers Market","in","202 E. Market","organic baked goods cheese crafts flowers eggs herbs vegetables honey jams maple meat nuts plants poultry prepared soap trees wine coffee beans fruits grains juices mushrooms pet food wild","","market","http://www.newalbanyfarmersmarket.com","-85.82095","38.28495","47150"
"New Castle","","New Castle Farmers Market","in","Library parking lot","","","market","","-85.7457","40.0025","47362"
"New Harmony","","New Harmony Farmers Market","in","North end of Main St.","","","market","","-87.5314","38.6804",""
"New Haven","https://www.facebook.com/NewHavenFarmersMarket/","New Haven Farmers Market","in","956 Park Ave.","baked goods crafts eggs vegetables honey jams maple plants prepared soap fruits","","market","http://www.newhavenparksandrec.com/events/","-85.016707","41.068937","46774"
"Noblesville","https://www.facebook.com/noblesvilleinfarmersmarket/","Noblesville Farmers Market","in","St Rd 32","baked goods crafts flowers herbs vegetables honey jams meat plants poultry soap fruits pet food","","market","https://www.noblesvillemainstreet.org/index.php/signature-events/noblesville-indiana-farmers-market","-86.019368","40.048031","46060"
"North Manchester","https://www.facebook.com/groups/325141357105/","North Manchester Farmers' Market","in","502 E Main St","baked goods crafts flowers eggs herbs vegetables honey jams maple meat plants poultry soap trees coffee fruits juices","","market","http://visitwabashcounty.com/venue/north-manchester-farmers-market/","-85.763837","40.999378","46962"
"French Lick","https://www.facebook.com/OrangeCountyHomeGrown/","Orange County HomeGrown Farmers Market - Valley Market","in","West Highway 56","baked goods crafts flowers eggs herbs vegetables jams maple plants prepared soap coffee fruits","","market","http://www.orangecountyhomegrown.org","-86.6210467","38.5495110","47432"
"Orleans","https://www.facebook.com/OrangeCountyHomeGrown","Orange County HomeGrown Farmers Markets - Orleans","in","South side of Congress Square","organic baked goods crafts flowers eggs herbs vegetables honey jams maple meat nuts plants poultry soap trees coffee fruits","","market","http://www.orangecountyhomegrown.org","-86.4683210","38.5561663","47452"
"Paoli","https://www.facebook.com/OrangeCountyHomeGrown","Orange County HomeGrown Farmers Markets - Paoli","in","Hwy 37, Front Parking lot of Walmart","organic baked goods crafts flowers eggs herbs vegetables honey jams maple meat plants poultry prepared soap coffee fruits","","market","http://www.orangecountyhomegrown.org","-86.4683210","38.5561663","47454"
"Indianapolis","","Original Farmers' Market at Indianapolis City Market","in","222 E. Market Street","organic baked goods cheese crafts flowers eggs herbs vegetables honey jams maple meat nursery nuts plants poultry prepared soap wine","","market","http://www.indycm.com","-86.1535","39.76882","46204"
"Spencer","https://www.facebook.com/owencountyfarmersmarket","Owen County Farmers' Market","in","459 W Morgan St","baked goods crafts flowers eggs herbs vegetables honey jams maple meat nuts plants prepared soap coffee fruits grains","","market","http://www.owencountyfarmersmarket.com/","-86.768538","39.287153","47460"
"Pendleton","","Pendleton Farmers Market","in","Depot Park","","","market","","-85.7515","39.996","46064"
"Petersburg","https://www.facebook.com/groups/prfarmersmarket/?fref=ts","Pike County Farmers Market Association","in","1008 Maple Street","organic baked goods cheese crafts flowers eggs herbs vegetables honey jams maple meat nuts plants poultry prepared soap trees fruits","","market","http://pikecomarket.com/","-87.2749235","38.4900330","47567"
"Pittsboro","https://www.facebook.com/pittsboro.farmers.market","Pittsboro Farmers Market","in","Scamahorn Park, Main Street","organic baked goods crafts vegetables honey jams fruits","","market","http://www.pittsborofarmersmarket.blogspot.com","-86.4862817","39.8680142","46167"
"Plainfield ","https://www.facebook.com/PlainfieldChamberFarmersMarket","Plainfield Chamber of Commerce Farmers' Market","in","105 S. East Street","baked goods cheese crafts flowers eggs herbs vegetables honey jams maple meat plants prepared soap coffee fruits pet food","https://twitter.com/","market","http://www.plainfield-in.com/farmers-market.html","-86.4005705","39.7028141","46158"
"Plymouth","https://www.facebook.com/pages/Plymouth-Farmers-Market-Inc/136145306459265","Plymouth Farmers Market","in","Garro St.","organic baked goods cheese flowers eggs herbs vegetables honey jams maple meat plants poultry soap trees fruits","","market","http://www.plymouthfarmersmarket.com","-86.307641","41.340650","46563"
"Portage","","Portage Community Farmer's Market","in","6300 South Founders Square Park","organic baked goods crafts flowers herbs vegetables honey jams plants prepared soap fruits","","market","http://www.ci.portage.in.us/parks","-87.1713960","41.5775797","46368"
"Portland","","Portland Farmers Market I","in","Courthouse Square","","","market","","-84.976","40.4225","47371"
"Portland","","Portland Farmers Market II","in","Water & Ship Streets","","","market","","-84.9805","40.4324","47371"
"Princeton","","Princeton Farmers Market","in","Corner of Brumfield and Embree","","","market","","-87.5757","38.3589","47670"
"South Bend","https://www.facebook.com/PurplePorchCoop","Purple Porch Co-op","in","123 N. Hill St.","organic baked goods cheese flowers eggs herbs vegetables honey jams maple meat plants poultry prepared soap fruits","https://twitter.com/purpleporchcoop","market","http://www.purpleporchcoop.com","-86.2428794","41.6767599","46617"
"Greencastle","","Putnam County Farmers Market","in","Robe Ann Park Shelter #2","","","market","","-86.8664","39.6473","46135"
"Remington","","Remington Farmers Market","in","36 S. Ohio St.","baked goods crafts vegetables plants","","market","http://www.remingtonindiana.com","-87.1514","40.76","47977"
"Rensselaer","https://www.facebook.com/pages/Rensselaer-Farmers-Market/120400308005878","Rensselaer Farmers Market","in","110 W Harrison St.","baked goods crafts eggs herbs vegetables meat plants prepared fruits","","market","","-87.1501069","40.9356403","47978"
"Richmond","https://www.facebook.com/RichmondFarmersMarketIN/","Richmond Farmers Market - Summer Season (May-October)","in","47 N 6th St","baked goods cheese crafts flowers eggs herbs vegetables honey jams maple meat plants poultry prepared soap coffee fruits pet food","","market","http://www.richmondindiana.gov/Our_Government/Departments/Parks_and_Recreation/Programs_and_Services/Farmers_Market.htm","-84.893388","39.829938","47374"
"Rising Sun","","Rising Sun Farmers Market","in","Main & Walnut Streets","","","market","","-84.854","38.9491","47040"
"Michigan City","https://www.facebook.com/pages/Riverside-Market/237954816242?id=237954816242&sk=info","Riverside Market","in","234 East 2nd Street","","","market","","-86.9012","41.7214","46360"
"Roanoke","https://www.facebook.com/RoanokeFarmersMarket/","Roanoke Farmer's Market","in","Main Street","baked goods crafts flowers vegetables meat plants prepared soap coffee","","market","http://discoverroanoke.org/events/farmers-market","-85.373322","40.961979","46783"
"Rockville 47872","","Rockville Produce Auction LLC","in","3300 North 400E","","","market","","-87.1625","39.8155",""
"Rome City","","Rome City Farmers and Artisans Market","in","Town Hall, 402 Kelly St. ","baked goods cheese crafts flowers eggs herbs vegetables honey jams plants soap fruits","","market","","-85.3770500","41.4926580","46784"
"West Lafayette","","Sagamore West Farmers Market","in","Cumberland Park","baked goods cheese crafts flowers herbs vegetables honey jams maple meat plants prepared soap","","market","http://www.westlafayette.in.gov/farmersmarket","-86.9136","40.4445","47906"
"Fort Wayne","https://www.facebook.com/Salomon-Farm-Park-134187289927760/","Salomon Farm Park Farmers' Market ","in","817 West Dupont Road","organic baked goods crafts flowers eggs herbs vegetables honey jams maple poultry coffee fruits","","market","http://www.fortwayneparks.org","-85.152678","41.175641","46825"
"Fishers","","Saxony Market ","in","13578 E. 131st Street","","","market","http://www.saxony-indiana.com/market.html","-85.9221","39.9821","46037"
"Scottsburg","Scott County Farmers Market","Scott County Farmers Market","in","90 N Main St","baked goods crafts flowers eggs herbs vegetables honey jams plants soap trees fruits pet food","","market","","-85.7713180","38.6865700","47170"
"Seymour","https://www.facebook.com/Seymour-Area-Farmers-Market-220617751321790/","Seymour Area Farmers Market","in","Walnut St and Saint Louis Ave.","organic baked goods cheese crafts flowers eggs herbs vegetables honey jams meat nuts plants poultry prepared soap coffee fruits grains wild","@SeymourFarmMkt","market","","-85.8914498","38.9578388","47274"
"Shelbyville","https://www.facebook.com/Mainstreet-Shelbyville-Inc-548796655151518/","Shelby County Farmers Market","in","Public Square ","baked goods cheese crafts flowers eggs vegetables honey jams maple meat nuts poultry soap trees fruits","","market","http://www.mainstreetshelbyville.org/farmers-market/","-85.7771313","39.5244455","46176"
"South Bend","https://www.facebook.com/SouthBendFarmersMarket","South Bend Farmers Market","in","1105 Northside Boulevard","baked goods cheese crafts flowers eggs seafood herbs vegetables honey jams maple meat nuts plants poultry prepared soap trees coffee beans fruits grains juices mushrooms pet food wild","","market","http://www.southbendfarmersmarket.com/","-86.2342181","41.6658481","46615"
"South Milford","","South Milford Farmers Market","in","7850 W. 750 S.","baked goods crafts eggs vegetables jams plants fruits","","market","","-85.272441","41.533800","46786"
"Fort Wayne ","","South Side Farmers Market","in","3300 Warsaw St.","baked goods cheese flowers eggs herbs vegetables honey jams plants poultry prepared soap coffee fruits","","market","http://www.southsidefarmersmarket.com","-85.1297412","41.0548148","46806"
"Indianapolis","https://www.facebook.com/SouthportFarmersMarket","Southport Farmers Market","in","2810 Southport Rd","baked goods cheese crafts herbs vegetables honey jams maple meat plants poultry soap coffee beans fruits grains mushrooms pet food wild","","market","https://www.southsidefarmermarket.com/","-86.1152396","39.6653377","46227"
"Speedway","Speedway Farmers Market","Speedway Farmers Market","in","6118 Crawfordsville Rd.","cheese crafts flowers eggs vegetables honey jams meat poultry prepared wine fruits juices mushrooms pet food wild","","market","","-86.2670429","39.8008667","46224"
"Evansville","","St. Mary's Market Days","in","3700 Washington Avenue","organic baked goods cheese crafts flowers herbs vegetables honey maple plants soap","","market","http://www.stmarys.org","-87.50396","37.96362","47750"
"Michigan City","https://m.facebook.com/ststansfarmersmarket/","St. Stanislaus of Michigan City Farmer's Market","in","109 Ann Street","organic baked goods cheese crafts flowers eggs herbs vegetables honey jams maple meat plants poultry prepared soap trees fruits mushrooms pet food wild","","market","","-86.896989","41.707849","46360"
"Indianapolis","https://www.facebook.com/StadiumVillageMarket","Stadium Village Farmers Market ","in","801 South Meridian Street","","","market","","-86.1589","39.7564","46225"
"Indianapolis,","https://www.facebook.com/StatehouseMarket","Statehouse Market","in","Robert D. Orr Plaza","organic baked goods cheese flowers eggs herbs vegetables honey jams poultry prepared fruits","https://twitter.com/statehousemkt/","market","http://www.statehousemarket.com/","-86.1653813","39.7686865","46204"
"Angola","https://www.facebook.com/pages/Steuben-County-Farmers-Market/271725986257213","Steuben County Farmers Market","in","317 S Wayne St ","baked goods crafts flowers eggs herbs vegetables honey jams maple plants soap trees coffee fruits","","market","https://www.localharvest.org/steuben-county-farmers-market-M23990","-84.9984478","41.6319660","46703"
"Kendallville","https://www.facebook.com/SweeneysSweetCorn","Sweeney's Sweet Corn and Farm Market ","in","887 E. Schoolhouse Rd","","","market","http://www.sweeneysweetcorn.com/","-85.2545","41.4825","46755"
"Florence ","https://www.facebook.com/pages/Switzerland-County-Farmers-and-Artisans-Marketplace/649252595102544","Switzerland County Farmers and Artisans Marketplace ","in","7110 Innovation Drive","baked goods crafts flowers herbs vegetables honey jams plants prepared soap trees fruits","","market","","-84.958918","38.786625","47020"
"Vevay","","Switzerland County Farmers Market","in","Courthouse Square on Main","","","market","","-84.8522","39.0906","47043"
"Syracuse","www.facebook.com/syracusefarmersmarket","Syracuse Artisans and Farmers Market","in","303 W. Henry St.","organic baked goods crafts flowers eggs herbs vegetables honey jams meat plants prepared soap coffee fruits","","market","http://www.syracusefarmersmarket.org","-85.7502941","41.4248366","46567"
"Tell City","","Tell City Farmers Market I","in","Twilight Towers","","","market","","-86.7376","37.9141",""
"Leo","https://www.facebook.com/pages/The-Convivium/361569286162","The Convivium","in","State Rd 1","baked goods flowers herbs vegetables honey maple nursery soap","","market","","-85.007583","41.229217","46765"
"Batesville","https://www.facebook.com/WalhillFarm","The Green Market at Walhill Farm","in","857 Six Pine Ranch Road","","","market","http://www.walhillfarm.com","-85.1863","39.3085","47006"
"LaPorte","https://www.facebook.com/groups/126258084058411/","The La Porte Farmers Market","in","Lincolnway and Monroe Street, Downtown LaPorte","organic baked goods cheese crafts flowers eggs herbs vegetables honey jams maple nuts plants prepared soap trees beans fruits juices mushrooms","","market","http://www.cityoflaporte.com","-86.720388","41.611744","46350"
"Anderson","","The Original Farmers Market","in","Parking lot of UAW Local 662 109 bypass","","","market","","-85.6333","40.0906","46012"
"Tipton","","Tipton County Farmer's Market","in","135 E. Jefferson Street","","","market","","-86.0401","40.282","46072"
"English","","Town of English Farmers Market","in","Town  Hall  Indiana Ave","baked goods eggs herbs vegetables honey jams plants soap","","market","","-86.44318","38.35216","47118"
"Bloomington","https://www.facebook.com/pages/Bloomington-Community-Farmers-Market/130635957114110","Tuesday Market at Bloomington Community Farmers Market","in","6th and Madison Streets ","organic baked goods cheese crafts flowers eggs seafood herbs vegetables honey jams maple meat nuts plants poultry prepared soap trees coffee beans fruits grains pet food wild","","market","http://bloomington.in.gov/farmersmarket","-86.537883","39.167687","47404"
"South Bend","https://www.facebook.com/urbangardenfarmersmarket","Urban Garden Farmers Market","in","1005-1006 Portage Ave","baked goods cheese crafts flowers eggs herbs vegetables honey jams nuts plants prepared soap coffee beans fruits pet food","","market","http://urbangardenmarket.blogspot.com","-86.2627010","41.6881730","46616"
"Valparaiso ","https://www.facebook.com/ValparaisoMarket/","Valparaiso Market","in","68 Lafayette Street","baked goods cheese crafts flowers eggs seafood herbs vegetables honey jams maple meat nuts plants prepared soap trees coffee fruits grains mushrooms pet food","","market","http://valparaisoevents.com/valparaiso-market/","-87.062272","41.467171","46383"
"Rockville","","Village Market Cooperative","in","106 N MARKET STREET (BEHIND THE PUBLIC LIBRARY)","","","market","","-87.2295","39.7632",""
"Vincennes","Vincennes Historic Farmers Market","Vincennes Historic Farmers Market","in","102 N. Second St.","baked goods cheese crafts flowers eggs seafood herbs vegetables honey jams maple meat plants prepared soap trees coffee fruits grains mushrooms wild","","market","http://www.vincennes.org","-87.531359","38.680610","47591"
"Wabash","https://www.facebook.com/Wabash-Farmers-Market-195947103767864/","Wabash County Farmers Market","in","Cass Street and Market Stret","baked goods crafts vegetables honey jams meat plants prepared soap trees coffee fruits pet food","","market","http://www.wabashmarketplace.org/wabash-farmers-market.html","-85.824321","40.796419","46992"
"Wadesville","https://www.facebook.com/groups/221826011178150/","Wadesville Farmers Market","in","7238 Hwy 66","baked goods crafts eggs herbs vegetables honey jams plants soap fruits","","market","","-87.7880512","38.1048706","47638"
"Boonville","https://www.facebook.com/groups/130603427456/","Warrick County Farmers' Market","in","2nd Street and Main Street","baked goods crafts vegetables honey meat fruits","","market","http://www.warrickcountyfarmersmarket.com/","-87.2755159","38.0500188","47601"
"Salem","","Washington County Farmers Market","in","118 N. Fair St.","baked goods crafts flowers eggs herbs vegetables honey jams meat plants fruits mushrooms","","market","","-86.0895899","38.6057487","47167"
"West Lafayette","www.facebook.com/westlafayettefarmersmarket","West Lafayette Farmers Market","in","3065 N Salisbury St","baked goods cheese crafts flowers eggs herbs vegetables honey jams maple meat plants prepared soap fruits","@WLFarmersMkt","market","http://wlfarmersmarket.com","-86.915836","40.461469","47906"
"Westfield","","Westfield Farmers Market","in","211 N Union Street","baked goods crafts flowers eggs vegetables honey jams meat plants prepared","","market","http://www.dwna.org","-86.1281489","40.0442490","46074"
"Whitestown","https://www.facebook.com/WhitestownFarmersMarket","Whitestown Farmers Market","in","6210 Veterans Dr","baked goods cheese crafts flowers eggs herbs vegetables honey jams maple meat nuts plants poultry prepared soap wine coffee fruits juices mushrooms pet food","","market","","-86.337791","39.950362","46075"
"Winchester ","WinchesterMainStreet","Winchester Farmers' Market","in","Meridian & Washington St.","organic baked goods crafts flowers eggs herbs vegetables honey nuts plants prepared soap trees fruits juices","","market","https://winchesterinfarmersmarket.blogspot.com/","-84.977051","40.1721","47394"
"Winfield/Crown Point","https://www.facebook.com/WinfieldFarmersMarket/","Winfield Farmers Market","in","10645 Randolph St.","baked goods eggs vegetables honey jams prepared soap fruits pet food","","market","http://winfieldtwp.com/?page_id=320","-87.382092","41.4165651","46307"
"Elkhart","https://www.facebook.com/pages/Woodlawn-Nature-Center-Harvest-Market/204114226276663","Woodlawn Nature Center Harvest Market","in","604 Woodlawn Ave","baked goods crafts herbs vegetables honey jams nuts plants trees fruits","","market","","-85.9675309","41.7090130","46514"
"Fort Wayne","https://www.facebook.com/YLNIFarmersMarket","YLNI Barr Street Market","in","302 E. Berry Street","organic baked goods cheese crafts flowers eggs seafood herbs vegetables honey jams maple meat nuts plants prepared soap coffee beans fruits juices mushrooms pet food","https://twitter.com/YLNIFarmersMarket","market","http://www.ylni.org/market","-85.136171","41.079151","46802"
"Yorktown","https://www.facebook.com/yorktownfarmersmarketplace","Yorktown Farmers Marketplace","in","1901 South Tiger Drive","baked goods crafts flowers eggs vegetables honey jams meat nuts plants prepared soap coffee fruits juices mushrooms","","market","","-85.495124","40.177147","47396"
"Zionsville","","Zionsville Farmers Market","in","Hawthorne & Main Street","","","market","http://www.zionsvillefarmersmarket.org","-86.2612","39.9491","46077"
