[{"type":"farm","street":"251 Lost Oak","city":"Bandera","state":"Texas","zip":"78003","x":"-99.035729","y":"29.745359","name":"A Garden in Every Home","website":"http://www.agardenineveryhome.com/","facebook":"https://www.facebook.com/AGardenInEveryHome","twitter":"","tags":"bedding plants cut-flowers fresh-fruits nursery-stock"},{"type":"farm","street":"838 H. Wallace Ln.","city":"Rockwall","state":"Texas","zip":"75032","x":"-96.436831","y":"32.875836","name":"A Touch of Earth Gardens","website":"","facebook":"https://www.facebook.com/pages/A-Touch-of-Earth-Gardens/204045213012249?pnref=lhc","twitter":"","tags":"baked-goods canned preserved crafts woodworking eggs herbs fresh-fruits fresh-vegetables honey"},{"type":"farm","street":"26319 Decker Prairie Rosehill Rd.","city":"Magnolia","state":"Texas","zip":"77355","x":"-95.672724","y":"30.125433","name":"Bar M Ranch","website":"www.bmrcattle.com","facebook":"https://www.facebook.com/pages/Bar-M-Ranch/138325886265765","twitter":"","tags":"red-meat non-poultry-meat"},{"type":"farm","street":"10356 South State Hwy 94","city":"Trinity ","state":"Texas","zip":"75862","x":"-95.307772","y":"30.996667","name":"Bluebonnet Berries","website":"bjtjwt@msn.com","facebook":"","twitter":"","tags":"fresh-fruits"},{"type":"farm","street":"5349 FM 244","city":"Anderson ","state":"Texas","zip":"","x":"-95.9248034","y":"30.4618557","name":"Briers Simmental Ranch","website":"","facebook":"https://www.facebook.com/BriersSimmentalRanch","twitter":"","tags":""},{"type":"farm","street":"13817 Klaus Lane","city":"Elgin","state":"Texas","zip":"78621","x":"-97.4285170","y":"30.3619800","name":"Coyote Creek Organic Farm and Feed Mill","website":"CoyoteCreekFarm.com","facebook":"https://www.facebook.com/pages/Coyote-Creek-Organic-Feed-Mill-and-Farm/119211684770073?ref=hl","twitter":"https://twitter.com/CoyoteCreekFarm","tags":"eggs"},{"type":"farm","street":"1166 CR 210","city":"Weimar","state":"Texas","zip":"78962","x":"-96.704865","y":"29.679000","name":"Cuts Of Color","website":"www.cutsofcolor.com","facebook":"https://www.facebook.com/pages/Cuts-Of-Color/114984438567908","twitter":"","tags":"cut-flowers"},{"type":"farm","street":"15970 highway 271","city":"Tyler","state":"Texas","zip":"75708","x":"-95.141124","y":"32.437659","name":"Deep Creek Farm","website":"","facebook":"","twitter":"","tags":"canned preserved cut-flowers fresh-fruits honey"},{"type":"farm","street":"5619 FM 1624","city":"Lexington","state":"Texas","zip":"78947","x":"-97.027186","y":"30.403759","name":"Dewberry Hills Farm","website":"www.dhfarms.com","facebook":"https://www.facebook.com/pages/Dewberry-Hills-Farm/282475245128234","twitter":"","tags":"poultry fowl"},{"type":"farm","street":"7235 FM 607","city":"Brownsboro","state":"Texas","zip":"75778","x":"-95.6408542","y":"32.2439146","name":"Echo Springs Blueberry Farm","website":"www.echospringsblueberyfarm.com","facebook":"","twitter":"","tags":"baked-goods bedding plants canned preserved coffee tea crafts woodworking herbs fresh-fruits fresh-vegetables grains flour honey juices ciders maple-products nursery-stock prepared foods soap body-care"},{"type":"farm","street":"","city":"Corpus Christi","state":"Texas","zip":"78413","x":"-97.402830","y":"27.682065","name":"Ficarro Farms","website":"ficarrofarms.com","facebook":"","twitter":"twitter.com/lfficarro","tags":"coffee tea herbs pet-food wild-harvested forest-products"},{"type":"farm","street":"11366 Hahn Rd","city":"Sealy","state":"Texas","zip":"77474","x":"-96.303691","y":"29.801639","name":"Flaylers Fruit Farm","website":"","facebook":"","twitter":"","tags":"fresh-fruits fresh-vegetables"},{"type":"farm","street":"8564 County Road 4912","city":"Ladonia","state":"Texas","zip":"75449","x":"-95.868255","y":"33.379028","name":"FLOHAS Farms","website":"flohasfarms.com","facebook":"","twitter":"","tags":"eggs fresh-fruits fresh-vegetables honey"},{"type":"farm","street":"780 Burton St.","city":"Alvin","state":"Texas","zip":"77511","x":"-95.2694080","y":"29.4172010","name":"Funky Monkey Farms, LLC","website":"Www.funkymonkeyfarms.com","facebook":"","twitter":"","tags":"baked-goods bedding plants dairy products eggs herbs fresh-fruits fresh-vegetables soap body-care"},{"type":"farm","street":"","city":"KEMAH","state":"Texas","zip":"77565","x":"-95.027307","y":"29.528392","name":"Gardenkids of Kemah","website":"www.gardenkidskemah.org","facebook":"www.facebook.com/gardenkidskemah","twitter":"","tags":"bedding plants herbs fresh-vegetables"},{"type":"farm","street":"2826 West Lake Road, ","city":"Abilene","state":"Texas","zip":"79601","x":"-99.7252880","y":"32.4825850","name":"Grapevine Farms","website":"www.grapevinefarms.com","facebook":"grapevinefarms","twitter":"","tags":"canned preserved eggs herbs fresh-vegetables honey poultry fowl"},{"type":"farm","street":"170 Yates Street","city":"Hawkins","state":"Texas","zip":"75765","x":"-95.2070622","y":"32.5975978","name":"Hawkins Organic","website":"","facebook":"","twitter":"","tags":"fresh-fruits"},{"type":"farm","street":"14255 Old Denton Road","city":"Roanoke","state":"Texas","zip":"76262","x":"-97.297603","y":"32.986277","name":"Henrietta Creek Orchard","website":"Henrietta creek orchard.com","facebook":"https://www.facebook.com/HenriettaCreekAppleOrchard","twitter":"","tags":""},{"type":"farm","street":"1350 Stoney Creek Dr","city":"Cedar Hill","state":"Texas","zip":"75104","x":"-96.937545","y":"32.561252","name":"Honey's Acres Farm","website":"","facebook":"Honey's Acres Farm","twitter":"","tags":"baked-goods canned preserved eggs herbs fresh-vegetables grains flour honey poultry fowl red-meat non-poultry-meat"},{"type":"farm","street":"16100 FM 2590","city":"Amarillo","state":"Texas","zip":"79119","x":"-101.9375880","y":"35.0464500","name":"Honey's Farm Fresh","website":"www.honeysfarmfresh.com","facebook":"https://www.facebook.com/pages/Honeys-Farm-Fresh/201738469838822","twitter":"","tags":"eggs honey poultry fowl soap body-care"},{"type":"farm","street":"10401 Scott Street","city":"Houston ","state":"Texas","zip":"77051","x":"-95.367588","y":"29.645582","name":"Hope Farms Market","website":"Www.hopefarmshtx.org","facebook":"@HopeFarmsHTX","twitter":"","tags":"bedding plants cut-flowers eggs herbs fresh-fruits fresh-vegetables honey"},{"type":"farm","street":"11351 County Road 203","city":"Plantersville","state":"Texas","zip":"77363","x":"-95.821647","y":"30.325124","name":"Jollisant Farms Strawberry & Vegetable Garden","website":"www.Jollisantfarms.com","facebook":"https://www.facebook.com/jollisantfarm","twitter":"","tags":"eggs fresh-fruits fresh-vegetables honey"},{"type":"farm","street":"8371 Bottoms Road","city":"Troy","state":"Texas","zip":"76569","x":"-97.260941","y":"31.160251","name":"JZJ Natural Beef","website":"jzjbeefmasters.com and jzjnaturalbeef.com","facebook":"","twitter":"","tags":""},{"type":"farm","street":"16602 Farm Road 410 North","city":"Detroit","state":"Texas","zip":"75436","x":"-95.223135","y":"33.878438","name":"Kiomatia Blueberry Farm","website":"","facebook":"https://www.facebook.com/pages/Kiomatia Blueberry Farm/437803346331761","twitter":"","tags":"fresh-fruits"},{"type":"farm","street":"287 County Road 2495","city":"Hico","state":"Texas","zip":"76457","x":"-97.964857","y":"31.991469","name":"Liberty Farms Dairy","website":"www.libertdairyfarms.com","facebook":"https://www.facebook.com/libertyfarmsdairy","twitter":"","tags":"dairy products"},{"type":"farm","street":"15906 County Line Rd.","city":"Elgin","state":"Texas","zip":"78621","x":"-97.390609","y":"30.394821","name":"Lund Produce Co. Branchgrove Farms","website":"","facebook":"","twitter":"","tags":"bedding plants fresh-fruits fresh-vegetables"},{"type":"farm","street":"FM 1776 And Watermelon Row","city":"Coyanosa","state":"Texas","zip":"79730","x":"-103.067564","y":"31.263145","name":"Mandujano Brothers","website":"","facebook":"www.facebook.com/mandujanobrothersproduce","twitter":"","tags":"fresh-fruits fresh-vegetables prepared foods"},{"type":"farm","street":"2408 Hamrock Rd","city":"Italy","state":"Texas","zip":"76651","x":"-96.862786","y":"32.100708","name":"Mill Creek Meat Company LLC","website":"millcreekmeatcompany.com","facebook":"","twitter":"","tags":"red-meat non-poultry-meat"},{"type":"farm","street":"672 fm 4116","city":"Campbell ","state":"Texas","zip":"75422","x":"-95.888151","y":"33.144244","name":"Moleyville Farms","website":"","facebook":"","twitter":"","tags":"honey"},{"type":"farm","street":"20826 Blake Manor Rd.","city":"Manor","state":"Texas","zip":"78653","x":"-97.4827530","y":"30.2618250","name":"Munkebo Farm","website":"www.munkebofarm.com","facebook":"","twitter":"","tags":""},{"type":"farm","street":"9963 Pooles Road","city":"Montgomery","state":"Texas","zip":"77356","x":"-95.7353421","y":"30.3945978","name":"P-6 Farms","website":"www.p-6farms.com","facebook":"https://www.facebook.com/pages/P-6-Farms/230130763705630","twitter":"","tags":"canned preserved coffee tea crafts woodworking eggs fresh-fruits fresh-vegetables honey juices ciders prepared foods red-meat non-poultry-meat"},{"type":"farm","street":"18611 Becker Rd","city":"Hockley","state":"Texas","zip":"77447","x":"-95.799977","y":"30.045827","name":"Partybarn Farm","website":"www.partybarnfarm.com","facebook":"www.Facebook.com/PartybarnFarm","twitter":"","tags":"dry beans eggs fresh-vegetables grains flour honey"},{"type":"farm","street":"1785 Waldo Road","city":"Oglesby","state":"Texas","zip":"76561","x":"-97.5318352","y":"31.4786277","name":"Punkin Center Berry Farm","website":"punkincenterberryfarm.com","facebook":"https://www.facebook.com/pages/Punkin-Center-Berry-Farm/498097476896300","twitter":"","tags":"fresh-fruits fresh-vegetables"},{"type":"farm","street":"5261 CR 4738","city":"Cumby","state":"Texas","zip":"75433","x":"-95.7738510","y":"33.2184740","name":"Rockin Bar B Ranch","website":"","facebook":"Bobbi Smith","twitter":"","tags":""},{"type":"farm","street":"1057 County Road 2732","city":"Alto","state":"Texas","zip":"75925","x":"-94.9915788","y":"31.5267890","name":"Ruby-Farm","website":"ruby-farm.com","facebook":"","twitter":"","tags":"canned preserved fresh-vegetables"},{"type":"farm","street":"3857 FM 2264","city":"Decatur","state":"Texas","zip":"76234","x":"-97.439859","y":"33.184096","name":"SB Longhorns","website":"www.sblonghorns.com","facebook":"","twitter":"","tags":"red-meat non-poultry-meat"},{"type":"farm","street":"","city":"Diboll","state":"Texas","zip":"","x":"-94.768853","y":"31.261484","name":"Spoiled Hen Coop and Run","website":"","facebook":"","twitter":"","tags":"eggs"},{"type":"farm","street":"6427 South Farm Road 225","city":"Nacogdoches","state":"Texas","zip":"75964","x":"-94.5037891","y":"31.4432005","name":"Stoney Brook Farm","website":"Stoneybrookfrm@sbcglobal","facebook":"","twitter":"","tags":"bedding plants canned preserved fresh-fruits fresh-vegetables nursery-stock"},{"type":"farm","street":"1504 County Road 532. Post Office Box 103","city":"Hondo","state":"Texas","zip":"78861","x":"-99.146618","y":"29.308190","name":"Sun Seasons","website":"","facebook":"","twitter":"","tags":"fresh-fruits"},{"type":"farm","street":"1003 private rd 3081","city":"Lexington ","state":"Texas","zip":"78947","x":"-97.158258","y":"30.384445","name":"Taylor Farm","website":"Taylor farm.org","facebook":"Www.facebook.com/taylorstxfarm","twitter":"","tags":"eggs pet-food poultry fowl red-meat non-poultry-meat soap body-care"},{"type":"farm","street":"2965 State Highway 24","city":"Campbell","state":"Texas","zip":"75422","x":"-95.931503","y":"33.183129","name":"Texas A&M University-Commerce Twin Oaks Blueberry Farm","website":"www.tamuc.edu/blueberry","facebook":"www.facebook.com/twinoaksblueberryfarm","twitter":"","tags":"baked-goods canned preserved fresh-fruits grains flour honey nuts"},{"type":"farm","street":"15631 Autumn Oaks Ln","city":"Iola","state":"Texas","zip":"77861","x":"-96.110927","y":"30.699648","name":"Texas US Farms","website":"www.texasusfarms.com","facebook":"https://www.facebook.com/TexasUSfarms/?ref=bookmarks","twitter":"","tags":"bedding plants canned preserved coffee tea crafts woodworking herbs fresh-vegetables soap body-care"},{"type":"farm","street":"442 CR 233","city":"Hallettsville","state":"Texas","zip":"77964","x":"-96.9271524","y":"29.5629932","name":"The Herb Cottage","website":"http://theherbcottage.com","facebook":"https://www.facebook.com/theherbcottage","twitter":"https://twitter.com/herbiecott","tags":"bedding plants nursery-stock"},{"type":"farm","street":"2409 E. 4 Mile Line","city":"Mission","state":"Texas","zip":"78573","x":"-98.275300","y":"26.267234","name":"Thompson Farm Market","website":"","facebook":"","twitter":"","tags":"canned preserved fresh-fruits fresh-vegetables honey juices ciders nuts"},{"type":"farm","street":"14025 Oak Lake Village Dr","city":"Needville ","state":"Texas","zip":"77461","x":"-95.6582598","y":"29.4089580","name":"Three Sisters Farm","website":"","facebook":"","twitter":"","tags":"canned preserved eggs herbs fresh-vegetables honey soap body-care"},{"type":"farm","street":"5301 County Road 1260","city":"Lubbock","state":"Texas","zip":"79407","x":"-102.029668","y":"33.545375","name":"Wolf Creek Farms","website":"wolfcreekfarmsonline.com","facebook":"","twitter":"https://www.twitter.com/wolfcreekfarms","tags":"herbs fresh-vegetables soap body-care"},{"type":"market","name":"Alamo Heights Farmers Market","website":"","facebook":"https://www.facebook.com/AlamoHeightsFarmersMarket/","twitter":"https://twitter.com/AlamoHeightsFM","street":"255 E Basse","city":"San Antonio ","state":"Texas","zip":"78209","x":"-98.481174","y":"29.493258","tags":"baked goods cheese eggs herbs vegetables honey jams maple meat nuts poultry prepared soap coffee fruits juices pet food"},{"type":"market","name":"Aledo Farmers Market","website":"http://www.aledo-texas.com","facebook":"City of Aledo","twitter":"","street":"128 Elm Street","city":"Aledo","state":"Texas","zip":"76008","x":"-97.602554","y":"32.696496","tags":"organic baked goods eggs vegetables jams poultry pet food"},{"type":"market","name":"All Natural & Certified Organic Farmer Market (HOPE FARM)","website":"http://www.hopeforsfs.org","facebook":"Facebook.com/HOPESFS","twitter":"","street":"19833 Morris RD ","city":"Harlingen ","state":"Texas","zip":"78552","x":"-97.704718","y":"26.155226","tags":"organic cheese eggs herbs vegetables honey jams plants poultry prepared trees coffee beans fruits juices wild"},{"type":"market","name":"Angelina County Farmers Market","website":"http://visitlufkin.com/ShopDine/FarmersMarket/","facebook":"https://www.facebook.com/angelinacountyfarmmarket/settings?tab=public&section=web_address","twitter":"","street":"2107 S Medford Dr ","city":"Lufkin ","state":"Texas","zip":"75901","x":"-94.697749","y":"31.321061","tags":"baked goods eggs herbs vegetables honey jams maple nuts prepared soap trees coffee beans fruits pet food wild"},{"type":"market","name":"Apple Country Farmers Market","website":"http://www.applecountryorchards.com","facebook":"","twitter":"","street":"19th and Ave A","city":"Lubbock","state":"Texas","zip":"79401","x":"-101.8364","y":"33.57785","tags":"baked goods herbs vegetables honey jams"},{"type":"market","name":"Apple Country Farmers Market","website":"http://www.applecountryorchards.com","facebook":"","twitter":"","street":"12206 E. Hwy 62","city":"Idalou","state":"Texas","zip":"79329","x":"-101.611862","y":"33.666336","tags":"baked goods herbs vegetables honey jams"},{"type":"market","name":"Area Farmers Market","website":"http://www.brazosvalleyfarmersmarket.com","facebook":"","twitter":"","street":"3102 Baldwin Street","city":"Corpus Christi","state":"Texas","zip":"78405","x":"-97.4258","y":"27.7763","tags":""},{"type":"market","name":"Bandera Farmers Market","website":"http://www.banderafarmersmarket.org/","facebook":"https://www.facebook.com/pages/Bandera-Farmers-Market/229035860539228","twitter":"","street":" 702 Main St","city":"Bandera","state":"Texas","zip":"78003","x":"-99.0742510","y":"29.7277140","tags":"baked goods flowers eggs herbs honey jams nuts plants soap fruits"},{"type":"market","name":"Barton Creek Farmers Market","website":"http://www.bartoncreekfarmersmarket.org/","facebook":"","twitter":"","street":"2901 Capital of TX Hwy. S.","city":"Austin","state":"Texas","zip":"78746","x":"-97.7557","y":"30.3222","tags":""},{"type":"market","name":"Barton Creek Farmers Market (Highland Mall)","website":"http://www.bartoncreekfarmersmarket.org/","facebook":"","twitter":"","street":"Highland Mall - 6001 Airport Blvd","city":"Austin","state":"Texas","zip":"78752","x":"-97.7157","y":"30.3244","tags":""},{"type":"market","name":"Bastrop 1832 Farmers Market","website":"http://www.bastrop1832farmersmarket.org","facebook":"https://www.facebook.com/pages/Bastrop-1832-Farmers-Market/118950738119102","twitter":"https://twitter.com/bastrop1832","street":"1302 Chestnut Street","city":"Bastrop","state":"Texas","zip":"78602","x":"-97.312067","y":"30.110719","tags":"baked goods crafts flowers eggs herbs vegetables honey jams meat nuts plants prepared soap trees coffee fruits juices"},{"type":"market","name":"Bay Area Farmers Market ","website":"https://www.bayareafarmersmarkettexas.com/","facebook":"https://www.facebook.com/bayareafarmersmarket/?modal=admin_todo_tour","twitter":"","street":"500 Baybrook Mall Drive","city":"Friendswood","state":"Texas","zip":"77546","x":"-95.151154","y":"29.549075","tags":"baked goods flowers eggs seafood herbs vegetables honey jams meat nuts poultry prepared soap wine coffee fruits mushrooms pet food wild"},{"type":"market","name":"Beaumont Farmers' Market","website":"http://www.beaumontfarmersmarket.org","facebook":"Beaumont Farmers Market","twitter":"","street":"","city":"Beaumont, ","state":"Texas","zip":"77707","x":"-94.167186","y":"30.067677","tags":"baked goods crafts flowers eggs herbs vegetables honey jams meat plants prepared soap trees coffee fruits mushrooms pet food wild"},{"type":"market","name":"Bell County Farmers Market Association I","website":"http://www.austinfarmersmarket.org","facebook":"","twitter":"","street":"Corner of East Central and Penelope","city":"Belton","state":"Texas","zip":"76513","x":"-97.4619","y":"31.0559","tags":""},{"type":"market","name":"Bell County Farmers Market Association II","website":"","facebook":"","twitter":"","street":"212 S. Main Street","city":"Temple","state":"Texas","zip":"76501","x":"-97.342","y":"31.0945","tags":""},{"type":"market","name":"Bosque Farmers Market","website":"http://bosque.agrilife.org/bosque-farmers-market/","facebook":"https://www.facebook.com/Bosque-Farmers-Market-956350901151818/","twitter":"","street":"110 South Main","city":"Meridian ","state":"Texas","zip":"76665","x":"-97.6573069","y":"31.9228027","tags":"baked goods cheese crafts flowers herbs vegetables honey jams poultry soap beans fruits"},{"type":"market","name":"Bowie Farmers Market","website":"","facebook":"https://www.facebook.com/pages/Bowie-Farmers-Market/213945728747865","twitter":"","street":"100 W clay","city":"Bowie","state":"Texas","zip":"","x":"-97.850030","y":"33.557334","tags":""},{"type":"market","name":"Brazos Valley Farmers Market","website":"http://www.brazosvalleyfarmersmarket.com","facebook":"https://www.facebook.com/brazos.valley.farmers.market","twitter":"","street":"201 North Texas Avenue","city":"Bryan","state":"Texas","zip":"77803","x":"-96.37","y":"30.6744","tags":""},{"type":"market","name":"BRIT First Saturday Farmers Market","website":"http://www.brit.org","facebook":"https://www.facebook.com/BRITorg","twitter":"","street":"1700 University Drive","city":"Fort Worth","state":"Texas","zip":"76107","x":"-97.362428","y":"32.741786","tags":"baked goods eggs herbs vegetables honey jams meat plants poultry prepared soap coffee fruits"},{"type":"market","name":"Brownsville Farmers' Market","website":"http://www.brownsvillefarmersmarket.com","facebook":"https://www.facebook.com/BrownsvilleFarmersMarket","twitter":"","street":"Linear Park, 6th & Ringgold St.","city":"Brownsville","state":"Texas","zip":"78520","x":"-97.494221","y":"25.911617","tags":"baked goods flowers eggs herbs vegetables honey jams meat nuts plants prepared soap trees coffee fruits"},{"type":"market","name":"Brownwood Area Farmers Market","website":"","facebook":"","twitter":"","street":"Bank of America Parking lot at Baker & Main St.","city":"Brownwood","state":"Texas","zip":"76801","x":"-98.9906","y":"31.7084","tags":""},{"type":"market","name":"Bryan House Farmers Market","website":"","facebook":"","twitter":"","street":"1113  E. Mile 2 Rd","city":"Mission ","state":"Texas","zip":"78574","x":"-98.305365","y":"26.241991","tags":"baked goods cheese flowers eggs vegetables honey jams plants prepared soap fruits juices wild"},{"type":"market","name":"Burleson Farmers Market","website":"http://www.burlesonfarmersmarket.com/","facebook":"","twitter":"","street":"217 W Renfro","city":"Burleson","state":"Texas","zip":"76028","x":"-97.3239","y":"32.5426","tags":""},{"type":"market","name":"Burnet Road Farmers' Market","website":"http://www.funkytonkfarmersmarket.com","facebook":"https://www.facebook.com/funkytonkfarmersmarket","twitter":"","street":"6701 Burnet Road Market","city":"Austin","state":"Texas","zip":"78757","x":"-97.7018","y":"30.4258","tags":"organic baked goods eggs vegetables fruits"},{"type":"market","name":"Castle Hills Farm To Market","website":"http://localfarmtomarket.com","facebook":"https://www.facebook.com/Castle-Hills-Farm-To-Market-343343119195490","twitter":"","street":"2211 NW Military","city":"Castle Hills ","state":"Texas","zip":"78213","x":"-98.522400","y":"29.534131","tags":"organic baked goods cheese crafts flowers eggs vegetables honey jams meat poultry prepared soap coffee fruits juices pet food"},{"type":"market","name":"Celebration Market in Sulphur Springs","website":"http://www.sulphurspringsfarmersmarket.com","facebook":"https://www.facebook.com/SulphurSpringsMarket","twitter":"","street":"Celebration Plaza ","city":"Sulphur Springs","state":"Texas","zip":"75482","x":"-95.6009552","y":"33.1382484","tags":"baked goods cheese crafts flowers eggs herbs vegetables honey jams meat nuts plants poultry prepared soap trees wine coffee fruits wild"},{"type":"market","name":"Celina's Friday Night Market","website":"http://celinamarketonthesquare.com/","facebook":"https://www.facebook.com/FridayNightMarketCelina/","twitter":"","street":"142 N Ohio Street","city":"Celina","state":"Texas","zip":"75009","x":"-96.7869845","y":"33.3247511","tags":"baked goods cheese crafts eggs herbs vegetables honey jams meat poultry prepared soap wine coffee fruits juices mushrooms pet food"},{"type":"market","name":"Central Texas Farmers Market","website":"","facebook":"","twitter":"","street":"2310 Bliss Spillar, Marbridge Ranch Nursery","city":"Manchaca","state":"Texas","zip":"78652","x":"-97.8554","y":"30.1364","tags":""},{"type":"market","name":"Cibolo Grange Farmers & Artisans Market","website":"","facebook":"https://www.facebook.com/CiboloGrangeFarmersMarket/","twitter":"","street":"413 N Main Street","city":"Cibolo","state":"Texas","zip":"78108","x":"-98.2297673","y":"29.5647022","tags":"baked goods crafts eggs herbs vegetables honey jams meat soap fruits mushrooms pet food"},{"type":"market","name":"City Hall Farmers Market","website":"http://www.houstontx.gov/specialevents/","facebook":"","twitter":"","street":"901 Bagby St.","city":"Houston","state":"Texas","zip":"77002","x":"-95.3693","y":"29.7602","tags":"baked goods cheese flowers herbs vegetables jams nuts plants prepared"},{"type":"market","name":"Cleburne Farmers Market","website":"","facebook":"Cleburne Farmer's Market","twitter":"","street":"141 S Ridgeway Drive","city":"Cleburne","state":"Texas","zip":"76033","x":"-97.407713","y":"32.339893","tags":"baked goods cheese crafts eggs herbs vegetables honey jams maple meat poultry prepared soap coffee fruits pet food"},{"type":"market","name":"Colwell's Farmers Market","website":"","facebook":"https://www.facebook.com/colwellmarket","twitter":"","street":"9079 HWY377","city":"Collinsville ","state":"Texas","zip":"76240","x":"-96.9110998","y":"33.5491175","tags":"eggs vegetables honey jams plants soap fruits"},{"type":"market","name":"Comfort Area Farmers Market","website":"http://www.comfortchamberofcommerce.com/","facebook":"","twitter":"","street":"427 Main at Highway 27 and Broadway","city":"Comfort","state":"Texas","zip":"78013","x":"-98.91297","y":"29.96761","tags":"baked goods crafts eggs vegetables honey jams nursery plants soap"},{"type":"market","name":"Concho Valley Farmers Market","website":"","facebook":"","twitter":"","street":"609 South Oakes","city":"San Angelo","state":"Texas","zip":"76903","x":"-100.432","y":"31.4555","tags":""},{"type":"market","name":"Coppell Farmers Market","website":"http://www.coppellfarmersmarket.org","facebook":"https://www.facebook.com/pages/Coppell-Farmers-Market/112423382177?ref=br_tf","twitter":"https://twitter.com/coppellfm","street":"768 W. Main Street","city":"Coppell","state":"Texas","zip":"75019","x":"-97.007022","y":"32.952867","tags":"organic baked goods cheese crafts flowers eggs seafood herbs vegetables honey jams meat nuts plants poultry prepared soap coffee fruits grains juices mushrooms pet food wild"},{"type":"market","name":"Copperas Cove Farmers Market","website":"","facebook":"","twitter":"","street":"1506 Veterans Ave.","city":"Copperas Cove","state":"Texas","zip":"76522","x":"-98.185","y":"31.0708","tags":""},{"type":"market","name":"Corpus Christi Downtown Farmers' Market","website":"http://www.ccdowntownfm.com","facebook":"https://www.facebook.com/CorpusChristiDowntownFarmersMarket/","twitter":"https://twitter.com/ccdowntownfm","street":"100 N Shoreline Blvd","city":"Corpus Christi ","state":"Texas","zip":"78401","x":"-97.392206","y":"27.791601","tags":"baked goods cheese crafts flowers eggs herbs vegetables honey jams meat nuts plants poultry prepared soap wine coffee beans fruits juices mushrooms pet food wild"},{"type":"market","name":"Corpus Christi Southside Farmers' Market","website":"http://www.farmersmarketcc.org","facebook":"https://www.facebook.com/CCFarmersMarket","twitter":"","street":"5800 Block on  Everhart Rd.","city":"Corpus Christi","state":"Texas","zip":"78413","x":"-97.391425","y":"27.702789","tags":"baked goods cheese crafts eggs seafood herbs vegetables honey jams meat poultry prepared soap trees coffee fruits"},{"type":"market","name":"Cowtown Farmers Market","website":"http://www.cowtownmarket.com","facebook":"@cowtownfarmersmkt","twitter":"","street":"3821 SOUTHWEST BLVD","city":"Fort Worth ","state":"Texas","zip":"","x":"-97.442048","y":"32.716447","tags":"baked goods cheese flowers eggs herbs vegetables honey jams meat nuts plants poultry prepared soap coffee fruits mushrooms pet food"},{"type":"market","name":"Cross Timbers Food Cooperative","website":"http://www.crosstimbers.locallygrown.net","facebook":"","twitter":"","street":"","city":"Denton","state":"Texas","zip":"76201","x":"-97.1331","y":"33.2235","tags":""},{"type":"market","name":"Cuero Farmers Market","website":"","facebook":"","twitter":"","street":"Cuero City Park Entrance","city":"Cuero","state":"Texas","zip":"77954","x":"-97.1686","y":"28.9695","tags":""},{"type":"market","name":"Dallas Farmers Market","website":"http://www.dallasfarmersmarket.org","facebook":"https://www.facebook.com/DFMDallasFarmersMarket/","twitter":"https://twitter.com/dallasfarmer","street":"920 S. Harwood Rd.","city":"Dallas","state":"Texas","zip":"75201","x":"-96.789378","y":"32.777649","tags":"organic baked goods cheese crafts flowers eggs seafood herbs vegetables honey jams meat nuts plants poultry prepared soap wine coffee fruits grains juices mushrooms"},{"type":"market","name":"Deaf Smith Chamber of Commerce Farmers Market","website":"","facebook":"","twitter":"","street":"200 E. Park Avenue","city":"Hereford","state":"Texas","zip":"79045","x":"-102.404","y":"34.8221","tags":""},{"type":"market","name":"Denton Community Market","website":"http://www.dentonmarket.org","facebook":"https://www.facebook.com/DentonCommunityMarket","twitter":"https://twitter.com/DentonMarket","street":"317 W. Mulberry St","city":"Denton","state":"Texas","zip":"76201","x":"-97.136403","y":"33.213199","tags":"organic baked goods cheese crafts flowers eggs herbs vegetables honey jams meat plants poultry prepared soap coffee fruits juices pet food tofu"},{"type":"market","name":"Downtown Arlington Farmers Market","website":"http://WWW.downtownarlingtonfarmersmarket.com","facebook":"https://www.facebook.com/downtownarlingtonfarmersmarket","twitter":"","street":"215 E Front Street","city":"Arlington ","state":"Texas","zip":"76010","x":"-97.104737","y":"32.737817","tags":"baked goods crafts eggs vegetables honey jams meat poultry soap fruits"},{"type":"market","name":"Downtown Buda Farmers Market ","website":"","facebook":"https://www.facebook.com/dbfma","twitter":"","street":"121 N. Main Street","city":"Buda","state":"Texas","zip":"78610","x":"-97.8433","y":"30.0811","tags":""},{"type":"market","name":"Downtown Canton Farmers Market","website":"https://www.cantonmainstreet.org/farmers-market/","facebook":"https://www.facebook.com/CantonTexasMainStreetProgram?ref=hl","twitter":"","street":"202 N. Buffalo St.","city":"Canton","state":"Texas","zip":"75103","x":"-95.863185","y":"32.557360","tags":"organic baked goods eggs herbs vegetables honey jams maple meat plants poultry prepared soap trees coffee fruits grains juices wild"},{"type":"market","name":"Downtown Denison Farmers Market","website":"http://www.downtowndenisonfarmersmarket.com","facebook":"https://www.facebook.com/denison.farmermarket?fref=ts","twitter":"","street":"701 W. Main St.","city":"Denison","state":"Texas","zip":"75020","x":"-96.545350","y":"33.755828","tags":"baked goods crafts flowers eggs herbs vegetables honey jams meat nuts plants soap fruits"},{"type":"market","name":"Downtown Farmers Market I","website":"","facebook":"","twitter":"","street":"600 W. Rosedale","city":"Fort Worth","state":"Texas","zip":"76141","x":"-97.3308","y":"32.7332","tags":""},{"type":"market","name":"Downtown Farmers Market II","website":"","facebook":"","twitter":"","street":"4800 S. Hulen Street","city":"Fort Worth","state":"Texas","zip":"76141","x":"-97.3962","y":"32.6769","tags":""},{"type":"market","name":"Downtown Farmers Market III","website":"","facebook":"","twitter":"","street":"8101 Camp Bowie","city":"Fort Worth","state":"Texas","zip":"76141","x":"-97.4555","y":"32.7235","tags":""},{"type":"market","name":"Downtown Farmers' Market Victoria","website":"http://Downtownfarmersmarketvictoria.org","facebook":"VictoriaDowntownFarmersMarket","twitter":"VictoriaDTFM","street":"101 N Main St","city":"Victoria","state":"Texas","zip":"77901","x":"-97.006456","y":"28.799726","tags":"baked goods flowers eggs herbs vegetables honey jams meat nuts plants prepared soap trees wine fruits"},{"type":"market","name":"Downtown Forney Artisan & Farmers Market","website":"http://www.downtownforneymarket.com","facebook":"https://www.facebook.com/DowntownForneyArtisanandFarmersMarket/","twitter":"https://twitter.com/Forney2ndSat","street":"210 E. Broad St.","city":"Forney","state":"Texas","zip":"75126","x":"-96.4694000","y":"32.7478614","tags":"baked goods crafts flowers eggs vegetables honey jams meat plants prepared soap coffee fruits wild"},{"type":"market","name":"Downtown Waxahachie Farmers Market","website":"http://www.waxahachie.com/Departments/DowntownDevelopment/DowntownFarmersMarket","facebook":"https://www.facebook.com/DowntownWaxahachieFarmersMarket/?ref=bookmarks","twitter":"","street":"410 S. Rogers","city":"Waxahachie ","state":"Texas","zip":"75165","x":"-96.8501028","y":"32.3832651","tags":"baked goods cheese crafts flowers eggs herbs vegetables honey jams meat nuts plants prepared soap coffee fruits grains juices"},{"type":"market","name":"Downtown Wichita Falls Farmers Market","website":"http://downtownproud.com/downtown-wichita-falls-farmers-market/","facebook":"https://www.facebook.com/DowntownWFFarmersMarket/","twitter":"","street":"713 Ohio Ave.","city":"Wichita Falls","state":"Texas","zip":"76301","x":"-98.489528","y":"33.913521","tags":"baked goods cheese crafts flowers eggs herbs vegetables honey jams meat soap wine fruits"},{"type":"market","name":"Dripping Springs Farmers Market","website":"http://cityofdrippingsprings.com","facebook":"Dripping Springs Farmers Market - Official","twitter":"","street":"140 East Mercer Street","city":"Dripping Springs ","state":"Texas","zip":"78620","x":"-98.0864453","y":"30.1922992","tags":"organic baked goods cheese crafts flowers eggs herbs vegetables honey jams meat nuts poultry prepared soap wine coffee fruits mushrooms pet food"},{"type":"market","name":"East End Market","website":"http://eastendfoundation.org","facebook":"https://www.facebook.com/eastendfarmersmarket/","twitter":"https://twitter.com/eestreetmarket","street":"2600 Navigation Blvd.","city":"Houston","state":"Texas","zip":"77003","x":"-95.342978","y":"29.757511","tags":"baked goods cheese crafts flowers eggs seafood herbs vegetables honey jams meat nuts plants poultry prepared soap wine coffee fruits juices mushrooms pet food"},{"type":"market","name":"East Texas Farmers Market","website":"","facebook":"","twitter":"","street":"1836 S. Jackson","city":"Jacksonville","state":"Texas","zip":"75766","x":"-95.3009","y":"32.2981","tags":""},{"type":"market","name":"East Texas State Fair Farmers Market","website":"http://www.etstatefair.com/p/Get-Involved/193","facebook":"https://www.facebook.com/etstatefair","twitter":"https://twitter.com/ETSFarmerMarket","street":"2112 W. Front St. (South Pavilion) ","city":"Tyler","state":"Texas","zip":"75702","x":"-95.324795","y":"32.344227","tags":"baked goods crafts flowers eggs herbs vegetables jams plants soap fruits grains"},{"type":"market","name":"Eden's Organic Garden Center ","website":"","facebook":"https://www.facebook.com/cityofedgewaterfamersmarket","twitter":"","street":"4710 Pioneer Road","city":"Balch Springs ","state":"Texas","zip":"75180","x":"-96.6011","y":"32.7062","tags":""},{"type":"market","name":"El Centro de Laredo Farmers Market","website":"http://laredomainstreet.org/","facebook":"laredomainstreet","twitter":"laredomainstreet","street":"1301 Farragut St.","city":"Laredo","state":"Texas","zip":"78040","x":"-99.508713","y":"27.505348","tags":"organic baked goods flowers eggs seafood herbs vegetables honey jams meat nuts plants poultry prepared soap trees coffee fruits juices pet food wild"},{"type":"market","name":"El Paso Downtown Artist and Farmers Market ","website":"http://mcad.elpasotexas.gov/art-and-farmers-market","facebook":"https://www.facebook.com/EPDowntownArtistMarket/","twitter":"https://twitter.com/mcadelpaso","street":"117 Anthony","city":"El Paso","state":"Texas","zip":"79901","x":"-106.494288","y":"31.756883","tags":"baked goods cheese crafts flowers eggs herbs vegetables honey jams meat nuts plants prepared soap trees coffee beans fruits juices mushrooms pet food tofu wild"},{"type":"market","name":"El Paso Farmers Market","website":"","facebook":"","twitter":"","street":"6375 Montana","city":"El Paso","state":"Texas","zip":"79902","x":"-106.406","y":"31.7885","tags":""},{"type":"market","name":"El Paso Farmers Market I","website":"","facebook":"","twitter":"","street":"816 S. Florence","city":"El Paso","state":"Texas","zip":"79902","x":"-106.481","y":"31.753","tags":""},{"type":"market","name":"El Paso Growers Association I","website":"","facebook":"","twitter":"","street":"9484 Dyer Street","city":"El Paso","state":"Texas","zip":"79902","x":"-106.421","y":"31.881","tags":""},{"type":"market","name":"El Paso Growers Association III","website":"","facebook":"","twitter":"","street":"1120 McRae","city":"El Paso","state":"Texas","zip":"79902","x":"-106.355","y":"31.7608","tags":""},{"type":"market","name":"El Paso Growers Association IV","website":"","facebook":"","twitter":"","street":"655 Sunland Park Drive","city":"El Paso","state":"Texas","zip":"79902","x":"-106.541","y":"31.8198","tags":""},{"type":"market","name":"El Pason Farmers Market II","website":"","facebook":"","twitter":"","street":"411 N. Zaragosa Road","city":"El Paso","state":"Texas","zip":"79902","x":"-106.323","y":"31.7011","tags":""},{"type":"market","name":"Ennis Farmers Market","website":"http://ennistx.com/farmers-market","facebook":"https://www.facebook.com/ennistxfarmersmarket/?ref=bookmarks","twitter":"","street":"104 North McKinney Street ","city":"Ennis ","state":"Texas","zip":"75119","x":"-96.629391","y":"32.327630","tags":"baked goods crafts flowers eggs herbs vegetables honey jams maple meat nuts plants prepared soap trees coffee beans fruits grains pet food"},{"type":"market","name":"Farmer's and Artisan's Market at the Legacy","website":"","facebook":"https://www.facebook.com/FarmersAndArtisansMarketAtTheLegacy?ref=tn_tnmn","twitter":"","street":"1902 North Loop 1604 E. ( Next to the Amusement Center)","city":"San Antonio","state":"Texas","zip":"78259","x":"-98.466205","y":"29.609803","tags":"baked goods eggs vegetables honey jams meat plants prepared soap fruits"},{"type":"market","name":"Farmers Branch Market","website":"http://www.farmersbranchmarket.com/","facebook":"www.facebook.com/farmersbranchmarket","twitter":"","street":"12700 Denton Drive","city":"Farmers Branch","state":"Texas","zip":"75234","x":"-96.8952798","y":"32.9178496","tags":"baked goods crafts eggs vegetables honey jams poultry soap wine coffee fruits pet food"},{"type":"market","name":"Farmers Market ","website":"http://www.localharvest.org/farmers-market-M38657","facebook":"","twitter":"","street":"14411 State Highway 31 E","city":"Brownsboro","state":"Texas","zip":"75756","x":"-95.6143","y":"32.3027","tags":""},{"type":"market","name":"Farmers Market - Clyde, Texas ","website":"http://www.localharvest.org/farmers-market-clyde-texas-M50854","facebook":"","twitter":"","street":"North First Street","city":"Clyde","state":"Texas","zip":"79510","x":"-99.4975","y":"32.4067","tags":""},{"type":"market","name":"Farmers Market - Greenville, TX ","website":"http://www.greenvillefarmersmarket.com/","facebook":"","twitter":"","street":"Market Square, East Lee Street at Bois d'Arc","city":"Greenville","state":"Texas","zip":"75401","x":"-96.1089","y":"33.1399","tags":""},{"type":"market","name":"Farmers Market at Imperial","website":"http://www.imperialsugarland.com/farmersmarket","facebook":"https://www.facebook.com/FarmersMarketAtImperial","twitter":"","street":"198 Kempner Street","city":"Sugar Land","state":"Texas","zip":"77498","x":"-95.637714","y":"29.619915","tags":"organic baked goods cheese crafts flowers eggs seafood herbs vegetables honey jams maple meat nuts plants poultry prepared soap trees wine coffee fruits"},{"type":"market","name":"Farmers Market at LaCenterra","website":"","facebook":"","twitter":"","street":"23501 Cinco Ranch Boulevard","city":"Katy","state":"Texas","zip":"","x":"-95.7757","y":"29.7431","tags":""},{"type":"market","name":"Farmers Market in Denison ","website":"http://www.localharvest.org/farmers-market-in-denison-M31921","facebook":"","twitter":"","street":"1 block west of Main St.","city":"Denison","state":"Texas","zip":"75090","x":"-96.5269","y":"33.755","tags":""},{"type":"market","name":"Farmers Market of Grapevine ","website":"http://www.farmersmarketofgrapevine.com/Grapevine_Farmers_Market.html","facebook":"","twitter":"","street":"325 S Main Street","city":"Grapevine","state":"Texas","zip":"76051","x":"-97.0781","y":"32.9382","tags":""},{"type":"market","name":"Farmers Market On Grand Parkway","website":"http://www.farmersmarketongrandparkway.com","facebook":"https://www.facebook.com/farmersmarketongrandparkway","twitter":"","street":"1225 West Grand Parkway South","city":"Katy, Texas","state":"Texas","zip":"77494","x":"-95.775004","y":"29.762524","tags":"organic baked goods crafts eggs seafood herbs vegetables honey jams meat plants poultry prepared soap coffee beans fruits grains juices mushrooms pet food wild"},{"type":"market","name":"Feast of Artisans Farmers Market","website":"http://www.feastofartisans.com","facebook":"https://www.facebook.com/pages/Feast-of-Artisans-a-market-of-fresh-local-produce-food-art/100340846738011","twitter":"https://twitter.com/FeastofArtisans","street":"1207 N. FM 3083 East","city":"Conroe ","state":"Texas","zip":"77303","x":"-95.432957","y":"30.346584","tags":"baked goods crafts eggs herbs vegetables jams prepared soap wine coffee fruits"},{"type":"market","name":"Four Seasons Market - Richardson","website":"http://www.fourseasonsmarkets.com","facebook":"","twitter":"","street":"677 W. Campbell Rd","city":"Richardson","state":"Texas","zip":"75080","x":"-96.743052","y":"32.977879","tags":"baked goods cheese crafts flowers eggs herbs vegetables honey jams meat nursery nuts plants soap trees wine"},{"type":"market","name":"Fredericksburg Farmers Market, Fredericksburg TX","website":"http://www.fredericksburgfarmersmarket.com","facebook":"","twitter":"","street":"100 block West Main Street","city":"Fredericksburg","state":"Texas","zip":"78624","x":"-98.873134","y":"30.276080","tags":"organic baked goods cheese eggs herbs vegetables jams meat poultry prepared soap wine"},{"type":"market","name":"Freiheit Village Farmers Market","website":"http://www.freiheitvillagefm.com","facebook":"www.facebook.com/freiheitvillagefm","twitter":"","street":"2032 Central Plaza","city":"New Braunfels","state":"Texas","zip":"78130","x":"-98.072988","y":"29.717952","tags":"baked goods crafts flowers eggs vegetables honey jams meat plants prepared soap wine coffee fruits juices"},{"type":"market","name":"Friendswood Farmers Market","website":"http://friendswoodmarket.com","facebook":"https://www.facebook.com/FriendswoodMarket","twitter":"","street":"1100 S Friendswood Dr.","city":"Friendswood","state":"Texas","zip":"77546","x":"-95.191302","y":"29.520767","tags":"organic baked goods eggs seafood herbs vegetables honey jams meat nuts plants poultry prepared soap trees coffee fruits grains juices mushrooms pet food"},{"type":"market","name":"Frisco Rotary Farmers Market","website":"http://www.friscorotaryfarmersmarket.com","facebook":"https://www.facebook.com/FriscoRotaryFarmersMarket","twitter":"","street":"6048 Frisco Square Blvd","city":"Frisco","state":"Texas","zip":"75034","x":"-96.832204","y":"33.151201","tags":"baked goods crafts eggs vegetables honey jams nuts poultry soap coffee fruits pet food wild"},{"type":"market","name":"Galveston West End Market","website":"","facebook":"","twitter":"","street":"6511 Stewart Rd","city":"Galveston","state":"Texas","zip":"77551","x":"-94.8349","y":"29.2737","tags":"organic baked goods cheese crafts seafood herbs vegetables honey jams meat nuts plants prepared soap"},{"type":"market","name":"Galveston's Own Farmers Market ","website":"","facebook":"https://www.facebook.com/GalvestonsOwnFarmersMarket","twitter":"","street":"2508 Postoffice","city":"Galveston","state":"Texas","zip":"","x":"-94.7961","y":"29.3039","tags":""},{"type":"market","name":"Gay Hill Farmer's Market","website":"http://www.discounttreesofbrenham.com","facebook":"https://www.facebook.com/discounttrees","twitter":"","street":"10050 Highway 36 North","city":"Brenham","state":"Texas","zip":"77833","x":"-96.479015","y":"30.276812","tags":"baked goods flowers eggs herbs vegetables jams soap trees fruits"},{"type":"market","name":"Georgetown Farmers Market","website":"http://www.gtfma.com","facebook":"https://www.facebook.com/pages/Georgetown-Farmers-Market-Assoc/195857010450938","twitter":"","street":"1525 W. University Ave ","city":"Georgetown","state":"Texas","zip":"78628","x":"-97.685750","y":"30.561622","tags":"baked goods eggs herbs vegetables honey jams meat nuts poultry prepared soap fruits"},{"type":"market","name":"Georgetown Farmers Market I","website":"http://www.gtfma.com","facebook":"","twitter":"","street":"Courthouse Square","city":"Georgetown","state":"Texas","zip":"78626","x":"-97.6769","y":"30.6376","tags":""},{"type":"market","name":"Georgetown Farmers Market II","website":"http://www.gtfma.com","facebook":"","twitter":"","street":"Sun City","city":"Georgetown","state":"Texas","zip":"78626","x":"-97.6782","y":"30.6399","tags":""},{"type":"market","name":"Get Moving Houston Farmers Market - Acres Homes","website":"http://gohealthyhouston.org/farmersmarkets/","facebook":"www.facebook.com/gohealthyhouston/","twitter":"twitter.com/GoHealthyHTX","street":"6719 W. Montgomery ","city":"Houston","state":"Texas","zip":"77091","x":"-95.422239","y":"29.857439","tags":"vegetables fruits"},{"type":"market","name":"Get Moving Houston Farmers Market - Denver Harbor ","website":"http://gohealthyhouston.org/farmersmarkets/","facebook":"www.facebook.com/gohealthyhouston/","twitter":"twitter.com/GoHealthyHTX","street":"6402 Market St. ","city":"Houston","state":"Texas","zip":"77020","x":"-95.386342","y":"29.780472","tags":"vegetables fruits"},{"type":"market","name":"Get Moving Houston Farmers Market - Hiram Clarke ","website":"http://gohealthyhouston.org/farmersmarkets/","facebook":"www.facebook.com/gohealthyhouston/","twitter":"twitter.com/GoHealthyHTX","street":"3810 W. Fuqua St. ","city":"Houston","state":"Texas","zip":"77045","x":"-95.433550","y":"29.614043","tags":"vegetables fruits"},{"type":"market","name":"Get Moving Houston Farmers Market - Magnolia","website":"http://gohealthyhouston.org/farmersmarkets/","facebook":"www.facebook.com/gohealthyhouston/","twitter":"twitter.com/GoHealthyHTX","street":"7037 Capitol St. 77011","city":"Houston","state":"Texas","zip":"77011","x":"-95.300902","y":"29.734482","tags":"vegetables fruits"},{"type":"market","name":"Get Moving Houston Farmers Market - Northeast","website":"http://gohealthyhouston.org/farmersmarkets/","facebook":"www.facebook.com/gohealthyhouston/","twitter":"twitter.com/GoHealthyHTX","street":"9720 Spaulding St. 77016","city":"Houston","state":"Texas","zip":"77016","x":"-95.304197","y":"29.851549","tags":"vegetables fruits"},{"type":"market","name":"Get Moving Houston Farmers Market - Southwest","website":"http://gohealthyhouston.org/farmersmarkets/","facebook":"www.facebook.com/gohealthyhouston/","twitter":"twitter.com/GoHealthyHTX","street":"6400 High Star Dr. ","city":"Houston ","state":"Texas","zip":"77074","x":"-95.496227","y":"29.711246","tags":"vegetables fruits"},{"type":"market","name":"Get Moving Houston Farmers Market - Sunnyside","website":"http://gohealthyhouston.org/farmersmarkets/","facebook":"www.facebook.com/gohealthyhouston/","twitter":"twitter.com/GoHealthyHTX","street":"9314 Cullen St. 77051","city":"Houston","state":"Texas","zip":"77051","x":"-95.356477","y":"29.656412","tags":"vegetables fruits"},{"type":"market","name":"Golden Spread Farmers Market","website":"http://www.goldenspreadfarmers.com","facebook":"https://www.facebook.com/pages/Golden-Spread-Farmers-Market/121355639342","twitter":"","street":"15th & Pecos","city":"Amarillo","state":"Texas","zip":"79109","x":"-101.877799","y":"35.198927","tags":"baked goods eggs vegetables jams meat fruits"},{"type":"market","name":"Good Local Markets at Vickery Meadow","website":"http://www.goodlocalmarkets.org","facebook":"Good Local Markets","twitter":"","street":"5803 E. Northwest Highway","city":"Dallas","state":"Texas","zip":"75231","x":"-96.7647804","y":"32.8661784","tags":"baked goods cheese crafts flowers eggs herbs vegetables honey jams meat nuts plants poultry prepared soap trees fruits juices mushrooms pet food"},{"type":"market","name":"Good Local Markets White Rock Farmers Market","website":"http://www.goodlocalmarkets.org","facebook":"Good Local Markets","twitter":"","street":"9150 Garland Road","city":"Dallas","state":"Texas","zip":"75218","x":"-96.706935","y":"32.829427","tags":"baked goods cheese crafts flowers eggs herbs vegetables honey jams meat nuts plants poultry prepared soap trees coffee fruits grains juices mushrooms pet food tofu wild"},{"type":"market","name":"Grand Prairie Farmers Market","website":"http://GPTX.org/FarmersMarket","facebook":"FB.com/FarmersMarketGP","twitter":"@GrandFunGP","street":"120 W Main St","city":"Grand Prairie","state":"Texas","zip":"75050","x":"-97.0045430","y":"32.7458227","tags":"baked goods cheese crafts flowers eggs seafood herbs vegetables honey jams maple meat nuts plants poultry prepared soap trees wine coffee beans fruits grains juices mushrooms tofu wild"},{"type":"market","name":"Green Gate Farms","website":"http://www.greengatefarms.net","facebook":"","twitter":"","street":"8310 Canoga Avenue","city":"Austin","state":"Texas","zip":"78724","x":"-97.6353","y":"30.285","tags":""},{"type":"market","name":"Grow'n Growers Farmers Market ","website":"","facebook":"https://www.facebook.com/grow.n.growers","twitter":"","street":"Firemen's Park, Corner of 1st Street & Bus 83","city":"McAllen","state":"Texas","zip":"78501","x":"-98.2193","y":"26.2014","tags":""},{"type":"market","name":"Guadalupe Valley Gardener's Market","website":"http://www.guadalupevalleygardenersmarket.com","facebook":"","twitter":"","street":"100 E Donegan","city":"Seguin","state":"Texas","zip":"78155","x":"-97.9637","y":"29.5679","tags":"vegetables honey"},{"type":"market","name":"Guadalupe Valley Gardener's Market","website":"http://www.guadalupevalleygardenersmarket.com","facebook":"","twitter":"","street":"510 E. Court Street","city":"Seguin","state":"Texas","zip":"78155","x":"-97.9609","y":"29.5694","tags":"vegetables honey"},{"type":"market","name":"Handley Farmer's Market","website":"http://HandleyFM.net","facebook":"https://www.facebook.com/handleyfm","twitter":"","street":"7101 E Lancaster","city":"Fort Worth","state":"Texas","zip":"76112","x":"-97.2072988","y":"32.7303696","tags":"baked goods cheese crafts eggs vegetables honey jams maple meat prepared soap wine coffee fruits juices mushrooms"},{"type":"market","name":"Harker Heights Farmers Market","website":"http://www.ci.harker-heights.tx.us/index.php/programs-a-events/farmers-market","facebook":"https://www.facebook.com/harkerheightspr/","twitter":"","street":"850 West Central Texas Expressway","city":"Harker Heights","state":"Texas","zip":"76548","x":"-97.681611","y":"31.073245","tags":"baked goods crafts eggs herbs vegetables honey jams meat nuts poultry prepared soap coffee fruits grains juices pet food"},{"type":"market","name":"Harlingen Farmers Market","website":"http://www.harlingenfarmersmarket.com","facebook":"","twitter":"","street":"","city":"Harlingen","state":"Texas","zip":"78550","x":"-97.696103","y":"26.190631","tags":"baked goods crafts eggs seafood herbs vegetables jams meat nuts plants soap trees"},{"type":"market","name":"HemisView Farmers' Market","website":"http://www.safoodbank.org/index.php/programs/nutrition/farmers-market","facebook":"www.facebook.com/SAHAFarmersMarket?ref=hl","twitter":"","street":"818 South Flores Street","city":"San Antonio","state":"Texas","zip":"78204","x":"-98.498636","y":"29.414412","tags":"baked goods eggs herbs vegetables jams plants prepared trees fruits"},{"type":"market","name":"Hill Country Farmers Market Association","website":"http://www.hillcountryfarmersmarket.org","facebook":"","twitter":"","street":"24133 Boerne Stage Road","city":"San Antonio","state":"Texas","zip":"78255","x":"-98.6364","y":"29.6653","tags":"baked goods cheese flowers seafood herbs vegetables honey jams maple meat nuts plants prepared soap"},{"type":"market","name":"Hill Country Farmers Market Association","website":"http://www.hillcountryfarmersmarket.org","facebook":"","twitter":"","street":"13222 Bandera Road","city":"Helotes","state":"Texas","zip":"78023","x":"-98.6885","y":"29.567","tags":"baked goods cheese flowers seafood herbs vegetables honey jams maple meat nuts plants soap"},{"type":"market","name":"Hill Country Farmers Market Association","website":"http://www.hillcountryfarmersmarket.org","facebook":"","twitter":"","street":"801 South Main Street","city":"Boerne","state":"Texas","zip":"78006","x":"-98.7285","y":"29.7857","tags":"baked goods cheese flowers seafood herbs vegetables honey jams maple meat nuts plants soap"},{"type":"market","name":"Historic Longview Farmers Market","website":"http://www.historiclongviewfarmersmarket.com","facebook":"https://www.facebook.com/pages/Historic-Longview-Farmers-Market/159774267392817","twitter":"","street":"105 West Cotton Street","city":"Longview","state":"Texas","zip":"75605","x":"-94.7408857","y":"32.4940998","tags":"baked goods cheese crafts flowers eggs herbs vegetables honey jams meat plants poultry prepared soap wine fruits"},{"type":"market","name":"Historic McKinney Farmers Market at Chestnut Square Historic Village","website":"http://www.mckinneyfarmersmarket.com","facebook":"https://www.facebook.com/pages/McKinney-Farmers-Market/105274276195799","twitter":"","street":"315 S. Chestnut St.","city":"McKinney","state":"Texas","zip":"75069","x":"-96.6129760","y":"33.1938980","tags":"organic baked goods cheese crafts flowers eggs herbs vegetables honey jams meat nuts plants poultry prepared soap trees wine coffee beans fruits juices mushrooms pet food"},{"type":"market","name":"HOPE Farmers Market","website":"http://hopefarmersmarket.org/","facebook":"https://www.facebook.com/HOPEMarketATX","twitter":"https://twitter.com/hopemarketatx","street":"412 Comal Street","city":"Austin","state":"Texas","zip":"78703","x":"-97.727280","y":"30.262002","tags":"organic baked goods crafts eggs herbs vegetables jams meat nuts plants poultry prepared soap coffee beans fruits juices"},{"type":"market","name":"Huntsville Downtown Farmers Market","website":"http://www.htxdowntownfarmersmarket.com","facebook":"www.facebook.com/HuntsvilleMainStreet","twitter":"","street":"1100 University Avenue","city":"Huntsville","state":"Texas","zip":"77340","x":"-95.550467","y":"30.723087","tags":"baked goods crafts flowers eggs herbs vegetables honey plants prepared soap trees fruits"},{"type":"market","name":"Hutto Co-Op Market Nights","website":"http://visithutto.com/231/CO-OP-Market-Nights","facebook":"https://www.facebook.com/downtownhutto/","twitter":"","street":"420 US Hwy 79","city":"Hutto","state":"Texas","zip":"78634","x":"-97.550922","y":"30.543434","tags":"baked goods crafts eggs herbs vegetables honey jams meat nuts plants poultry prepared soap coffee fruits pet food"},{"type":"market","name":"Hutto Farmers Market","website":"http://www.huttotx.gov","facebook":"Downtown Huto","twitter":"N/A","street":"208 East Street","city":"Hutto","state":"Texas","zip":"78634","x":"-97.548336","y":"30.545152","tags":"organic baked goods cheese crafts flowers eggs vegetables honey jams meat plants poultry prepared soap fruits pet food"},{"type":"market","name":"jackie moreno city Waco","website":"","facebook":"jackielawson25@yahoo.com","twitter":"","street":"1015 Hogan Lane appt. 6","city":"Waco","state":"Texas","zip":"76705","x":"-97.105075","y":"31.590965","tags":""},{"type":"market","name":"Jasper Farmers Market Association","website":"http://www.jasper.agrilife.org/jasper-county-farmers-market/","facebook":"","twitter":"","street":"Intersection of Hwys 190 and 96","city":"Jasper","state":"Texas","zip":"75951","x":"-93.995247","y":"30.911375","tags":"baked goods crafts flowers eggs herbs vegetables honey jams nuts plants soap trees fruits"},{"type":"market","name":"Jefferson County Master Gardeners","website":"","facebook":"","twitter":"","street":"S.E. Regional Airport","city":"Nederland","state":"Texas","zip":"77640","x":"-93.9499","y":"29.8912","tags":""},{"type":"market","name":"Jim Wells County Farmers Market","website":"","facebook":"https://www.facebook.com/JWCFarmersMarket/","twitter":"","street":"1464 E. Main Street","city":"Alice ","state":"Texas","zip":"78332","x":"-98.056203","y":"27.756638","tags":"baked goods crafts eggs herbs vegetables honey jams meat poultry soap fruits"},{"type":"market","name":"Keller Farmers Market","website":"https://www.kellerfarmersmarket.com/","facebook":"https://www.facebook.com/KellerFarmersMarket/","twitter":"https://twitter.com/KellerFarmersM","street":"400 Bear Creek Parkway","city":"Keller ","state":"Texas","zip":"76248","x":"-97.243807","y":"32.926757","tags":"organic baked goods cheese crafts flowers eggs herbs vegetables honey jams meat nuts plants poultry prepared soap coffee beans fruits mushrooms pet food tofu"},{"type":"market","name":"Kemah Farmers and Open Air Market","website":"http://www.kemahfarmersmarket.com","facebook":"https://www.facebook.com/KemahFarmersMarket","twitter":"","street":"204 FM 2094","city":"Kemah","state":"Texas","zip":"77565","x":"-95.0212","y":"29.54093","tags":"baked goods cheese crafts flowers eggs seafood vegetables honey jams meat plants poultry prepared soap trees fruits"},{"type":"market","name":"Laguna Vista Farmers Market","website":"","facebook":"","twitter":"","street":"1 Golf House Road","city":"Laguna Vista","state":"Texas","zip":"78578","x":"-97.309153","y":"26.112261","tags":"baked goods vegetables"},{"type":"market","name":"Legacy Farmers Market","website":"http://legacyfarmersmarket.com","facebook":"www.facebook.com/LegacyFarmersMarket","twitter":"","street":" 18402 US Highway 281 N","city":"San Antonio","state":"Texas","zip":"78259","x":"-98.465436","y":"29.609419","tags":"baked goods cheese crafts eggs vegetables honey jams meat nuts soap coffee fruits pet food"},{"type":"market","name":"Little Elm Farmers' Market","website":"http://www.littleelm.org/FM","facebook":"https://www.facebook.com/LittleElmFarmersMarket","twitter":"https://twitter.com/LEFarmersMarket","street":"Eldorado and FM 423","city":"Little Elm","state":"Texas","zip":"75068","x":"-96.8873756","y":"33.1782705","tags":"baked goods cheese crafts flowers eggs herbs vegetables honey jams meat plants poultry prepared trees fruits"},{"type":"market","name":"Livingston Farmers Market Co-op","website":"","facebook":"","twitter":"","street":"111 U.S. Highway 59 North Loop","city":"Livingston","state":"Texas","zip":"77351","x":"-94.947","y":"30.6733","tags":""},{"type":"market","name":"Local Kerrville Farmers Market ","website":"","facebook":"https://www.facebook.com/pages/The-Local-Kerrville-Farmers-Market/180694945307394","twitter":"","street":"945 Barnett St. ","city":"Kerrville","state":"Texas","zip":"78028","x":"-99.1337","y":"30.0474","tags":""},{"type":"market","name":"Locavore Farmers' Market ","website":"http://www.localharvest.org/locavore-farmers-market-M43502","facebook":"https://www.facebook.com/pages/Locavore-Farmers-Market/161905513835989","twitter":"","street":"11330 Louetta Rd. (United Methodist Church Parkign Lot) ","city":"Houston","state":"Texas","zip":"77070","x":"-95.5888","y":"29.9979","tags":""},{"type":"market","name":"Lockhart Main Street Farmers' Market ","website":"http://www.mainandmarket.wordpress.com/","facebook":"https://www.facebook.com/MainStreetMarketLockhart","twitter":"","street":"217 South Main Street","city":"Lockhart","state":"Texas","zip":"78644","x":"-97.6721","y":"29.8835","tags":""},{"type":"market","name":"Lone Star Farmers Market","website":"http://www.lonestarfarmersmarket.com/","facebook":"www.facebook.com/LoneStarFarmersMarket","twitter":"https://twitter.com/LoneStar_Market","street":"12611 Suite 100 Shops Parkway","city":"Bee Cave","state":"Texas","zip":"78738","x":"-97.942188","y":"30.305670","tags":"organic baked goods cheese crafts flowers eggs seafood herbs vegetables honey jams maple meat plants poultry prepared soap trees fruits"},{"type":"market","name":"Main Plaza Farmers' Market","website":"http://www.safoodbank.org/index.php/programs/nutrition/farmers-market","facebook":"www.facebook.com/pages/Main-Plaza-Farmers-Market/100347100038767","twitter":"","street":"115 Main Ave","city":"San Antonio","state":"Texas","zip":"78205","x":"-98.49381","y":"29.42429","tags":"baked goods eggs herbs vegetables plants prepared trees"},{"type":"market","name":"Mansfield Farmers Market","website":"http://www.mansfieldtxfarmersmarket.com","facebook":"www.facebook.com/mansfieldtxfarmersmarket","twitter":"","street":"703 East Broad Street","city":"Mansfield","state":"Texas","zip":"76063","x":"-97.134052","y":"32.564588","tags":"baked goods cheese crafts eggs herbs vegetables honey jams meat plants prepared soap trees coffee beans fruits grains"},{"type":"market","name":"Market Square, Farmers Market","website":"http://www.paristexas.gov/index.aspx?nid=319","facebook":"https://www.facebook.com/pages/Market-Square-Farmers-Market-Paris-Texas/124927590924139","twitter":"","street":"400 1ST Street S.W.","city":"Paris, Texas","state":"Texas","zip":"75460","x":"-95.557366","y":"33.657897","tags":"baked goods cheese crafts flowers eggs vegetables honey jams meat plants soap wine coffee fruits"},{"type":"market","name":"McAllen Farmers Market","website":"http://mcallenfarmersmarket.com","facebook":"https://www.facebook.com/McAllenFarmersMarket","twitter":"https://twitter.com/McAFarmersMKT ","street":"4001 N. 23rd St.","city":"McAllen ","state":"Texas","zip":"78504","x":"-98.2419797","y":"26.2415968","tags":"organic baked goods crafts eggs herbs vegetables honey jams meat nuts plants prepared soap trees fruits juices"},{"type":"market","name":"Mercado Mayapan","website":"http://www.mujerobrera.org","facebook":"La Mujer Obrera","twitter":"La Mujer Obrera ","street":"2000 Texas Ave","city":"El Paso ","state":"Texas","zip":"79901","x":"-106.467575","y":"31.771173","tags":"herbs vegetables honey jams plants fruits"},{"type":"market","name":"Midland Downtown Farmers' Market ","website":"http://www.midlanddowntownfarmersmarket.com","facebook":"https://www.facebook.com/Midland-Downtown-Farmers-Market-328008641051/","twitter":"https://twitter.com/AtMDFM","street":"1705 W. Missouri","city":"Midland ","state":"Texas","zip":"79701","x":"-102.0924129","y":"31.9932150","tags":"baked goods cheese crafts eggs herbs vegetables honey jams meat nuts plants prepared soap coffee fruits grains pet food"},{"type":"market","name":"Midtown Farmers Market","website":"","facebook":"","twitter":"","street":"3701 Travis Street","city":"Houston","state":"Texas","zip":"77002","x":"-95.3664","y":"29.7558","tags":""},{"type":"market","name":"Mineola Main Street Farmers Market","website":"https://mineolafarmersmarket.com/","facebook":"https://www.facebook.com/mineolafarmersmarket/","twitter":"","street":"115 E. Front St.","city":"Mineola","state":"Texas","zip":"75773","x":"-95.489641","y":"32.662165","tags":"baked goods crafts flowers eggs herbs vegetables honey jams meat plants poultry prepared soap coffee beans fruits juices"},{"type":"market","name":"Moore County Farmers Market","website":"","facebook":"","twitter":"","street":"McDade Park","city":"Dumas","state":"Texas","zip":"","x":"-101.966","y":"35.8503","tags":""},{"type":"market","name":"Mount Vernon Farmers Market","website":"","facebook":"https://www.facebook.com/mountvernontxfarmersmarket?ref=hl","twitter":"","street":"100 Main Street","city":"Mount Vernon","state":"Texas","zip":"75457","x":"-95.2214646","y":"33.1885572","tags":"baked goods crafts eggs vegetables honey jams maple plants prepared soap trees coffee beans"},{"type":"market","name":"Mount Vernon Farmers Market - Non Festival Days","website":"","facebook":"https://www.facebook.com/mountvernontxfarmersmarket?fref=ts","twitter":"","street":"113 East Main St.","city":"Mount Vernon","state":"Texas","zip":"75457","x":"-95.221391","y":"33.188902","tags":"baked goods crafts eggs herbs vegetables honey jams plants soap trees fruits"},{"type":"market","name":"Nacogdoches Farmers Market","website":"http://nacogdochesfarmersmarket.com","facebook":"nacogdochesfarmersmarket","twitter":"","street":"107 West Pearl","city":"Nacogdoches","state":"Texas","zip":"75961","x":"-94.6576128","y":"31.6048456","tags":"baked goods cheese crafts flowers eggs herbs vegetables honey jams meat nuts plants poultry prepared soap wine coffee fruits juices"},{"type":"market","name":"Natural Living Farmers Market ","website":"http://www.nlfmarket.webs.com/","facebook":"","twitter":"","street":"5702 Calhoun Road","city":"Houston","state":"Texas","zip":"77021","x":"-95.3458","y":"29.7026","tags":""},{"type":"market","name":"Navarro County Farmers Market Association","website":"","facebook":"","twitter":"","street":"Business Route Highway 75 at 6th Avenue","city":"Corsicana","state":"Texas","zip":"75110","x":"-96.4597","y":"32.0944","tags":""},{"type":"market","name":"Navasota Farmers Market ","website":"http://www.localharvest.org/navasota-farmers-market-M59065","facebook":"","twitter":"","street":"310 E. Washington","city":"Navasota","state":"Texas","zip":"77868","x":"-96.088","y":"30.3886","tags":""},{"type":"market","name":"New Braunfels Farmers Market","website":"http://www.nbfarmersmarket.com","facebook":"","twitter":"","street":"","city":"New Braunfels","state":"Texas","zip":"78130","x":"-98.1249","y":"29.7018","tags":""},{"type":"market","name":"North Central Texas Farmers Market Corporation III","website":"","facebook":"","twitter":"","street":"325 S. Main Street","city":"Grapevine","state":"Texas","zip":"76051","x":"-97.0783","y":"32.9382","tags":""},{"type":"market","name":"Northside Farmers Market","website":"","facebook":"","twitter":"","street":"North 3rd and Mesquite","city":"Abilene","state":"Texas","zip":"79601","x":"-99.7303","y":"32.4513","tags":""},{"type":"market","name":"NTCC Farmer's Market","website":"http://www.ntcc.edu.ag/","facebook":"https://www.facebook.com/groups/202823569872401/","twitter":"","street":"2886 FM 1735","city":"Mount Pleasant ","state":"Texas","zip":"75455","x":"-94.877911","y":"33.105936","tags":"baked goods cheese crafts flowers eggs herbs vegetables honey jams meat plants poultry prepared soap beans fruits"},{"type":"market","name":"Old Town Business Association","website":"","facebook":"","twitter":"","street":"Poydras Street Plaza","city":"Lewisville","state":"Texas","zip":"","x":"-96.9955","y":"33.0463","tags":""},{"type":"market","name":"Palo Alto College Farmers Market","website":"","facebook":"","twitter":"","street":"1400 W Villaret Blvd","city":"San Antonio","state":"Texas","zip":"78224","x":"-98.543052","y":"29.321634","tags":"vegetables jams prepared fruits juices tofu"},{"type":"market","name":"Peach Street Farmers Market","website":"http://Www.psfmarket.org","facebook":"Peach Street Farmers Market","twitter":"Psfmarket","street":"234 S. Arcola St.","city":"Angleton ","state":"Texas","zip":"77515","x":"-95.428973","y":"29.169195","tags":"baked goods crafts flowers eggs herbs vegetables jams plants coffee fruits"},{"type":"market","name":"Pearl Farmers Market","website":"http://atpearl.com/farmers_market","facebook":"https://www.facebook.com/pages/Pearl-Farmers-Market-San-Antonio-TX","twitter":"https://twitter.com/PearlFM","street":"303 Pearl Parkway","city":"San Antonio","state":"Texas","zip":"78215","x":"-98.480184","y":"29.442404","tags":"organic baked goods cheese flowers eggs seafood herbs vegetables honey jams meat nuts plants poultry prepared soap trees wine coffee beans fruits mushrooms"},{"type":"market","name":"Pearland Old Townsite Farmers Market","website":"http://www.PearlandOldTownsiteFarmersMarket.com","facebook":"https://www.facebook.com/pages/Pearland-Old-Townsite-Farmers-Market/289653605918","twitter":"","street":"2243 Grand Blvd.","city":"Pearland","state":"Texas","zip":"77581","x":"-95.2835","y":"29.5658","tags":"baked goods cheese crafts flowers eggs herbs vegetables honey jams maple meat nuts plants poultry prepared soap trees coffee fruits grains pet food"},{"type":"market","name":"Pedernales Farmers Market","website":"","facebook":"facebook.com/pedernalesfarmersmarket","twitter":"","street":"23526 TX-71","city":"Spicewood","state":"Texas","zip":"78669","x":"-98.084871","y":"30.387133","tags":"baked goods crafts flowers eggs seafood herbs vegetables honey jams meat plants poultry soap fruits grains pet food wild"},{"type":"market","name":"Permian Basin Farmers Market","website":"","facebook":"","twitter":"","street":"5021 Princeton Street","city":"Midland","state":"Texas","zip":"79703","x":"-102.15","y":"31.9954","tags":""},{"type":"market","name":"Pflugerville Pfarmers Market","website":"http://www.pflugervilletx.gov/pfarmersmarket","facebook":"","twitter":"","street":"901 Old Austin Hutto Road","city":"Pflugerville","state":"Texas","zip":"78660","x":"-97.606001","y":"30.442585","tags":"organic baked goods crafts flowers eggs herbs vegetables honey jams meat nuts plants poultry prepared soap coffee fruits mushrooms pet food wild"},{"type":"market","name":"Pharrmers Market","website":"http://www.foodbankrgv.com/howwework-2/pharrmers-market","facebook":"https://www.facebook.com/pharrmersmarket/?fref=ts","twitter":"","street":"724 N. Cage Blvd ","city":"Pharr ","state":"Texas","zip":"78577","x":"-98.1816051","y":"26.2016033","tags":"baked goods cheese crafts flowers eggs vegetables honey jams nuts plants prepared soap trees fruits grains juices wild"},{"type":"market","name":"Quarry Farmers & Ranchers Market","website":"http://www.quarryfarmersmarket.com","facebook":"https://www.facebook.com/quarryfarmersmarket","twitter":"https://twitter.com/quarryfm","street":"255 E Basse Road","city":"San Antonio","state":"Texas","zip":"78209","x":"-98.480976","y":"29.494037","tags":"organic baked goods cheese flowers eggs herbs vegetables honey jams meat nuts plants poultry prepared soap trees coffee fruits juices pet food"},{"type":"market","name":"Red River Farmers Market","website":"","facebook":"","twitter":"","street":"101 E. Hatton Road","city":"Wichita Falls","state":"Texas","zip":"76302","x":"-98.4944","y":"33.8677","tags":""},{"type":"market","name":"Rice University Farmers Market","website":"http://www.farmersmarket.rice.edu","facebook":"","twitter":"","street":"2100 University Boulevard","city":"Houston","state":"Texas","zip":"77005","x":"-95.410252","y":"29.714855","tags":"organic baked goods cheese flowers eggs herbs vegetables honey meat nursery nuts poultry prepared soap"},{"type":"market","name":"Richardson Farmers Market","website":"http://www.fourseasonsmarkets.com","facebook":"https://www.facebook.com/fourseasonsmarkets","twitter":"https://twitter.com/4seasonsm","street":"677 W. Campbell Rd","city":"Richardson","state":"Texas","zip":"75080","x":"-96.7430550","y":"32.9772630","tags":"organic baked goods cheese crafts eggs herbs vegetables honey jams meat nuts plants poultry soap trees wine coffee fruits juices mushrooms"},{"type":"market","name":"Ridgmar Farmers Market, Inc. I","website":"http://www.ridgmarfm.com","facebook":"","twitter":"","street":"900 Highway 183","city":"Fort Worth","state":"Texas","zip":"76141","x":"-97.0659","y":"32.8372","tags":""},{"type":"market","name":"Ridgmar Farmers Market, Inc. II","website":"http://www.ridgmarfm.com","facebook":"","twitter":"","street":"7601 Jacksboro Highway 199","city":"Fort Worth","state":"Texas","zip":"76141","x":"-97.4583","y":"32.8208","tags":""},{"type":"market","name":"Rockport-Fulton Farmers Market","website":"","facebook":"","twitter":"","street":"301 DeForest Loop","city":"Rockport-Fulton","state":"Texas","zip":"78382","x":"-97.0335","y":"28.0649","tags":""},{"type":"market","name":"Rockwall Farmers Market","website":"","facebook":"https://www.facebook.com/pages/Rockwall-Farmers-Market/","twitter":"https://twitter.com/rockwallFM","street":"","city":"Rockwall","state":"Texas","zip":"","x":"-96.4597089","y":"32.9312336","tags":"baked goods eggs seafood vegetables honey jams meat soap trees fruits pet food"},{"type":"market","name":"Rose City Farmers Market","website":"http://www.foodcoalition.org","facebook":"www.facebook.com/rosecityfarmersmarket","twitter":"","street":"302 S. Broadway Ave.","city":"Tyler","state":"Texas","zip":"75701","x":"-95.300309","y":"32.347948","tags":"baked goods cheese crafts flowers eggs herbs vegetables honey jams meat nuts plants poultry prepared soap trees wine coffee fruits juices pet food wild"},{"type":"market","name":"Rosemeade Market & Greenhouse ","website":"http://www.rosemeademarket.com/","facebook":"","twitter":"","street":"3646 E Rosemeade Parkway","city":"Carrollton","state":"Texas","zip":"75287","x":"-96.8546","y":"33.011","tags":""},{"type":"market","name":"Round Rock farmers Market, Farmer George Farmers Markets","website":"","facebook":"farmergeorge.market","twitter":"farmergeorge.market","street":"201 University Oaks Blvd.","city":"Round Rock","state":"Texas","zip":"78665","x":"-97.687978","y":"30.557445","tags":"organic baked goods crafts flowers eggs herbs vegetables honey jams maple meat plants poultry prepared soap wine coffee fruits juices pet food"},{"type":"market","name":"Round Top Farmers Market Association","website":"","facebook":"","twitter":"","street":"102 Main Street","city":"Round Top","state":"Texas","zip":"78954","x":"-96.7556","y":"30.0549","tags":""},{"type":"market","name":"SAHA Farmers' Market","website":"http://www.safoodbank.org/index.php/programs/nutrition/farmers-market","facebook":"https://www.facebook.com/SAHAFarmersMarket","twitter":"","street":"818 South Flores Street","city":"San Antonio","state":"Texas","zip":"78210","x":"-98.498783","y":"29.414706","tags":"baked goods eggs herbs vegetables meat plants prepared soap coffee fruits juices"},{"type":"market","name":"Saint Michael's Farmers Market","website":"http://www.saintmichaelsmarket.com","facebook":"https://www.facebook.com/saintmichaelsmarket","twitter":"https://twitter.com/stmikesmarket","street":"8011 Douglas Ave.","city":"Dallas","state":"Texas","zip":"75225","x":"-96.809345","y":"32.860727","tags":"baked goods cheese eggs seafood herbs vegetables honey jams meat nuts poultry prepared soap coffee fruits juices"},{"type":"market","name":"San Antonio Farmers Market Association - Leon Valley","website":"http://www.SanAntonioFarmersMarket.org","facebook":"","twitter":"","street":"6427 Evers Rd.","city":"Leon Valley","state":"Texas","zip":"78238","x":"-98.6132820","y":"29.5007767","tags":"eggs vegetables honey plants fruits"},{"type":"market","name":"San Antonio Farmers Market at St. Matthews","website":"http://www.SanAntonioFarmersMarket.org","facebook":"","twitter":"","street":"11121 Wurzbach","city":"San Antonio","state":"Texas","zip":"78230","x":"-98.550282","y":"29.543276","tags":"eggs vegetables honey jams meat plants fruits"},{"type":"market","name":"San Antonio Farmers Market Olmos Basin","website":"http://www.SanAntonioFarmersMarket.org","facebook":"","twitter":"","street":"100 Jackson Keller","city":"San Antonio","state":"Texas","zip":"78216","x":"-98.4947323","y":"29.4943094","tags":"baked goods eggs herbs vegetables honey jams meat nuts plants fruits"},{"type":"market","name":"San Antonio Food Bank Farmers' Market Association","website":"http://www.safoodbank.org/index.php/programs/nutrition/farmers-market","facebook":"","twitter":"","street":"111 Soledad Street, #811","city":"San Antonio","state":"Texas","zip":"","x":"-98.4928","y":"29.4255","tags":""},{"type":"market","name":"San Marcos/New Braunfels Farmers Market Association","website":"http://www.sanmarcosfarmersmarket.com","facebook":"https://www.facebook.com/smtxfarmersmarket","twitter":"","street":"104 C.M. Allen Parkway","city":"San Marcos","state":"Texas","zip":"78666","x":"-97.937531","y":"29.881728","tags":"eggs trees"},{"type":"market","name":"San Marcos/New Braunfels Farmers Market Association","website":"http://www.sanmarcosfarmersmarket.com","facebook":"https://www.facebook.com/smtxfarmersmarket","twitter":"","street":"100 San Antonio st","city":"San Marcos","state":"Texas","zip":"78666","x":"-97.940672","y":"29.882251","tags":"eggs trees"},{"type":"market","name":"Sassy Pea Market/Good Earth Petting Farm (at The Good Earth Day School) ","website":"http://www.sassypeamarket.com/","facebook":"https://www.facebook.com/SassyPeaMarket?fref=ts","twitter":"","street":"10820 East Crystal Falls Parkway","city":"Leander","state":"Texas","zip":"78641","x":"-97.8185","y":"30.565","tags":""},{"type":"market","name":"Sealy Farmers Market","website":"","facebook":"https://www.facebook.com/sealyfm/","twitter":"","street":"410 Main Street","city":"Sealy ","state":"Texas","zip":"77474","x":"-96.159309","y":"29.780290","tags":"baked goods crafts eggs herbs vegetables honey jams meat poultry prepared soap coffee fruits"},{"type":"market","name":"Seguin Farmers and Artisans Market","website":"http://www.centraltexasgrowers.org/","facebook":"https://www.facebook.com/SeguinFarmersAndArtisansMarket","twitter":"","street":"510 Fleming","city":"Seguin","state":"Texas","zip":"78155","x":"-97.987168","y":"29.570966","tags":"crafts eggs vegetables honey meat poultry"},{"type":"market","name":"SEIGLER FARMS","website":"","facebook":"","twitter":"","street":"Omega and Main Streets","city":"Henrietta","state":"Texas","zip":"76365","x":"-98.1963","y":"33.8148","tags":""},{"type":"market","name":"SEIGLER FARMS","website":"","facebook":"","twitter":"","street":"8th and Ohio Streets","city":"Wichita Falls","state":"Texas","zip":"76301","x":"-98.4897756","y":"33.9132018","tags":"vegetables"},{"type":"market","name":"SFC Farmers' Market at Sunset Valley ","website":"http://www.sustainablefoodcenter.org","facebook":"https://www.facebook.com/SFCFarmersMarket/","twitter":"","street":"3200 Jones Rd. ","city":"Austin/Sunset Valley","state":"Texas","zip":"78745","x":"-97.808943","y":"30.230386","tags":"organic baked goods cheese crafts flowers eggs seafood herbs vegetables honey jams maple meat nuts plants poultry prepared soap trees wine coffee beans fruits grains juices mushrooms pet food wild"},{"type":"market","name":"SFC Farmers' Market Downtown","website":"http://www.sustainablefoodcenter.org","facebook":"https://www.facebook.com/SFCFarmersMarket/","twitter":"","street":"422 Guadalupe Street ","city":"Austin ","state":"Texas","zip":"78701","x":"-97.7472723","y":"30.2679131","tags":"organic baked goods cheese crafts flowers eggs seafood herbs vegetables honey jams meat nuts plants poultry prepared soap wine coffee fruits grains juices mushrooms pet food tofu wild"},{"type":"market","name":"South Austin Farmers Market","website":"http://www.southaustinfarmersmarket.com","facebook":"","twitter":"","street":"2910 S. Congress","city":"Austin","state":"Texas","zip":"78745","x":"-97.7579","y":"30.2334","tags":""},{"type":"market","name":"South Fork Fun Food & Brew","website":"","facebook":"https://www.facebook.com/southforkgtx/","twitter":"","street":"3309 W. Hwy 29","city":"Georgetown","state":"Texas","zip":"78628","x":"-97.745633","y":"30.631014","tags":"baked goods eggs herbs vegetables honey jams meat poultry prepared soap coffee fruits juices"},{"type":"market","name":"South Padre Island Farmers Market","website":"","facebook":"https://www.facebook.com/pages/South-Padre-Island-Farmers-Market/","twitter":"","street":"8605 Padre Island Blvd.","city":"South Padre Island ","state":"Texas","zip":"78597","x":"-97.172023","y":"26.147901","tags":"baked goods eggs herbs vegetables jams nuts prepared fruits"},{"type":"market","name":"South Texas farmers Market","website":"http://www.naegelinfarms.com","facebook":"","twitter":"","street":"6708 South Flores","city":"San Antonio","state":"Texas","zip":"","x":"-98.490125","y":"29.355650","tags":"flowers eggs vegetables honey fruits"},{"type":"market","name":"South Texas farmers Market","website":"http://www.naegelinfarms.com","facebook":"","twitter":"","street":"8101 Pat Booker Rd","city":"Live Oak","state":"Texas","zip":"","x":"-98.328935","y":"29.561429","tags":"flowers eggs vegetables honey jams fruits"},{"type":"market","name":"South Texas Farmers Market Association II","website":"","facebook":"","twitter":"","street":"800 Buena Vista","city":"San Antonio","state":"Texas","zip":"78207","x":"-98.5064","y":"29.4252","tags":""},{"type":"market","name":"South Texas Farmers Market Association III","website":"","facebook":"","twitter":"","street":"4722 Eisenhauer Road at Interstate Highway 35","city":"San Antonio","state":"Texas","zip":"78218","x":"-98.3988","y":"29.4965","tags":""},{"type":"market","name":"South Texas Farmers Market Association IV","website":"","facebook":"","twitter":"","street":"1625 S. Zarzamora Street","city":"San Antonio","state":"Texas","zip":"78207","x":"-98.5292","y":"29.4104","tags":""},{"type":"market","name":"Sun City Farmers Market","website":"http://www.gtfma.com","facebook":"https://www.facebook.com/pages/Georgetown-Farmers-Market-Assoc/195857010450938","twitter":"","street":"2 Texas Drive Georgetown","city":"Georgetown","state":"Texas","zip":"78633","x":"-97.685750","y":"30.561622","tags":"baked goods eggs herbs vegetables honey jams meat nuts poultry prepared soap fruits"},{"type":"market","name":"Sweet Magnolia Pickins Farmers & Artisans Market ","website":"http://www.sweetmagnoliapickins.net/","facebook":"https://www.facebook.com/pages/Magnolia-Farmers-Artisans-Market/240268125935","twitter":"","street":"Corner of FM 1774 and FM 1488","city":"Magnolia","state":"Texas","zip":"77354","x":"-95.7542","y":"30.2113","tags":""},{"type":"market","name":"Taylor Area Farmers Market Association","website":"","facebook":"","twitter":"","street":"5th Street and Main Street","city":"Taylor","state":"Texas","zip":"76574","x":"-97.4098","y":"30.5715","tags":""},{"type":"market","name":"Texarkana, Texas Farmers' Market","website":"http://www.localharvest.org/texarkana-texas-farmers-market-M38382","facebook":"","twitter":"","street":"305 Texas Boulevard","city":"Texarkana","state":"Texas","zip":"75501","x":"-94.045817","y":"33.421527","tags":"baked goods cheese crafts flowers eggs herbs vegetables honey jams meat nursery nuts plants soap"},{"type":"market","name":"Texas Farmers' Market at Lakeline","website":"http://www.texasfarmersmarket.org","facebook":"www.facebook.com/CedarParkFM","twitter":"www.twitter.com/TFMLakeline","street":"11200 Lakeline Mall Drive","city":"Cedar Park ","state":"Texas","zip":"78613","x":"-97.806344","y":"30.469242","tags":"organic baked goods cheese crafts flowers eggs seafood herbs vegetables honey jams maple meat nuts poultry prepared soap wine coffee fruits grains juices mushrooms pet food wild"},{"type":"market","name":"Texas Farmers' Market at Lakeline","website":"http://www.TexasFarmersMarket.org","facebook":"https://www.facebook.com/CedarParkFM?ref=hl","twitter":"https://twitter.com/TFMLakeline","street":"Lakeline Mall parking lot, behind Sears & Dillard's","city":"Cedar Park","state":"Texas","zip":"78613","x":"-97.806404","y":"30.469332","tags":"organic baked goods cheese flowers eggs seafood herbs vegetables honey jams meat nuts plants poultry prepared soap trees wine coffee beans fruits grains juices mushrooms pet food wild"},{"type":"market","name":"Texas Farmers' Market at Mueller","website":"http://www.texasfarmersmarket.org","facebook":"www.facebook.com/TFMMueller","twitter":"www.twitter.com/TFMMueller","street":"4209 Airport Blvd. ","city":"Austin","state":"Texas","zip":"78722","x":"-97.7072901","y":"30.2965856","tags":"organic baked goods cheese crafts flowers eggs seafood herbs vegetables honey jams maple meat nuts poultry prepared soap wine coffee fruits grains juices mushrooms pet food wild"},{"type":"market","name":"The Farmers Market at Clear Lake Shores","website":"http://www.farmersmarketatcls.com","facebook":"https://www.facebook.com/farmersmarketatclearlakeshores","twitter":"","street":"1020 Marina Bay Drive","city":"Clear Lake Shores","state":"Texas","zip":"77565","x":"-95.03278","y":"29.54096","tags":"organic cheese crafts flowers eggs herbs vegetables honey jams meat plants poultry prepared soap trees fruits"},{"type":"market","name":"The Farmers Pantry","website":"http://Wtgpa.org","facebook":"","twitter":"","street":"4843 W 50th St","city":"Lubbock ","state":"Texas","zip":"79414","x":"-101.917533","y":"33.548016","tags":"baked goods cheese crafts flowers eggs herbs vegetables honey jams maple meat nuts plants soap coffee beans fruits grains mushrooms"},{"type":"market","name":"The Fresh Vegetable Market","website":"","facebook":"https://www.facebook.com/pages/The-Fresh-Vegetable-Market/135541366482017","twitter":"","street":"810 FM 168","city":"OLTON","state":"Texas","zip":"79064","x":"-102.133327","y":"34.207401","tags":"vegetables"},{"type":"market","name":"The Historic McKinney Farmers Market at Adriatica","website":"http://www.mckinneyfarmersmarket.com","facebook":"https://www.facebook.com/pages/McKinney-Farmers-Market/105274276195799","twitter":"","street":"6851 Virginia Pkway","city":"McKinney","state":"Texas","zip":"75070","x":"-96.6129760","y":"33.1938980","tags":"baked goods crafts flowers eggs herbs vegetables honey jams meat poultry soap fruits"},{"type":"market","name":"Tobin FarmArt Market","website":"","facebook":"","twitter":"","street":"110 Auditorium Circle","city":"San Antonio","state":"Texas","zip":"78205","x":"-98.488822","y":"29.431050","tags":"baked goods cheese crafts eggs herbs vegetables honey jams nuts poultry soap trees fruits juices pet food wild"},{"type":"market","name":"Tomball Farmers Market ","website":"http://www.tomballfarmersmarket.org/","facebook":"","twitter":"","street":"14090 FM 2920 Rd. Suite G163","city":"Tomball","state":"Texas","zip":"77377","x":"-95.6095","y":"30.0028","tags":""},{"type":"market","name":"Tri-County Farmers Market Association","website":"","facebook":"","twitter":"","street":"100 West Main","city":"San Antonio","state":"Texas","zip":"","x":"-98.4938","y":"29.4256","tags":""},{"type":"market","name":"Tyler Farmers Market Association","website":"","facebook":"","twitter":"","street":"2112 W. Front St","city":"Tyler","state":"Texas","zip":"75702","x":"-95.3235","y":"32.3465","tags":""},{"type":"market","name":"Urban Harvest Farmers Market","website":"http://www.urbanharvest.org","facebook":"https://www.facebook.com/UrbanHarvestHouston/","twitter":"","street":"2752 Buffalo Speedway","city":"Houston","state":"Texas","zip":"77027","x":"-95.431103","y":"29.741093","tags":"organic baked goods cheese flowers eggs seafood herbs vegetables honey jams meat nuts plants poultry prepared soap trees wine coffee beans fruits juices mushrooms pet food tofu"},{"type":"market","name":"Valley Growers Association","website":"","facebook":"","twitter":"","street":"312 Main Street","city":"Fabens","state":"Texas","zip":"79838","x":"-106.161","y":"31.5049","tags":""},{"type":"market","name":"Valley Growers Association I","website":"","facebook":"","twitter":"","street":"1225 Yandell Drive","city":"El Paso","state":"Texas","zip":"79902","x":"-106.481","y":"31.7693","tags":""},{"type":"market","name":"Valley Growers Association II","website":"","facebook":"","twitter":"","street":"324 N. Zaragosa","city":"El Paso","state":"Texas","zip":"79902","x":"-106.324","y":"31.6995","tags":""},{"type":"market","name":"Valley Growers Association III","website":"","facebook":"","twitter":"","street":"7640 North Loop","city":"El Paso","state":"Texas","zip":"79901","x":"-106.363","y":"31.74","tags":""},{"type":"market","name":"Valley Growers Association IV","website":"","facebook":"","twitter":"","street":"14618 Gregg Road","city":"El Paso","state":"Texas","zip":"79910","x":"-106.433","y":"31.8013","tags":""},{"type":"market","name":"Vernon Farmers Market","website":"","facebook":"","twitter":"","street":"1700 Wilbarger","city":"Vernon ","state":"Texas","zip":"76384","x":"-99.284217","y":"34.152885","tags":"baked goods crafts eggs herbs vegetables honey jams nuts prepared soap fruits"},{"type":"market","name":"Victoria Farmers' Market","website":"http://www.tfbgc.org/farmers-market","facebook":"https://www.facebook.com/VictoriaFarmersMarket/","twitter":"","street":"2805 North Navarro","city":"Victoria","state":"Texas","zip":"77901","x":"-97.000968","y":"28.821562","tags":"baked goods crafts eggs herbs vegetables honey jams meat nuts plants poultry prepared soap wine fruits grains"},{"type":"market","name":"Waco Downtown Farmers Market","website":"http://wacodowntownfarmersmarket.org","facebook":"https://www.facebook.com/WacoDowntownFarmersMarket/","twitter":"","street":"500 Washington Avenue","city":"Waco","state":"Texas","zip":"76701","x":"-97.132941","y":"31.556820","tags":"organic baked goods cheese crafts flowers eggs herbs vegetables honey jams meat nuts poultry prepared soap wine coffee fruits grains juices pet food"},{"type":"market","name":"Westchase District Farmers Market","website":"http://westchasedistrictfarmersmarket.com","facebook":"https://www.facebook.com/westchasedistrictfarmersmarket","twitter":"","street":"10503 Westheimer Road","city":"Houston","state":"Texas","zip":"77042","x":"-95.560152","y":"29.736539","tags":"baked goods cheese eggs seafood herbs vegetables honey jams meat nuts plants poultry prepared soap wine coffee fruits grains juices pet food"},{"type":"market","name":"Wharton County Farmers Market","website":"","facebook":"","twitter":"","street":"100 Block South Houston Street","city":"Wharton","state":"Texas","zip":"77488","x":"-96.1012","y":"29.3111","tags":""},{"type":"market","name":"White Rock Local Market ","website":"","facebook":"https://www.facebook.com/WhiteRockLocalMarket","twitter":"","street":"702 N. Buckner Blvd and 9150 Garland Rd","city":"Dallas","state":"Texas","zip":"75218","x":"-96.7112","y":"32.846","tags":""},{"type":"market","name":"Wild West Farmers Market","website":"http://WTGPA.org","facebook":"WTGPA ","twitter":"","street":"8116 19th St","city":"Lubbock","state":"Texas","zip":"79407","x":"-101.996150","y":"33.578343","tags":"baked goods cheese crafts flowers eggs seafood herbs vegetables honey jams maple nuts plants poultry prepared soap coffee beans fruits grains wild"},{"type":"market","name":"Wimberley Farmers Market","website":"http://www.wimberley.org/d/2089343_12663.htm","facebook":"","twitter":"","street":"Lions Club Parking Lot #1 on FM 2325","city":"Wimberley","state":"Texas","zip":"78676","x":"-98.1953","y":"30.0452","tags":""},{"type":"market","name":"Winnsboro Farmers' Market","website":"http://winnsborofarmersmarket.com","facebook":"Winnsboro Farmers' Market","twitter":"","street":"Market Street","city":"Winnsboro","state":"Texas","zip":"75494","x":"-95.289646","y":"32.957692","tags":"baked goods cheese crafts flowers eggs herbs vegetables honey jams meat nuts plants poultry prepared soap fruits grains juices wild"},{"type":"market","name":"Wolf Ranch Farmers' Market","website":"http://www.wolfranchfarmersmarket.com","facebook":"https://www.facebook.com/pages/Wolfranchfarmersmarket/234407923424995","twitter":"","street":"1015 W University Avenue ","city":"Georgetown","state":"Texas","zip":"78628","x":"-97.6936314","y":"30.6302756","tags":"baked goods eggs seafood vegetables honey jams meat poultry prepared soap wine coffee fruits"},{"type":"market","name":"Wolfforth Farm Fresh Market","website":"http://wtgpa.org","facebook":"","twitter":"","street":"Main St and Dowden Ave","city":"Wolfforth ","state":"Texas","zip":"79382","x":"-102.009305","y":"33.509321","tags":"baked goods cheese flowers eggs herbs vegetables honey jams maple meat nuts soap coffee beans fruits grains mushrooms"},{"type":"market","name":"Wolfforth Farmers Market","website":"http://wolfforthfarmersmarket.com","facebook":"Wolfforth Farmers Market","twitter":"","street":"8924 CR 7100","city":"Wolfforth","state":"Texas","zip":"79382","x":"-102.0163305","y":"33.5197029","tags":"baked goods cheese crafts flowers eggs herbs vegetables honey jams maple meat nuts plants poultry prepared soap coffee fruits wild"},{"type":"market","name":"Your Neighborhood Farmers Market-CityCentre","website":"http://www.YourNeighborhoodFarmersMarket.com","facebook":"https://www.facebook.com/yourneighborhoodfarmersmarket/","twitter":"","street":"800 Towne and County BLVD.","city":"Houston","state":"Texas","zip":"77024","x":"-95.386342","y":"29.780472","tags":"organic baked goods crafts flowers eggs seafood herbs vegetables honey jams maple meat nuts plants poultry prepared soap trees wine coffee fruits juices pet food wild"},{"type":"market","name":"Your Neighborhood Farmers Market-LaCenterra at Cinco Ranch","website":"http://www.YourNeighborhoodFarmersMarket.com","facebook":"https://www.facebook.com/yourneighborhoodfarmersmarket/","twitter":"","street":"23501 Cinco Ranch BLVD.","city":"Katy ","state":"Texas","zip":"77494","x":"-95.7750405","y":"29.7413678","tags":"organic baked goods crafts flowers eggs seafood herbs vegetables honey jams maple meat nuts plants prepared soap trees wine coffee fruits grains juices pet food wild"},{"type":"market","name":"Your Neighborhood Farmers Market-Park Lakes","website":"http://www.YourNeighborhoodFarmersMarket.com","facebook":"https://www.facebook.com/yourneighborhoodfarmersmarket/","twitter":"","street":"4503 Canyon Village  Trace Dr.","city":"Humble ","state":"Texas","zip":"77396","x":"-95.2539369","y":"29.9415214","tags":"organic baked goods crafts flowers eggs seafood herbs vegetables honey jams maple meat nuts plants poultry prepared soap trees wine coffee fruits grains juices pet food wild"},{"type":"market","name":"Your Neighborhood Farmers Market-Summerwood","website":"http://www.YourNeighborhoodFarmersMarket.com","facebook":"https://www.facebook.com/yourneighborhoodfarmersmarket/","twitter":"","street":"14303 West Lake Houston Parkway","city":"Houston ","state":"Texas","zip":"77044","x":"-95.1773832","y":"29.9341141","tags":"organic baked goods crafts flowers eggs seafood herbs vegetables honey jams maple meat nuts poultry prepared soap trees wine coffee beans fruits grains juices pet food wild"},{"type":"market","name":"Your Neighborhood Farmers Market-The Groves","website":"http://www.YourNeighborhoodFarmersMarket.com","facebook":"https://www.facebook.com/yourneighborhoodfarmersmarket/","twitter":"","street":"17317 Cathedral Pines Drive","city":"Humble ","state":"Texas","zip":"77346","x":"-95.26831","y":"29.988144","tags":"baked goods crafts flowers eggs seafood herbs vegetables honey jams maple meat nuts plants poultry prepared soap trees wine coffee fruits juices mushrooms pet food wild"},{"type":"market","name":"Your Neighborhood Farmers Market-Towne Lake at Boardwalk","website":"http://www.YourNeighborhoodFarmersMarket.com","facebook":"https://www.facebook.com/yourneighborhoodfarmersmarket/","twitter":"","street":"9945 Barker Cypress Road","city":"Cypress","state":"Texas","zip":"77443","x":"-95.6872981","y":"29.9223808","tags":"organic baked goods crafts flowers eggs seafood herbs vegetables honey jams maple meat nuts plants poultry prepared soap trees wine coffee fruits juices pet food wild"},{"type":"market","name":"YourFarmer2U Georgetown","website":"http://www.yourfarmer2u.com","facebook":"www.facebook.com/YourFarmer2U","twitter":"","street":"5th & Austin Ave","city":"Georgetown","state":"Texas","zip":"78626","x":"-97.6780832","y":"30.6391672","tags":"eggs herbs vegetables honey jams meat nuts soap fruits grains pet food"}]
