[{"type":"farm","street":"911-108th St.","city":"Avoca","state":"ne","zip":"68307","x":"-96.083143","y":"40.823423","name":"Bloom Where You're Planted Farm and Pumpkin Patch","website":"www.BloomPumpkinPatch.com","facebook":"https://www.facebook.com/BloomWhereYourePlantedFarm","twitter":"","tags":"baked-goods crafts woodworking fresh-vegetables prepared-foods"},{"type":"farm","street":"1875 D Road","city":"Unadilla","state":"ne","zip":"68454","x":"-96.2863203","y":"40.7406126","name":"Chisholm Family Farm's Orchard Hill Creamery","website":"www.chisholmfamilyfarm.com","facebook":"https://www.facebook.com/chisholmfamilyfarm","twitter":"","tags":"canned preserved coffee tea crafts woodworking dairy products eggs herbs fresh-vegetables grains flour honey poultry fowl red-meat non-poultry-meat soap body-care"},{"type":"farm","street":"5132 E. 8th Street","city":"Columbus","state":"ne","zip":"68601","x":"-97.262156","y":"41.423775","name":"Country Lane Gardens","website":"countrylanegardens.org","facebook":"Country Lane Gardens","twitter":"","tags":"bedding plants canned preserved cut-flowers eggs fresh-vegetables honey poultry fowl"},{"type":"farm","street":"414 County Rd 15","city":"Ceresco","state":"ne","zip":"68017","x":"-96.582894","y":"41.060047","name":"Darby Springs Farm","website":"http://darbysprings.wordpress.com/","facebook":"https://www.facebook.com/darbyspringsfarm","twitter":"https://www.twitter.com/DarbySpringFarm","tags":"dairy products eggs herbs fresh-fruits fresh-vegetables poultry fowl wild-harvested forest-products"},{"type":"farm","street":"3010 Vane Street","city":"Omaha","state":"ne","zip":"68111","x":"-95.9573130","y":"41.3230760","name":"Sun Natural Open Air Market","website":"http://www.sunnatural.org","facebook":"https://www.facebook.com/hiddenrootsfarm/?ref=hl","twitter":"https://twitter.com/SunOmaha","tags":"baked-goods bedding plants canned preserved crafts woodworking cut-flowers dry beans herbs fresh-vegetables honey"},{"type":"market","name":"18th Street Farmer's Market","website":"","facebook":"https://www.facebook.com/ScottsbluffFarmersMarket","twitter":"","street":"18th and Broadway","city":"Scottsbluff","state":"ne","zip":"69361","x":"-103.662538","y":"41.864268","tags":"organic baked goods cheese crafts flowers eggs herbs vegetables honey meat plants poultry prepared-foods coffee beans fruits"},{"type":"market","name":"Alliance Farmers Market","website":"","facebook":"","twitter":"","street":"3rd & Box Butte Ave.","city":"Alliance","state":"ne","zip":"69301","x":"-102.871","y":"42.0971","tags":""},{"type":"market","name":"Alma Farmers Market","website":"","facebook":"","twitter":"","street":"City Auditorium on Main Street, Downtown","city":"Alma","state":"ne","zip":"68920","x":"-99.3625","y":"40.1008","tags":""},{"type":"market","name":"Bancroft Street Farmers Market","website":"","facebook":"","twitter":"","street":"2702 S 10th St.","city":"Omaha","state":"ne","zip":"68114","x":"-95.93","y":"41.2339","tags":""},{"type":"market","name":"Beatrice Farmers' Market","website":"http://www.mainstreetbeatrice.org/","facebook":"https://www.facebook.com/BeatriceFarmersMarket/","twitter":"","street":"801 Court Street","city":"Beatrice","state":"ne","zip":"68310","x":"-96.743830","y":"40.265715","tags":"organic baked goods crafts flowers eggs seafood herbs vegetables honey jams maple meat nuts plants soap fruits wild"},{"type":"market","name":"BeeHaven Farm Roadside Market","website":"http://beehaven-farm.com","facebook":"https://www.facebook.com/BeeHavenFarmRoadsideMarket","twitter":"","street":"855 Highway 71","city":"Harrisburg","state":"ne","zip":"69345","x":"-103.651789","y":"41.442823","tags":"cheese crafts flowers eggs herbs vegetables honey jams meat plants poultry soap coffee pet food"},{"type":"market","name":"Bellevue Farmers' Market","website":"http://www.bellevuenebraskafarmersmarket.com","facebook":"https://www.facebook.com/bellevuenebraskafarmersmarket","twitter":"","street":"20th & Franklin","city":"Bellevue","state":"ne","zip":"68005","x":"-95.8936715","y":"41.1396043","tags":"organic baked goods crafts eggs herbs vegetables honey jams poultry prepared-foods soap fruits"},{"type":"market","name":"Bennet Farmers' Market","website":"http://www.bennetfarmersmarket.com/","facebook":"","twitter":"","street":"Elm and Harrison","city":"Bennet","state":"ne","zip":"68317","x":"-96.503262","y":"40.680612","tags":"organic baked goods crafts flowers eggs herbs vegetables jams meat nuts plants poultry soap trees fruits"},{"type":"market","name":"Benson Farmers Market","website":"http://www.bensonfarmersmarket.org","facebook":"Benson Farmers Market","twitter":"","street":"4343 North 52nd Street","city":"Omaha","state":"ne","zip":"68104","x":"-95.995047","y":"41.299388","tags":"organic baked goods cheese crafts flowers eggs herbs vegetables honey jams plants soap trees coffee fruits juices"},{"type":"market","name":"Blair Farmers Market","website":"","facebook":"","twitter":"","street":"103 South 12th Street","city":"Blair","state":"ne","zip":"68008","x":"-96.1296","y":"41.5437","tags":""},{"type":"market","name":"Bridgeport Farmers' Market","website":"","facebook":"https://www.facebook.com/BridgeportFarmersMarket","twitter":"","street":"409 N Main St","city":"Bridgeport","state":"ne","zip":"69336","x":"-103.099660","y":"41.671723","tags":"baked goods crafts flowers eggs herbs vegetables honey jams soap fruits"},{"type":"market","name":"Broken Bow Farmers Market","website":"","facebook":"","twitter":"","street":"East Highway 2 ","city":"Broken Bow ","state":"ne","zip":"68822","x":"-99.623299","y":"41.402405","tags":"baked goods cheese flowers eggs herbs vegetables meat nuts plants prepared-foods soap coffee fruits pet food"},{"type":"market","name":"Burwell Farmers Market","website":"","facebook":"","twitter":"","street":"Congregational Church","city":"Burwell","state":"ne","zip":"","x":"-99.1332","y":"41.7817","tags":""},{"type":"market","name":"Chadron Farmers Market","website":"http://www.chadron.com","facebook":"","twitter":"","street":"Courthouse lawn, 400 Main St.","city":"Chadron","state":"ne","zip":"69337","x":"-103.001","y":"42.8278","tags":""},{"type":"market","name":"Cherry County Farmer's Market","website":"","facebook":"","twitter":"","street":"710 E. Hwy 20","city":"Valentine ","state":"ne","zip":"69201","x":"-100.5420414","y":"42.8667549","tags":"baked goods crafts flowers eggs herbs vegetables honey jams plants prepared-foods soap fruits"},{"type":"market","name":"Cheyenne County Farmers Market","website":"","facebook":"","twitter":"","street":"10th & Jackson Street","city":"Sidney","state":"ne","zip":"69162","x":"-102.977","y":"41.1305","tags":""},{"type":"market","name":"City of Papillion, Farmers Market","website":"http://www.papillionfarmersmarket.com","facebook":"https://www.facebook.com/papillionfarmersmarket","twitter":"","street":"","city":"Papillion ","state":"ne","zip":"68046","x":"-96.043954","y":"41.154774","tags":"baked goods crafts flowers eggs vegetables honey jams prepared-foods soap trees coffee fruits pet food"},{"type":"market","name":"College View Farmers Market","website":"http://collegeviewlincoln.org","facebook":"Facebook.com/college.view.nebraska","twitter":"","street":"4801 Prescott","city":"Lincoln","state":"ne","zip":"68506","x":"-96.653789","y":"40.772566","tags":"organic crafts eggs vegetables honey jams meat plants poultry prepared-foods"},{"type":"market","name":"Columbus Farmers Market","website":"","facebook":"Columbus Farmers Market","twitter":"","street":"14 st and 26 Ave","city":"Columbus","state":"ne","zip":"68601","x":"-97.360360","y":"41.430012","tags":"baked goods crafts flowers eggs herbs vegetables honey jams meat plants poultry prepared-foods soap coffee beans fruits juices pet food"},{"type":"market","name":"Community Garden","website":"","facebook":"","twitter":"","street":"","city":"Minden","state":"ne","zip":"68959","x":"-98.953","y":"40.4998","tags":""},{"type":"market","name":"Cortland Farmers Market","website":"http://www.cortlandne.com","facebook":"","twitter":"","street":"4th & Main Street, 1 block west of Highway77","city":"Cortland","state":"ne","zip":"68331","x":"-96.7075","y":"40.5016","tags":""},{"type":"market","name":"Cozad Farmers Market","website":"","facebook":"","twitter":"","street":"8th & F St.","city":"Cozad","state":"ne","zip":"69130","x":"-99.9859","y":"40.8595","tags":""},{"type":"market","name":"Cozad Grand Generation Center","website":"","facebook":"https://www.facebook.com/pages/Cozad-Haymaker-Grand-Generation-Center/581875038530338","twitter":"","street":"410 W 9th St.","city":"Cozad ","state":"ne","zip":"69130","x":"-99.9901154","y":"40.8606228","tags":"organic baked goods vegetables honey jams prepared-foods coffee fruits"},{"type":"market","name":"Creighton Farmers Market","website":"","facebook":"","twitter":"","street":"In front of Senior Center","city":"Brunswick","state":"ne","zip":"68720","x":"-98.0099","y":"42.4067","tags":""},{"type":"market","name":"Crete Farmers Market","website":"","facebook":"","twitter":"","street":"Pamida parking lot, 930 Main Ave.","city":"Crete","state":"ne","zip":"68333","x":"-96.6777","y":"40.5716","tags":""},{"type":"market","name":"Curtis Farmers Market","website":"","facebook":"","twitter":"","street":"Highway 231 & Center Avenue","city":"Curtis","state":"ne","zip":"69025","x":"-100.515","y":"40.6311","tags":""},{"type":"market","name":"Davenport Farmers Market","website":"","facebook":"","twitter":"","street":"Oak at 6th Street","city":"Davenport","state":"ne","zip":"68335","x":"-97.8145110","y":"40.3128771","tags":"baked goods crafts flowers eggs seafood herbs vegetables jams meat plants prepared-foods soap trees fruits"},{"type":"market","name":"David City Farmers Market","website":"http://www.davidcityne.com","facebook":"","twitter":"","street":"Courthouse parking lot","city":"David City","state":"ne","zip":"68632","x":"-97.1286","y":"41.2531","tags":""},{"type":"market","name":"Dutch Pantry Farmers Market","website":"http://dutchpantry@windstream.net","facebook":"","twitter":"","street":"2402 J Street","city":"Auburn","state":"ne","zip":"68305","x":"-95.839362","y":"40.380290","tags":"baked goods crafts eggs vegetables fruits"},{"type":"market","name":"East Military Farmers Market","website":"","facebook":"","twitter":"","street":"Mr. Movie's parking lot","city":"Colon","state":"ne","zip":"68018","x":"-96.6059","y":"41.2975","tags":""},{"type":"market","name":"Extraordinary Farmers Market","website":"","facebook":"","twitter":"","street":"19th & O Street","city":"Ord","state":"ne","zip":"68862","x":"-98.931649","y":"41.599928","tags":"baked goods crafts eggs herbs vegetables plants poultry"},{"type":"market","name":"Fairbury Farmers Market","website":"","facebook":"","twitter":"","street":"Downtown Square, west side","city":"Fairbury","state":"ne","zip":"68352","x":"-97.1799","y":"40.1371","tags":""},{"type":"market","name":"Fallbrook Farmers' Market","website":"http://www.fallbrookfarmersmarket.com/","facebook":"https://www.facebook.com/fallbrookfarmersmarket/","twitter":"","street":"600 Fallbrook Blvd","city":"Lincoln","state":"ne","zip":"68522","x":"-96.728376","y":"40.877605","tags":"organic baked goods crafts flowers eggs herbs vegetables honey jams maple meat nuts poultry prepared-foods coffee fruits juices mushrooms wild"},{"type":"market","name":"Florence Mill Farmers Market","website":"","facebook":"https://www.facebook.com/pages/Florence-Mill-Farmers-Market/218654301497140","twitter":"","street":"9102 N. 30 St","city":"Omaha","state":"ne","zip":"68112","x":"-95.9626150","y":"41.3433900","tags":"baked goods crafts flowers eggs herbs vegetables jams meat plants coffee fruits grains"},{"type":"market","name":"FRHS Farmers Market","website":"","facebook":"","twitter":"","street":"2700 W Norfolk Ave","city":"Norfolk","state":"ne","zip":"68701","x":"-97.4508","y":"42.0409","tags":""},{"type":"market","name":"Geneva Farmers Market","website":"","facebook":"","twitter":"","street":"G Street","city":"Geneva","state":"ne","zip":"68361","x":"-97.601539","y":"40.525226","tags":"baked goods crafts flowers eggs herbs vegetables jams soap fruits"},{"type":"market","name":"Gordon Farmers Market","website":"","facebook":"","twitter":"","street":"3rd and main st","city":"Gordon ","state":"ne","zip":"69343","x":"-102.2032780","y":"42.8062920","tags":"baked goods crafts herbs vegetables honey jams plants"},{"type":"market","name":"Gothenburg Farmers Market","website":"","facebook":"","twitter":"","street":"15th Street and Avenue F","city":"Gothenburg","state":"ne","zip":"69138","x":"-100.1586741","y":"40.9330157","tags":"baked goods herbs vegetables honey jams fruits pet food"},{"type":"market","name":"Grand Island Farmer's Market","website":"","facebook":"https://www.facebook.com/GrandIslandFarmersMarket","twitter":"","street":"515 S Webb Road","city":"Grand Island","state":"ne","zip":"68803","x":"-98.377846","y":"40.914789","tags":"baked goods crafts flowers eggs herbs vegetables honey jams maple meat plants poultry soap coffee fruits mushrooms wild"},{"type":"market","name":"Guide Rock Farmers Market","website":"","facebook":"","twitter":"","street":"Intersection of Hwys 78 & 136","city":"Guide Rock","state":"ne","zip":"68942","x":"-98.5181","y":"40.0902","tags":""},{"type":"market","name":"Hastings original Downtown Farmers Market","website":"","facebook":"","twitter":"","street":"3rd and Denver","city":"Hastings","state":"ne","zip":"68901","x":"-98.389220","y":"40.585604","tags":"baked goods eggs herbs vegetables fruits"},{"type":"market","name":"Havelock Farmers Market","website":"","facebook":"","twitter":"","street":"62nd & Havelock Ave., north parking lot","city":"Prague","state":"ne","zip":"68050","x":"-96.8084","y":"41.3103","tags":""},{"type":"market","name":"Highland Park Farmers Market","website":"http://www.HighlandParkMarket.org","facebook":"","twitter":"","street":" 1400 N Hastings","city":"Hastings","state":"ne","zip":"68901","x":"-98.390153","y":"40.600198","tags":"baked goods cheese crafts flowers eggs herbs vegetables honey jams meat nuts poultry soap wine fruits mushrooms pet food"},{"type":"market","name":"Holdrege Area Farmers Market","website":"","facebook":"","twitter":"","street":"Phelps County Courthouse lawn","city":"Holdrege","state":"ne","zip":"68982","x":"-99.3646","y":"40.4526","tags":""},{"type":"market","name":"Kearney Area Farmers' Market","website":"http://www.krnyfarmersmarket.com","facebook":"https://www.facebook.com/KearneyAreaFarmersMarket","twitter":"","street":"4700 2nd Ave","city":"Kearney","state":"ne","zip":"68847","x":"-99.084957","y":"40.720936","tags":"baked goods flowers eggs herbs vegetables honey jams meat plants poultry coffee fruits"},{"type":"market","name":"Kearney Area Farmers' Market","website":"http://www.krnyfarmersmarket.com","facebook":"https://www.facebook.com/KearneyAreaFarmersMarket","twitter":"","street":"5011 N 2nd Ave","city":"Kearney ","state":"ne","zip":"68847","x":"-99.081703","y":"40.724882","tags":"baked goods flowers herbs vegetables honey jams fruits"},{"type":"market","name":"Lexington Farmers Market","website":"","facebook":"Lexington NE Farmers Market","twitter":"","street":"1501 Plum Creek Parkway","city":"Lexington","state":"ne","zip":"68850","x":"-99.7416145","y":"40.7614701","tags":"cheese eggs vegetables honey fruits"},{"type":"market","name":"Lincoln Haymarket Farmers Market","website":"http://www.linconlhaymarket.org","facebook":"https://www.facebook.com/farmersmarketlincoln","twitter":"","street":"7th & P Street","city":"Lincoln Nebraska","state":"ne","zip":"68508","x":"-96.710672","y":"40.814654","tags":"baked goods cheese crafts flowers eggs herbs vegetables honey maple nuts plants poultry prepared-foods soap trees"},{"type":"market","name":"Lincoln Piedmont Farmers Market","website":"","facebook":"","twitter":"","street":"Piedmont Shopping Center","city":"Lincoln","state":"ne","zip":"68510","x":"-96.6817","y":"40.8069","tags":""},{"type":"market","name":"Long Pine Farmers Market","website":"","facebook":"","twitter":"","street":"Long Pine","city":"Long Pine","state":"ne","zip":"69217","x":"-99.7011","y":"42.5344","tags":""},{"type":"market","name":"Main St. Farmers Market, Lyons Ne.","website":"","facebook":"","twitter":"","street":"Main St. and 3rd","city":"Lyons","state":"ne","zip":"68038","x":"-96.4757041","y":"41.9375850","tags":"baked goods crafts eggs herbs vegetables honey jams plants prepared-foods soap fruits"},{"type":"market","name":"Main Street Downtown Farmers Market","website":"http://www.mainstreetfremont.org","facebook":"","twitter":"","street":"John C. Fremont Park, corner of 8th & Main St.","city":"Freemont","state":"ne","zip":"68026","x":"-96.5051","y":"41.7309","tags":""},{"type":"market","name":"Market 23","website":"","facebook":"Market 23","twitter":"","street":"2620 23 ST","city":"Columbus","state":"ne","zip":"68601","x":"-97.361665","y":"41.440025","tags":"baked goods cheese crafts flowers eggs herbs vegetables honey jams meat plants poultry prepared-foods soap wine beans fruits pet food"},{"type":"market","name":"McCook Farmers Market","website":"","facebook":"","twitter":"","street":"Eakes parking lot, B & West 1st Street","city":"McCook","state":"ne","zip":"69001","x":"-100.626","y":"40.1986","tags":""},{"type":"market","name":"Minden Farmers Market","website":"http://www.mindenne.org","facebook":"","twitter":"","street":"5th St. Food Pride parking lot","city":"Minden","state":"ne","zip":"68959","x":"-98.9463","y":"40.4994","tags":""},{"type":"market","name":"Morrill Farmers' Market","website":"","facebook":"https://www.facebook.com/morrillnebraskafarmersmarket","twitter":"","street":"","city":"Morrill","state":"ne","zip":"69358","x":"-103.912818","y":"41.962788","tags":"baked goods crafts eggs herbs vegetables honey jams prepared-foods fruits grains"},{"type":"market","name":"Nebraska City Farmers Market","website":"http://www.NebraskaCity.com","facebook":"","twitter":"","street":"Central Ave. between 9th & 10th St.","city":"Nebraska City","state":"ne","zip":"68410","x":"-95.8552","y":"40.6775","tags":""},{"type":"market","name":"Neligh Farmers Market","website":"","facebook":"","twitter":"","street":"Antelope County Courthouse","city":"Neligh","state":"ne","zip":"68756","x":"-98.0298","y":"42.1286","tags":""},{"type":"market","name":"Nemaha County Farmers  Market","website":"","facebook":"","twitter":"","street":"9th and Hst","city":"Auburn","state":"ne","zip":"68305","x":"-95.836122","y":"40.396094","tags":"baked goods crafts eggs vegetables nuts"},{"type":"market","name":"Norfolk Farmers Market - Saturday","website":"http://www.norfolkfarmersmarket.com/","facebook":"https://www.facebook.com/pages/Norfolk-Farmers-Market/371903846193334","twitter":"","street":"","city":"Norfolk","state":"ne","zip":"68701","x":"-97.431307","y":"42.018947","tags":"baked goods eggs herbs vegetables honey jams"},{"type":"market","name":"Norfolk Farmers Market - Tuesday and Thursday","website":"http://www.norfolkfarmersmarket.com/","facebook":"https://www.facebook.com/pages/Norfolk-Farmers-Market/371903846193334","twitter":"","street":"","city":"Norfolk","state":"ne","zip":"68701","x":"-97.420492","y":"42.026670","tags":"baked goods herbs vegetables jams fruits"},{"type":"market","name":"North Bend Farmers Market","website":"","facebook":"","twitter":"","street":"Highways 79 & 30","city":"North Bend","state":"ne","zip":"68649","x":"-96.7828","y":"41.4678","tags":""},{"type":"market","name":"North Central Farmers Market","website":"","facebook":"","twitter":"","street":"Highway 20 & Harrington St. East","city":"Johnstown","state":"ne","zip":"69214","x":"-99.8647","y":"42.5458","tags":""},{"type":"market","name":"North Central Farmers' Market","website":"","facebook":"","twitter":"","street":"Highway 20 & Main St.","city":"Ainsworth","state":"ne","zip":"69210","x":"-99.8625258","y":"42.5498949","tags":"vegetables"},{"type":"market","name":"North Platte Farmers Market","website":"http://npfarmersmarket.com","facebook":"Npfarmersmarket","twitter":"","street":"","city":"North Platte ","state":"ne","zip":"69101","x":"-100.762034","y":"41.123920","tags":"baked goods crafts flowers eggs herbs vegetables honey jams maple meat nuts plants poultry prepared-foods soap fruits grains"},{"type":"market","name":"Ogallala Farmers Market","website":"","facebook":"","twitter":"","street":"east A and 3rd street","city":"Ogallala","state":"ne","zip":"69153","x":"-101.7182311","y":"41.1267055","tags":"baked goods cheese crafts flowers eggs herbs vegetables honey jams poultry prepared-foods soap fruits"},{"type":"market","name":"Old Cheney Road Farmers' Market","website":"http://oldcheneyroadfarmersmarket.com/","facebook":"https://www.facebook.com/oldcheneyfarmersmarket/","twitter":"","street":"5500 Old Cheney Rd","city":"Lincoln","state":"ne","zip":"68516","x":"-96.647798","y":"40.756568","tags":"organic baked goods cheese flowers eggs herbs vegetables honey jams maple meat nuts plants poultry prepared-foods trees wine coffee beans fruits juices mushrooms wild"},{"type":"market","name":"Omaha Farmers Market - Aksarben Village","website":"http://omahafarmersmarket.com","facebook":"www.facebook.com/omahafarmersmarket","twitter":"@omahafarmersmkt","street":"67th & Center Street","city":"Omaha","state":"ne","zip":"68106","x":"-96.0138738","y":"41.2377371","tags":"organic baked goods cheese crafts flowers eggs herbs vegetables honey jams meat nuts plants poultry prepared-foods soap wine coffee fruits mushrooms pet food"},{"type":"market","name":"Omaha Farmers Market - Charles Drew Health Center","website":"https://omahafarmersmarket.com","facebook":"https://www.facebook.com/omahafarmersmarket/?ref=settings","twitter":"","street":"2915 Grant Street","city":"Omaha","state":"ne","zip":"68111","x":"-95.9560958","y":"41.2794482","tags":"organic herbs vegetables fruits"},{"type":"market","name":"Omaha Farmers Market - Holiday Market","website":"http://omahafarmersmarket.com/holiday-market/","facebook":"https://www.facebook.com/omahafarmersmarket","twitter":"","street":"67th & Center NE","city":"Omaha","state":"ne","zip":"","x":"-96.0137770","y":"41.2378970","tags":""},{"type":"market","name":"Omaha Farmers Market - Old Market","website":"http://omahafarmersmarket.com","facebook":"https://www.facebook.com/omahafarmersmarket/","twitter":"@OmahaFarmersMkt","street":"11th & Jackson Street","city":"Omaha","state":"ne","zip":"68102","x":"-96.041927","y":"41.264675","tags":"organic baked goods cheese crafts flowers eggs herbs vegetables honey jams meat plants poultry prepared-foods soap wine coffee fruits mushrooms pet food"},{"type":"market","name":"Omaha Rockbrook Farmers Market","website":"","facebook":"","twitter":"","street":"NE corner of 108th & W Center Rd.","city":"Omaha","state":"ne","zip":"68124","x":"-96.0806","y":"41.2343","tags":""},{"type":"market","name":"Orleans Farmers Market","website":"","facebook":"","twitter":"","street":"Orleans Park","city":"Orleans","state":"ne","zip":"68966","x":"-99.4498","y":"40.129","tags":""},{"type":"market","name":"Overton Farmers Market ","website":"http://www.localharvest.org/overton-farmers-market-M58847","facebook":"","twitter":"","street":"Highway 30 and C street","city":"Overton","state":"ne","zip":"68863","x":"-99.5378","y":"40.7374","tags":""},{"type":"market","name":"Pierce Farmers Market","website":"","facebook":"","twitter":"","street":"118 West Willow St","city":"Pierce","state":"ne","zip":"68767","x":"-97.528407","y":"42.196213","tags":"baked goods crafts vegetables fruits"},{"type":"market","name":"Plattsmouth Farmers Market","website":"","facebook":"","twitter":"","street":"211 S 23rd St","city":"Plattsmouth","state":"ne","zip":"68048","x":"-95.9078225","y":"41.0096244","tags":"baked goods crafts eggs herbs vegetables honey jams nuts trees fruits pet food"},{"type":"market","name":"Presbyterian Church of the Master Sunday Garden Mart","website":"","facebook":"","twitter":"","street":"10710 Corby Circle","city":"Omaha","state":"ne","zip":"68164","x":"-96.078236","y":"41.285137","tags":"baked goods flowers eggs vegetables jams plants prepared-foods fruits"},{"type":"market","name":"Ravenna Farmers Market","website":"","facebook":"","twitter":"","street":"200 South Grand Avenue","city":"Ravenna","state":"ne","zip":"68869","x":"-98.9127","y":"41.0247","tags":"baked goods crafts flowers herbs vegetables honey jams soap"},{"type":"market","name":"Rock County Farmers Market","website":"","facebook":"","twitter":"","street":"124 Clark Street","city":"Bassett ","state":"ne","zip":"68714","x":"-99.5374132","y":"42.5858443","tags":"baked goods crafts eggs vegetables honey jams fruits"},{"type":"market","name":"Rushville Farmers Market","website":"","facebook":"","twitter":"","street":"Frontier Repair on West Hwy 20","city":"Rushville","state":"ne","zip":"69343","x":"-102.459","y":"42.7202","tags":""},{"type":"market","name":"Santee Community Farmers Market","website":"","facebook":"https://www.facebook.com/Santeefarmersmarket/","twitter":"","street":"53142 Highway 12","city":"Niobrara","state":"ne","zip":"68760","x":"-97.881936","y":"42.733001","tags":"baked goods crafts eggs vegetables jams prepared-foods fruits"},{"type":"market","name":"Schuyler Farmers Market","website":"","facebook":"","twitter":"","street":"12th Street under the viaduct","city":"Howells","state":"ne","zip":"68641","x":"-96.9639","y":"41.6128","tags":""},{"type":"market","name":"Scottsbluff Farmers Market","website":"","facebook":"","twitter":"","street":"18th & Broadway","city":"Scottsbluff","state":"ne","zip":"69361","x":"-103.663","y":"41.8645","tags":""},{"type":"market","name":"Seward Farmers Market","website":"","facebook":"","twitter":"","street":"North Courhouse Square","city":"Seward","state":"ne","zip":"68434","x":"-97.0925","y":"40.9124","tags":""},{"type":"market","name":"Sherman County Farmers Market","website":"","facebook":"","twitter":"","street":"630 O Str.","city":"Loup City","state":"ne","zip":"68853","x":"-98.966578","y":"41.274801","tags":"baked goods crafts eggs vegetables honey jams prepared-foods fruits"},{"type":"market","name":"South Kearney Farmers' Market","website":"","facebook":"","twitter":"","street":"910 3rd AV","city":"Kearney ","state":"ne","zip":"68847","x":"-99.085916","y":"40.683063","tags":"baked goods flowers eggs herbs vegetables honey jams meat plants poultry beans fruits"},{"type":"market","name":"South Maple Street Farmers Market","website":"http://www.stonesthoreau.com","facebook":"","twitter":"","street":"103 South Maple Avenue","city":"Davenport","state":"ne","zip":"68335","x":"-97.813151","y":"40.310193","tags":"organic baked goods cheese eggs herbs vegetables jams prepared-foods soap fruits"},{"type":"market","name":"South Sioux City Farmers Market","website":"","facebook":"","twitter":"","street":"Dakota Ave between 14 &15th streets","city":"South Sioux City","state":"ne","zip":"68776","x":"-96.414843","y":"42.463703","tags":"eggs vegetables honey fruits"},{"type":"market","name":"St. James Marketplace","website":"http://www.stjamesmarketplace.com","facebook":"","twitter":"","street":"89039  570  AVE","city":"St. James","state":"ne","zip":"68792","x":"-97.1459","y":"42.7339","tags":""},{"type":"market","name":"St. Paul UCC Farmers' Market","website":"","facebook":"","twitter":"","street":"1302 F Street","city":"Lincoln","state":"ne","zip":"68508","x":"-96.7021989","y":"40.8050740","tags":"organic baked goods flowers herbs vegetables honey jams plants prepared-foods soap fruits"},{"type":"market","name":"Stromsburg Farmers Market","website":"http://www.stromsburgnebraska.com","facebook":"","twitter":"","street":"Downtown Square","city":"Stromsburg","state":"ne","zip":"68666","x":"-97.5121","y":"41.0993","tags":""},{"type":"market","name":"Sutherland Farmers Market","website":"","facebook":"https://www.facebook.com/daytonafarmersmarket","twitter":"","street":"HWY 30,","city":"Sutherland","state":"ne","zip":"69165","x":"-101.131","y":"41.1563","tags":""},{"type":"market","name":"Sutton Community Senior Center","website":"","facebook":"","twitter":"","street":"200 South Saunders Avenue","city":"Sutton","state":"ne","zip":"68979","x":"-97.8595","y":"40.6055","tags":""},{"type":"market","name":"Syracuse Nebraska Farmers Market","website":"","facebook":"https://www.facebook.com/syracusenefarmersmarket/","twitter":"","street":"11th St and Hwy 50","city":"Syracuse ","state":"ne","zip":"68446","x":"-96.179529","y":"40.662321","tags":"organic baked goods crafts vegetables honey jams fruits"},{"type":"market","name":"The Local Farmers Market of Cairo","website":"","facebook":"","twitter":"","street":"203 W Hwy 2","city":"Cairo","state":"ne","zip":"68824","x":"-98.6045866","y":"41.0012149","tags":"baked goods crafts flowers eggs herbs vegetables honey jams meat nuts"},{"type":"market","name":"Verdigre Farmers Market","website":"","facebook":"","twitter":"","street":"Main Street","city":"Brunswick","state":"ne","zip":"68720","x":"-98.0098","y":"42.4067","tags":""},{"type":"market","name":"Village Pointe Farmers Market","website":"http://villagepointeshopping.com/events/","facebook":"https://www.facebook.com/villagepointefarmersmarket","twitter":"","street":"17305 Davenport St","city":"Omaha","state":"ne","zip":"68118","x":"-96.1849402","y":"41.2606801","tags":"organic baked goods cheese flowers eggs herbs vegetables honey jams meat nuts plants poultry soap trees fruits mushrooms"},{"type":"market","name":"Wahoo Farmers Market","website":"","facebook":"","twitter":"","street":"Corner of 7th and Beech","city":"Wahoo","state":"ne","zip":"68066","x":"-96.617391","y":"41.212079","tags":"baked goods crafts eggs herbs vegetables jams plants fruits pet food"},{"type":"market","name":"Wayne Farmers Market","website":"","facebook":"","twitter":"","street":"510 Pearl Street","city":"Wayne","state":"ne","zip":"68787","x":"-97.019409","y":"42.234244","tags":"organic baked goods crafts seafood herbs vegetables honey jams prepared-foods soap fruits"},{"type":"market","name":"West Point Farmers Market","website":"","facebook":"","twitter":"","street":"Eagles parking lot","city":"West Point","state":"ne","zip":"68788","x":"-96.6713","y":"41.7604","tags":""},{"type":"market","name":"Wilber Farmers Market","website":"","facebook":"","twitter":"","street":"","city":"Wilber","state":"ne","zip":"","x":"-97.4147","y":"40.1441","tags":""},{"type":"market","name":"Wisner Farmers Market","website":"","facebook":"","twitter":"","street":"Rumors parking lot","city":"Wisner","state":"ne","zip":"68791","x":"-96.903","y":"41.9838","tags":""},{"type":"market","name":"Wymore Farmers Market","website":"https://www.facebook.com/pages/Wymore-Farmers-Market/937105812990578","facebook":"https://www.facebook.com/pages/Wymore-Farmers-Market/937105812990578","twitter":"","street":"","city":"Wymore ","state":"ne","zip":"68466","x":"-96.670892","y":"40.122585","tags":"baked goods crafts herbs vegetables jams plants prepared-foods fruits"},{"type":"market","name":"York Farmers Market","website":"http://www.yorkchamber.org","facebook":"","twitter":"","street":"6th and Lincoln Ave","city":"York","state":"ne","zip":"68467","x":"-97.595572","y":"40.871229","tags":"organic baked goods crafts vegetables honey jams maple nursery prepared-foods soap"}]
