[{"type":"farm","street":"1575 Underwood Ave","city":"Muscatine","state":"ia","zip":"52761","x":"-90.927414","y":"41.509551","name":"Anderson Farm","website":"http://www.grassfedrecipes.com/","facebook":"https://www.facebook.com/Grassfed-Recipes-186658131371711/","twitter":"","tags":"red-meat non-poultry-meat"},{"type":"farm","street":"2469 Highway 2","city":"Donnellson","state":"ia","zip":"52625","x":"-91.436569","y":"40.633892","name":"Appleberry Orchard","website":"www.appleberryorchard.com","facebook":"www.facebook.com/appleberryorchard?ref=hl","twitter":"","tags":"baked-goods canned preserved coffee tea crafts woodworking fresh-fruits fresh-vegetables honey maple-products"},{"type":"farm","street":"3035 Addison Blvd","city":"Nashua ","state":"ia","zip":"50658","x":"-92.545614","y":"42.916533","name":"Apples on the Avenue","website":"http://www.applesontheavenue.com/","facebook":"https://www.facebook.com/pages/Apples-on-the-Avenue/569845613046631","twitter":"","tags":"baked-goods crafts woodworking fresh-fruits"},{"type":"farm","street":"4241 Johnson Avenue N.W.","city":"Cedar Rapids","state":"ia","zip":"52405","x":"-91.726645","y":"41.970148","name":"Baumhoefeners Red Barn Market","website":"www.redbarnmarket.net","facebook":"http:/www.facebook.com/BaumhoefenersRedBarnMarket","twitter":"","tags":"baked-goods bedding plants canned preserved cut-flowers dry beans eggs herbs fresh-fruits fresh-vegetables grains flour honey maple-products nursery-stock nuts poultry fowl soap body-care tofu non-animal protein wild-harvested forest-products"},{"type":"farm","street":"66435 270th Lane","city":"Nevada","state":"ia","zip":"50201","x":"-93.3779351","y":"41.9650666","name":"Black Cat Acres","website":"www.blackcatacres.com","facebook":"Black Cat Acres","twitter":"","tags":"fresh-fruits fresh-vegetables honey"},{"type":"farm","street":"1121 220th Street","city":"Winterset","state":"ia","zip":"50273","x":"-94.218255","y":"41.331685","name":"Burr Oak Farm LLC","website":"www.burroakfarm.com","facebook":"","twitter":"","tags":"canned preserved fresh-fruits"},{"type":"farm","street":"724 Hwy G76","city":"Dallas","state":"ia","zip":"50062","x":"-93.2087830","y":"41.2114248","name":"Charging Skunk Farms","website":"","facebook":"www.facebook.com/ChargingSkunkFarms","twitter":"","tags":"baked-goods canned preserved crafts woodworking fresh-fruits fresh-vegetables"},{"type":"farm","street":"31140 185th Street","city":"Honey Creek","state":"ia","zip":"51542","x":"-95.8290590","y":"41.4641740","name":"Doe's and Diva's Dairy, Inc.","website":"www.doesanddivas.com","facebook":"https://www.facebook.com/pages/Does-and-Divas-Dairy","twitter":"https://twitter.com/Does_and_Divas","tags":"dairy products eggs poultry fowl"},{"type":"farm","street":"3385 130th St.","city":"Dunlap","state":"ia","zip":"51529","x":"-95.619054","y":"41.866123","name":"Dunham Bee Farm","website":"www.dunhambeefarm.com","facebook":"facebook.com/dunhambeefarm","twitter":"","tags":"honey"},{"type":"farm","street":"12942 338th Street","city":"Strawberry Point ","state":"ia","zip":"52076","x":"-91.5487795","y":"42.7373776","name":"Heritage Breed Meats","website":"","facebook":"https://www.facebook.com/pages/Heritage-Breeds-Meats/136842603056527","twitter":"https://twitter.com/heritagebreedmt","tags":"poultry fowl red-meat non-poultry-meat"},{"type":"farm","street":"Box 532","city":"Oakland","state":"ia","zip":"51560","x":"-95.3957997","y":"41.3094375","name":"Honey Creek Farms ","website":"neverendingharvest.com","facebook":"https://www.facebook.com/neverendingharvestvideos","twitter":"","tags":"baked-goods canned preserved fresh-fruits fresh-vegetables poultry fowl"},{"type":"farm","street":"1452 220th Street","city":"Gilmore City","state":"ia","zip":"50541","x":"-94.3539248","y":"42.7321788","name":"JoKir's Wild Black Angus Beef","website":"www.jokirswild.com","facebook":"","twitter":"","tags":"red-meat non-poultry-meat"},{"type":"farm","street":"2768 U.s. highway 65 / 69","city":"Carlisle","state":"ia","zip":"50047","x":"-93.567492","y":"41.486184","name":"North River Adventure Farm","website":"www.nnorthrivercornmaze.com","facebook":"https://www.facebook.com/Northrivercornmaze/timeline","twitter":"","tags":"baked-goods canned preserved crafts woodworking fresh-vegetables honey"},{"type":"farm","street":"619 44th Ave","city":"Amana","state":"ia","zip":"52203","x":"-91.872289","y":"41.800429","name":"Oldhaus Fibers","website":"www.oldhausfibers.com","facebook":"https://www.facebook.com/OldhausFibers","twitter":"https://www.twitter.com/oldhaus","tags":""},{"type":"farm","street":"14583 S Avenue","city":"Woodward","state":"ia","zip":"50276","x":"-93.934071","y":"41.829577","name":"Picket Fence Creamery, LLC","website":"www.picketfencecreamery.com","facebook":"","twitter":"","tags":"baked-goods canned preserved coffee tea crafts woodworking dairy products eggs fish seafood herbs fresh-fruits fresh-vegetables honey maple-products poultry fowl red-meat non-poultry-meat soap body-care wine spirits beer hard-cider"},{"type":"farm","street":"66435 270th Lane","city":"Nevada","state":"ia","zip":"50201","x":"-93.378450","y":"41.965503","name":"Produce farm ","website":"www.blackcatacres.com","facebook":"Black Cat Acres","twitter":"","tags":"fresh-vegetables honey"},{"type":"farm","street":"2505 Carriage Trail","city":"Winterset","state":"ia","zip":"50273","x":"-94.1606448","y":"41.2837312","name":"Randol Honey Farm","website":"www.randolhoney.com","facebook":"https://www.facebook.com/pages/Randol-Honey-Farm/101353756576663","twitter":"","tags":"honey soap body-care"},{"type":"farm","street":"2625 HWY 1 SW","city":"Iowa City","state":"ia","zip":"52240","x":"-91.673626","y":"41.600381","name":"The Golden Egg","website":"","facebook":"https://www.facebook.com/pages/The-Golden-Egg/212499635466241?ref=hl","twitter":"","tags":"eggs"},{"type":"farm","street":"705 SW Ringgold Street","city":"Boone","state":"ia","zip":"50036","x":"-93.918501","y":"42.050524","name":"Timberlea Farm","website":"","facebook":"https://www.facebook.com/timberlea.aronia","twitter":"","tags":""},{"type":"farm","street":"1063 205th St.","city":"Tipton","state":"ia","zip":"52772","x":"-91.128372","y":"41.76979","name":"Twisted Oaks Meats","website":"twistedoaksmeats.com","facebook":"Twisted Oaks Meats","twitter":"","tags":"eggs poultry fowl"},{"type":"farm","street":"12270 Ne 22nd","city":"Ankeny","state":"ia","zip":"50021","x":"-93.5815110","y":"41.7854780","name":"Van Dyke Sweet Corn","website":"","facebook":"","twitter":"","tags":"cut-flowers fresh-vegetables"},{"type":"market","name":"8th Avenue City Farmers Market","website":"","facebook":"","twitter":"","street":"8th Ave & 2nd St SE","city":"Cedar Rapids","state":"ia","zip":"52401","x":"-91.6626534","y":"41.9728370","tags":"baked goods cheese crafts flowers eggs herbs vegetables honey jams meat nursery plants poultry prepared soap trees"},{"type":"market","name":"Adel Farmers Market","website":"","facebook":"","twitter":"","street":"Courthouse Square","city":"Adel","state":"ia","zip":"50830","x":"-94.0175","y":"41.6144","tags":""},{"type":"market","name":"Akron Farmers Market","website":"","facebook":"","twitter":"","street":"City Park","city":"Akron","state":"ia","zip":"51031","x":"-96.5573","y":"42.8309","tags":""},{"type":"market","name":"Allamakee Farmers Market","website":"","facebook":"","twitter":"","street":"705 Allamakee Street","city":"Waukon","state":"ia","zip":"52172","x":"-91.475223","y":"43.276279","tags":"baked goods flowers eggs herbs vegetables jams wine fruits"},{"type":"market","name":"Ames Main Street Farmers' Market","website":"http://www.amesmainsteetfarmersmarket.com","facebook":"Ames Main Street Farmers' Market","twitter":"","street":"300 & 400 Blocks of  Main Street","city":"Ames, IA","state":"ia","zip":"50010","x":"-93.614943","y":"42.025222","tags":"organic baked goods cheese crafts flowers eggs herbs vegetables honey jams meat nuts plants poultry prepared soap wine coffee fruits juices mushrooms pet food wild"},{"type":"market","name":"Anamosa Farmers Market","website":"","facebook":"","twitter":"","street":"Corner of Scott and Main Streets","city":"Anamosa","state":"ia","zip":"52205","x":"-91.2795","y":"42.1083","tags":""},{"type":"market","name":"Atlantic Farmers Market","website":"","facebook":"","twitter":"","street":"1200 7th Street E.","city":"Atlantic","state":"ia","zip":"50022","x":"-94.9965","y":"41.4043","tags":"baked goods crafts flowers herbs vegetables honey jams plants soap"},{"type":"market","name":"Audubon Farmers Market","website":"","facebook":"","twitter":"","street":"City Park, east side","city":"Audubon","state":"ia","zip":"50025","x":"-94.9375","y":"41.7386","tags":""},{"type":"market","name":"Baxter Farmers Market","website":"","facebook":"","twitter":"","street":"Parking lot of Revolution Cycle","city":"Baxte","state":"ia","zip":"55028","x":"-93.1496","y":"41.8251","tags":""},{"type":"market","name":"Beaverdale Farmers Market","website":"http://beaverdalefarmersmarket.org/","facebook":"https://www.facebook.com/BeaverdaleFarmFest/","twitter":"@BeaverdaleFarm","street":"4100 Urbandale Avenue","city":"Des Moines ","state":"ia","zip":"50310","x":"-93.6731823","y":"41.6200580","tags":"baked goods crafts flowers eggs herbs vegetables honey jams meat plants poultry prepared soap fruits juices pet food"},{"type":"market","name":"Belle Plaine Farmers Market","website":"","facebook":"Belle Plaine IA Farmers Mkt","twitter":"","street":"12th St and 9th Ave","city":"Belle Plaine ","state":"ia","zip":"","x":"-92.2749472","y":"41.8963048","tags":"baked goods flowers eggs vegetables honey fruits"},{"type":"market","name":"Bellevue Area Farmers Market","website":"","facebook":"","twitter":"","street":"Gazebo on Riverview Street","city":"Bellevue","state":"ia","zip":"52031","x":"-90.455","y":"42.262","tags":""},{"type":"market","name":"Belmond Area Farmers Market","website":"","facebook":"","twitter":"","street":"Corner of 2nd Street NE & 1st Aveene NE","city":"Belmond","state":"ia","zip":"50421","x":"-93.6155","y":"42.8478","tags":""},{"type":"market","name":"Bettendorf Farmers' Market","website":"http://mvgrowers.com","facebook":"Mississippi Valley Growers farmers Market","twitter":"","street":"2117 State St.","city":"Bettendorf ","state":"ia","zip":"52722","x":"-90.501985","y":"41.525159","tags":"baked goods flowers eggs vegetables honey jams plants fruits wild"},{"type":"market","name":"Bolan Farmers Market","website":"","facebook":"","twitter":"","street":"In front of Bolan School House","city":"Bolan","state":"ia","zip":"50440","x":"-93.1185","y":"43.3728","tags":""},{"type":"market","name":"Bonaparte Farmers Market","website":"","facebook":"","twitter":"","street":"Corner of 1st & Washington Streets","city":"Bonaparte","state":"ia","zip":"52620","x":"-91.8019","y":"40.6979","tags":""},{"type":"market","name":"Bondurant Farmers Market","website":"http://www.localharvest.org/bondurant-farmers-market-M57024","facebook":"","twitter":"","street":"101 Grant Street N","city":"Bondurant","state":"ia","zip":"50035","x":"-93.4632","y":"41.7015","tags":""},{"type":"market","name":"Boone Farmers Market Association","website":"http://www.boonefarmersmarket.com","facebook":"","twitter":"","street":"7th and Story Street","city":"Boone","state":"ia","zip":"50036","x":"-93.879688","y":"42.062726","tags":"baked goods crafts eggs herbs vegetables honey jams plants prepared soap wine fruits mushrooms"},{"type":"market","name":"Britt Farmers Market","website":"","facebook":"","twitter":"","street":"72 Main Avenue South","city":"Britt","state":"ia","zip":"50423","x":"-93.8018","y":"43.0963","tags":""},{"type":"market","name":"Buffalo Center Farmers Market","website":"","facebook":"","twitter":"","street":"Hwy 9 west of Drivers Choice Restaurant","city":"Buffalo Center","state":"ia","zip":"550424","x":"-93.9466","y":"43.3858","tags":""},{"type":"market","name":"Calhoun County Farmers Market","website":"","facebook":"","twitter":"","street":"On the east side of the Courthouse Square","city":"Rockwell City","state":"ia","zip":"50579","x":"-94.6342","y":"42.3947","tags":""},{"type":"market","name":"Calmar Farmers Market","website":"","facebook":"","twitter":"","street":"Calmar Depot","city":"Calmar","state":"ia","zip":"52132","x":"-91.8664","y":"43.1819","tags":""},{"type":"market","name":"Camanche Farmers Market","website":"","facebook":"","twitter":"","street":"City Park","city":"Camanche","state":"ia","zip":"52730","x":"-90.275","y":"41.7939","tags":""},{"type":"market","name":"Capitol Hill Farmers Market","website":"","facebook":"","twitter":"","street":"800 E. 12th Street","city":"Des Moines","state":"ia","zip":"50316","x":"-93.6031","y":"41.5958","tags":""},{"type":"market","name":"Carlisle Farmer's Market","website":"","facebook":"http://www.facebook.com/CarlisleFarmersMarket/","twitter":"","street":"95 Highway 5","city":"Carlisle","state":"ia","zip":"50047","x":"-93.486073","y":"41.494981","tags":"organic baked goods crafts flowers eggs herbs vegetables honey jams meat nuts plants prepared soap coffee fruits"},{"type":"market","name":"Carroll Farmers Market","website":"http://www.mmdividercd.org","facebook":"","twitter":"","street":"Westgate Mall parking lot","city":"Carroll","state":"ia","zip":"51401","x":"-94.8641","y":"42.0722","tags":""},{"type":"market","name":"Cartwright Pavilion Farmers Market","website":"","facebook":"","twitter":"","street":"2nd Avenue & State Street","city":"Marshalltown","state":"ia","zip":"50158","x":"-92.9137","y":"42.0382","tags":""},{"type":"market","name":"Cascade Farmers Market","website":"http://www.cascadeiowa.org","facebook":"","twitter":"","street":"Riverview Park","city":"Cascade","state":"ia","zip":"52033","x":"-91.3408","y":"42.1376","tags":""},{"type":"market","name":"Cedar County Farmers Market","website":"","facebook":"","twitter":"","street":"South of Courthouse on 4th Street","city":"Tipton","state":"ia","zip":"52772","x":"-91.1361","y":"41.7647","tags":""},{"type":"market","name":"Cedar Falls Farmers Market","website":"https://cedarfallsfarmersmarket.net/","facebook":"https://www.facebook.com/Cedar-Falls-Farmers-Market-116358658381830/","twitter":"CFFarmersMkt","street":"Clay & Third Streets","city":"Cedar Falls","state":"ia","zip":"50613","x":"-92.4481584","y":"42.5359498","tags":"baked goods crafts flowers eggs herbs vegetables honey jams meat nuts plants poultry prepared soap wine coffee fruits"},{"type":"market","name":"Cedar Valley Farmers Market I","website":"","facebook":"","twitter":"","street":"SE Corner of Kimball Avenue & Rodgeway Road","city":"Waterloo","state":"ia","zip":"50701","x":"-93.5011","y":"42.076","tags":""},{"type":"market","name":"Central City Mainstreet Farmers Market","website":"","facebook":"","twitter":"","street":"Courtyard Park, South 5th St","city":"Central City","state":"ia","zip":"52214","x":"-91.523164","y":"42.201356","tags":"baked goods crafts flowers eggs herbs vegetables honey jams meat nuts plants poultry prepared soap fruits"},{"type":"market","name":"Chariton Farmer's Market","website":"http://www.charitonchamber.com","facebook":"https://www.facebook.com/pages/Chariton-Area-ChamberMain-Street/140351426003653","twitter":"","street":"N. Grand Street","city":"Chariton","state":"ia","zip":"50049","x":"-93.3068373","y":"41.0205771","tags":"baked goods crafts flowers eggs herbs vegetables honey jams meat nuts plants soap coffee fruits mushrooms"},{"type":"market","name":"Charles City Downtown Farmers Market","website":"","facebook":"https://www.facebook.com/charlescityFM/","twitter":"","street":"Central Park","city":"Charles City","state":"ia","zip":"50616","x":"-92.677948","y":"43.069128","tags":"baked goods crafts flowers eggs vegetables honey jams maple plants prepared fruits"},{"type":"market","name":"Chester Farmers Market","website":"http://www.howard-county.com","facebook":"","twitter":"","street":"City Park","city":"Chester","state":"ia","zip":"52134","x":"-92.3172","y":"43.3568","tags":""},{"type":"market","name":"City of West Burlington Open Air Market","website":"","facebook":"","twitter":"","street":"City Hall parking lot, 122 Broadway Street","city":"West Burlington","state":"ia","zip":"52655","x":"-91.1566","y":"40.8253","tags":""},{"type":"market","name":"Clarinda Farmers Market","website":"","facebook":"","twitter":"","street":"East side of Courthouse Square","city":"Clarinda","state":"ia","zip":"51632","x":"-95.0369","y":"40.7406","tags":""},{"type":"market","name":"Clarion Farmers Market","website":"","facebook":"","twitter":"","street":"West side of County Court House","city":"Clarion","state":"ia","zip":"50525","x":"-93.73269","y":"42.73207","tags":"baked goods eggs herbs vegetables honey jams meat soap"},{"type":"market","name":"Clarke County Farmers Market","website":"","facebook":"","twitter":"","street":"S.E. corner of Courthouse Square","city":"Osceola","state":"ia","zip":"50213","x":"-93.7656","y":"41.0341","tags":""},{"type":"market","name":"Clear Lake Farmers Market","website":"","facebook":"","twitter":"","street":"City Hall parking lot, 15 N 6th Street","city":"Clear Lake","state":"ia","zip":"50428","x":"-93.3844","y":"43.1373","tags":""},{"type":"market","name":"Colesburg Farmers Market","website":"","facebook":"","twitter":"","street":"Delaware Street","city":"Colesburg","state":"ia","zip":"52035","x":"-91.4634","y":"42.4826","tags":""},{"type":"market","name":"College Hill Farmers Market","website":"","facebook":"College Hill Farmers Market","twitter":"","street":"2205 College St. ","city":"Cedar Falls ","state":"ia","zip":"50613","x":"-92.456087","y":"42.517617","tags":"baked goods crafts flowers vegetables jams plants prepared fruits pet food"},{"type":"market","name":"Collins Farmers Market","website":"","facebook":"","twitter":"","street":"Jefferson’s Restaurant parking lot on Hwy 65","city":"Collins","state":"ia","zip":"50055","x":"-93.3063","y":"41.9028","tags":""},{"type":"market","name":"Colo Farmers Market","website":"http://www.colo-iowa.org/farmers.pdf","facebook":"","twitter":"","street":"Lincoln Hwy and US 65","city":"Colo","state":"ia","zip":"50056","x":"-93.31066","y":"42.02277","tags":"baked goods crafts eggs herbs vegetables honey jams meat plants"},{"type":"market","name":"Columbus Junction Farmers Market","website":"http://columbusjunctioniowa.org","facebook":"https://www.facebook.com/home.php#!/profile.php?id=100000752813941","twitter":"","street":"241 Main St.","city":"Columbus Junction","state":"ia","zip":"52738","x":"-91.360422","y":"41.278984","tags":"baked goods crafts eggs herbs vegetables jams plants soap fruits"},{"type":"market","name":"Coon Rapids Farmers Market","website":"http://www.coonrapidsiowa.com","facebook":"","twitter":"","street":"4th & Main Street","city":"Coon Rapids","state":"ia","zip":"50058","x":"-94.6776","y":"41.8658","tags":""},{"type":"market","name":"Coralville Farmers' Market","website":"http://www.coralville.org/farmersmarket","facebook":"www.facebook.com/coralvillefarmersmarket","twitter":"www.twitter.com/CvilleParksRec","street":"1513 7th St","city":"Coralville ","state":"ia","zip":"52241","x":"-91.584155","y":"41.678726","tags":"baked goods crafts flowers eggs vegetables honey jams meat plants prepared soap fruits"},{"type":"market","name":"Correctionville Farm & Fun","website":"","facebook":"","twitter":"","street":"Old High School, 512 5th Street","city":"Correctionville","state":"ia","zip":"51016","x":"-95.7848","y":"42.475","tags":""},{"type":"market","name":"Cresco Farmers Market","website":"http://www.howard-county.com","facebook":"","twitter":"","street":"101 2nd Ave SW","city":"Cresco","state":"ia","zip":"52136","x":"-92.118784","y":"43.371656","tags":"baked goods vegetables plants fruits"},{"type":"market","name":"Creston Farmers' Market","website":"","facebook":"","twitter":"","street":"McKinley Park, between W. Adams & N. Park Sts.","city":"Creston","state":"ia","zip":"50801","x":"-94.3828","y":"41.0524","tags":""},{"type":"market","name":"Davenport Farmers' Market","website":"http://mvgrowers.com","facebook":"Mississippi Valley Growers farmers Market","twitter":"","street":"North Park Mall east entrance","city":"Davenport","state":"ia","zip":"52804","x":"-90.571154","y":"41.562863","tags":"baked goods crafts flowers eggs vegetables honey jams nuts plants poultry fruits pet food"},{"type":"market","name":"Davis County Farmers' Market","website":"http://www.bloomfieldmainstreet.com/Farmer'sMarket.htm","facebook":"","twitter":"","street":"100 E. Jefferson St.","city":"Bloomfield","state":"ia","zip":"52537","x":"-92.414246","y":"40.751572","tags":"baked goods eggs vegetables honey jams plants trees fruits"},{"type":"market","name":"Denison Farmers Market","website":"http://www.dloftus@cdcia.org","facebook":"","twitter":"","street":"1st Avenue N. & 15th Street","city":"Denison","state":"ia","zip":"51442","x":"-95.3508","y":"42.02","tags":""},{"type":"market","name":"DeWitt Farmers Market","website":"","facebook":"","twitter":"","street":"Lincoln Park","city":"DeWitt","state":"ia","zip":"52742","x":"-90.496","y":"41.5309","tags":""},{"type":"market","name":"Donnellson Farmers Market","website":"","facebook":"","twitter":"","street":"Railroad Park on Main Street","city":"Donnellson","state":"ia","zip":"52625","x":"-91.5645","y":"40.6462","tags":""},{"type":"market","name":"Downtown Farmers Market  sponsored by West Liberty Chamber of Commerce","website":"http://www.westlibertyiowa.com","facebook":"https://www.facebook.com/westlibertydowntownfm/","twitter":"","street":"Spencer Street","city":"West Liberty","state":"ia","zip":"52776","x":"-91.261947","y":"41.569958","tags":"baked goods crafts flowers eggs herbs vegetables jams plants prepared soap coffee fruits"},{"type":"market","name":"Downtown Farmers' Market - Des Moines","website":"http://www.desmoinesfarmersmarket.com/","facebook":"https://www.facebook.com/DowntownFarmersMarket/","twitter":"https://twitter.com/DTFarmersMarket","street":"Court Avenue and 3rd Street","city":"Des Moines","state":"ia","zip":"50309","x":"-93.6204386","y":"41.5853202","tags":"organic baked goods cheese crafts flowers eggs seafood herbs vegetables honey jams maple meat nuts plants poultry prepared soap trees wine coffee fruits grains juices mushrooms pet food wild"},{"type":"market","name":"Downtown Waterloo Farmers Market","website":"http://www.mainstreetwaterloo.org","facebook":"","twitter":"","street":"420 Jefferson Street","city":"Waterloo","state":"ia","zip":"50701","x":"-92.3421","y":"42.4956","tags":""},{"type":"market","name":"Drake Neighborhood Farmers Market","website":"http://www.drakefarmersmarket.org","facebook":"@drakefarmersmarket","twitter":"","street":"24th St and Cottage Grove","city":"Des Moines ","state":"ia","zip":"50311","x":"-93.649704","y":"41.596602","tags":"organic baked goods cheese crafts flowers eggs herbs vegetables honey jams meat nuts poultry prepared fruits grains juices"},{"type":"market","name":"Dubuque Farmers Market","website":"http://www.DubuqueFarmersMarket.org","facebook":"https://www.facebook.com/dbqfarmersmarket","twitter":"","street":"Iowa Street between 11th & 14th Streets","city":"Dubuque","state":"ia","zip":"52001","x":"-90.668031","y":"42.504954","tags":"organic baked goods cheese crafts flowers eggs seafood herbs vegetables honey jams maple meat nuts plants poultry prepared soap trees wine coffee fruits grains juices mushrooms pet food wild"},{"type":"market","name":"Dubuque Winter Farmers Market","website":"http://wintermarketdbq.com/","facebook":"https://www.facebook.com/DubuqueWinterFarmersMarket","twitter":"","street":"1101 Central Ave","city":"Dubuque","state":"ia","zip":"52001","x":"-90.6666256","y":"42.5039834","tags":"organic baked goods cheese eggs herbs vegetables honey jams meat nuts plants poultry prepared soap"},{"type":"market","name":"Dyersville Area Farmers' Market","website":"http://www.dyersville.org","facebook":"","twitter":"","street":"Hwy 136","city":"Dyersville","state":"ia","zip":"52040","x":"-91.11279","y":"42.48014","tags":"baked goods crafts vegetables honey jams maple plants fruits"},{"type":"market","name":"Dysart Farmers Market","website":"","facebook":"","twitter":"","street":"City Park","city":"Dysart","state":"ia","zip":"52224","x":"-92.3063","y":"42.1718","tags":""},{"type":"market","name":"Eastside Farmers Market","website":"","facebook":"","twitter":"","street":"3200 Delaware Avenue","city":"Des Moines","state":"ia","zip":"50317","x":"-93.5813","y":"41.6248","tags":""},{"type":"market","name":"Edgewood Farmers Market","website":"http://www.edgewoodiowa.com","facebook":"","twitter":"","street":"City Park","city":"Edgewood","state":"ia","zip":"52042","x":"-91.5679","y":"42.6445","tags":""},{"type":"market","name":"Eldora Farmers Market","website":"","facebook":"","twitter":"","street":"Corner of Edgington Ave. and 14th Street","city":"Eldora","state":"ia","zip":"50627","x":"-93.1007727","y":"42.3606264","tags":"baked goods crafts flowers eggs herbs vegetables jams plants soap fruits"},{"type":"market","name":"Elgin Area Growers Market","website":"http://www.elginiowa.org","facebook":"","twitter":"","street":"City Park","city":"Elgin","state":"ia","zip":"52141","x":"-91.6269","y":"42.9573","tags":""},{"type":"market","name":"Elma Farmers Market","website":"http://www.howard-county.com","facebook":"","twitter":"","street":"Elma Locker & Grocery parking lot","city":"Elma","state":"ia","zip":"50628","x":"-92.4351","y":"43.2455","tags":""},{"type":"market","name":"Ely Farmers Market","website":"http://www.elyedge.org","facebook":"","twitter":"","street":"1595 Dows St.","city":"Ely","state":"ia","zip":"52227","x":"-91.5858693","y":"41.8733833","tags":"baked goods crafts flowers eggs herbs vegetables honey jams nursery nuts plants prepared soap"},{"type":"market","name":"Ely Farmers Market","website":"","facebook":"https://www.facebook.com/farmtrails","twitter":"","street":"1570 Rowley St.","city":"Ely","state":"ia","zip":"52227","x":"-91.58502","y":"41.87162","tags":"baked goods crafts flowers eggs herbs vegetables honey jams nursery nuts plants prepared soap"},{"type":"market","name":"Estherville Farmers Market","website":"","facebook":"","twitter":"","street":"1226 Central Avenue","city":"Estherville","state":"ia","zip":"51334","x":"-94.827697","y":"43.402007","tags":"baked goods eggs herbs vegetables honey jams fruits"},{"type":"market","name":"Evansdale Farmers Market","website":"","facebook":"","twitter":"","street":"3524 Lafayette Rd","city":"Evansdale","state":"ia","zip":"50707","x":"-92.290200","y":"42.477565","tags":"baked goods crafts flowers eggs herbs vegetables honey jams nuts plants fruits"},{"type":"market","name":"Everly Farmers Market","website":"","facebook":"","twitter":"","street":"City Park, County Rd. B-24","city":"Everly","state":"ia","zip":"513338","x":"-95.3253","y":"43.1597","tags":""},{"type":"market","name":"Fairfield Farmers Market","website":"","facebook":"https://www.facebook.com/FairfieldFarmersMarket","twitter":"","street":"North Main St. and East Grimes Ave.","city":"Fairfield","state":"ia","zip":"52556","x":"-91.963120","y":"41.010184","tags":"organic baked goods cheese crafts flowers eggs herbs vegetables honey jams maple meat nuts plants poultry prepared soap trees fruits"},{"type":"market","name":"Farm Fresh Farmers Market","website":"","facebook":"","twitter":"","street":"3302 Agency St.  Dollar General parking lot","city":"Burlington","state":"ia","zip":"52601","x":"-91.1428","y":"40.815","tags":""},{"type":"market","name":"Farm Fresh Market","website":"","facebook":"","twitter":"","street":"1631 4th Street SW","city":"Mason City","state":"ia","zip":"50459","x":"-93.2259","y":"43.1484","tags":""},{"type":"market","name":"Farmers Market - Riceville","website":"","facebook":"","twitter":"","street":"203 West Main Street","city":"Riceville","state":"ia","zip":"50466","x":"-92.5560624","y":"43.3638272","tags":"baked goods crafts flowers eggs herbs vegetables honey jams plants fruits"},{"type":"market","name":"Farmers Market On Main","website":"","facebook":"","twitter":"","street":"12 East Main Street","city":"Marshalltown","state":"ia","zip":"50158","x":"-92.912128","y":"42.049006","tags":"baked goods cheese crafts flowers eggs herbs vegetables honey jams maple nursery plants soap trees"},{"type":"market","name":"Farmington Farmers Market","website":"","facebook":"","twitter":"","street":"103 South Front St.","city":"Farmington","state":"ia","zip":"52626","x":"-91.7440671","y":"40.6399131","tags":"baked goods crafts vegetables honey jams nuts plants soap"},{"type":"market","name":"Fonda Farmers Market","website":"","facebook":"","twitter":"","street":"City Park on Highway 7","city":"Fonda","state":"ia","zip":"50540","x":"-94.8395","y":"42.5889","tags":""},{"type":"market","name":"Fort Dodge Area Fruit/Vegetable Growers, Inc.","website":"","facebook":"","twitter":"","street":"1st Avenue S. & 25th Street","city":"Fort Dodge","state":"ia","zip":"50501","x":"-94.1794","y":"42.5058","tags":""},{"type":"market","name":"Fort Madison Farmers Market","website":"http://www.fortmadison.com","facebook":"","twitter":"","street":"9th Street & Avenue F","city":"Fort Madison","state":"ia","zip":"52627","x":"-91.31345","y":"40.63239","tags":"baked goods cheese crafts flowers eggs herbs vegetables honey jams maple meat nursery plants prepared soap wine"},{"type":"market","name":"Freight House Farmers' Market","website":"http://www.freighthhousefarmersmarket.com","facebook":"Freight House Farmers Market","twitter":"","street":"421 W. River Drive, Last Suite-Closest to Playground","city":"Davenport","state":"ia","zip":"52805","x":"-90.580319","y":"41.520005","tags":"organic baked goods cheese crafts flowers eggs seafood herbs vegetables honey jams maple meat nuts plants poultry prepared soap trees wine coffee beans fruits grains juices mushrooms pet food wild"},{"type":"market","name":"Friday Farmers Market","website":"","facebook":"","twitter":"","street":"Triangle Park on Main Street","city":"McGregor","state":"ia","zip":"52157","x":"-91.1749","y":"43.0249","tags":""},{"type":"market","name":"Friday Farmers Market I","website":"","facebook":"","twitter":"","street":"Schoolhouse Mall on North Street","city":"Marquette","state":"ia","zip":"52158","x":"-91.1842","y":"43.0428","tags":""},{"type":"market","name":"Garner Farmers Market","website":"http://www.TheGarnerGreenhouse.com","facebook":"","twitter":"","street":"755 W. 3rd Street","city":"Garner","state":"ia","zip":"50438","x":"-93.6122","y":"43.1023","tags":""},{"type":"market","name":"George Farmers market","website":"","facebook":"","twitter":"","street":"City park, south end of Main street","city":"George","state":"ia","zip":"","x":"-96.0019","y":"43.3399","tags":""},{"type":"market","name":"Gladbrook Farmers Market","website":"","facebook":"","twitter":"","street":"2nd St. across from the Gladbrook Theatre","city":"Gladbrook","state":"ia","zip":"50635","x":"-92.7169","y":"42.1877","tags":""},{"type":"market","name":"Green Earth Farmers Market","website":"","facebook":"","twitter":"","street":"101 Church Street at the Beach","city":"Ottumwa","state":"ia","zip":"52501","x":"-92.4154","y":"41.0137","tags":""},{"type":"market","name":"Green Hills Produce & Crafts","website":"","facebook":"Corning, IA - Farmer's Market","twitter":"","street":"","city":"Corning","state":"ia","zip":"50841","x":"-94.734617","y":"40.990542","tags":"baked goods crafts eggs herbs vegetables honey jams plants soap fruits"},{"type":"market","name":"Greene County Farmers Market","website":"","facebook":"Greene county farmers market","twitter":"","street":"114 n chestnut st","city":"Jefferson","state":"ia","zip":"50129","x":"-94.3740951","y":"42.0157699","tags":"baked goods crafts flowers eggs herbs vegetables honey jams meat plants prepared soap wine fruits juices"},{"type":"market","name":"Grimes Farmers Market","website":"","facebook":"","twitter":"","street":"True Value parking lot","city":"Grimes","state":"ia","zip":"50111","x":"-93.7935","y":"41.6884","tags":""},{"type":"market","name":"Grinnell Farmers Market","website":"http://www.grinnellchamber.org","facebook":"","twitter":"","street":"Central Park, east side of Broad Street","city":"Grinnell","state":"ia","zip":"50112","x":"-92.765","y":"41.7673","tags":""},{"type":"market","name":"Griswold Farmers Market","website":"","facebook":"","twitter":"","street":"Corner of Hwy 92 & Montgomery Street","city":"Griswold","state":"ia","zip":"51535","x":"-95.1414","y":"41.2348","tags":"baked goods crafts flowers vegetables jams plants"},{"type":"market","name":"Grundy Farmers Market","website":"","facebook":"","twitter":"","street":"On 7th Street, East of Courthouse","city":"Grundy Center","state":"ia","zip":"50638","x":"-92.7776","y":"42.3651","tags":""},{"type":"market","name":"Guthrie Center Farmers Market","website":"","facebook":"","twitter":"","street":"S. 4th St. between Rummelharts Financial Service and Guthrie Center Communications","city":"Guthrie Center","state":"ia","zip":"50115","x":"-94.5033","y":"41.6772","tags":""},{"type":"market","name":"Guttenberg Farmers Market","website":"http://www.guttenbergiowa.net/farmers-market.html","facebook":"https://www.facebook.com/GuttenbergFarmersMarket/","twitter":"","street":"400 Block of South River Park Drive","city":"Guttenberg","state":"ia","zip":"52052","x":"-91.095446","y":"42.782433","tags":"baked goods crafts flowers eggs seafood herbs vegetables honey jams maple meat plants soap fruits mushrooms"},{"type":"market","name":"Hampton Farmers Market","website":"","facebook":"","twitter":"","street":"1st Street NW and 1st Ave. NW","city":"Hampton","state":"ia","zip":"50441","x":"-93.209702","y":"42.742892","tags":"baked goods crafts eggs herbs vegetables honey jams plants fruits"},{"type":"market","name":"Harpers Ferry Farmers Market","website":"","facebook":"","twitter":"","street":"Harpers Ferry Conservation Park","city":"Harpers Ferry","state":"ia","zip":"52146","x":"-91.4756","y":"43.2695","tags":""},{"type":"market","name":"Hawarden Farmers Market","website":"","facebook":"","twitter":"","street":"13th and Ave E (Veteren Memorial Drive)","city":"Hawarden","state":"ia","zip":"51023","x":"-96.488","y":"43.0008","tags":"organic baked goods crafts flowers eggs herbs vegetables honey jams poultry prepared fruits"},{"type":"market","name":"Hiawatha Farmer's Market","website":"http://www.hiawatha-iowa.com","facebook":"","twitter":"","street":"701 Emmons St.","city":"Hiawatha","state":"ia","zip":"52233","x":"-91.6803","y":"42.0385","tags":""},{"type":"market","name":"Highland Park Farmers Market","website":"","facebook":"","twitter":"","street":"6th Avenue from Euclid to Douglas on west side of street","city":"Des Moines","state":"ia","zip":"50313","x":"-93.6247","y":"41.6277","tags":""},{"type":"market","name":"Highway 7 Market","website":"https://highway7market.wixsite.com/manson","facebook":"https://www.facebook.com/highway7market/","twitter":"","street":"1118 1st Ave","city":"Manson ","state":"ia","zip":"50563","x":"-94.5353089","y":"42.5171234","tags":"baked goods cheese crafts eggs seafood vegetables honey jams maple nuts plants poultry soap fruits juices"},{"type":"market","name":"Hillside Farmers Market","website":"","facebook":"","twitter":"","street":"2870 Hwy 275","city":"Hamburg","state":"ia","zip":"51650","x":"-95.649","y":"40.6306","tags":""},{"type":"market","name":"Historic Valley Junction Farmers Market","website":"http://www.valleyjunction.com","facebook":"https://www.facebook.com/valleyjunctionfarmersmarket/","twitter":"","street":"5th Street, Valley Junction","city":"West Des Moines","state":"ia","zip":"50265","x":"-93.7088864","y":"41.5724950","tags":"baked goods cheese crafts flowers eggs herbs vegetables honey jams maple meat plants poultry prepared soap trees wine fruits juices mushrooms pet food wild"},{"type":"market","name":"Homestead Farmer's Market","website":"","facebook":"","twitter":"","street":"4125 V Street","city":"Homestead","state":"ia","zip":"52236","x":"-91.8777","y":"41.7613","tags":"organic baked goods cheese crafts herbs vegetables honey jams meat plants prepared soap"},{"type":"market","name":"Humboldt Farmers Market","website":"","facebook":"https://www.facebook.com/HumboldtIAFarmersMarket/","twitter":"","street":"Sumner Ave. and Taft St.","city":"Humboldt","state":"ia","zip":"50548","x":"-94.216835","y":"42.721065","tags":"baked goods crafts eggs herbs vegetables honey jams prepared soap fruits"},{"type":"market","name":"Ida Area Farmers' Market","website":"http://www.idafarmersmarket.com","facebook":"Ida Area Farmers Market","twitter":"","street":"2nd Street","city":"Ida Grove","state":"ia","zip":"51445","x":"-95.470874","y":"42.345173","tags":"organic baked goods crafts flowers eggs vegetables honey jams meat nuts poultry soap wine beans fruits"},{"type":"market","name":"Independence Farmers Market","website":"","facebook":"https://www.facebook.com/indeefarmersmarket/","twitter":"","street":"100 1st St. W","city":"Independence","state":"ia","zip":"50644","x":"-91.8949732","y":"42.4687056","tags":"baked goods crafts flowers eggs herbs vegetables honey jams nuts plants prepared soap fruits"},{"type":"market","name":"Indianola Farmers Market","website":"","facebook":"","twitter":"","street":"Hwy 92 at Fairground west gate","city":"Indianola","state":"ia","zip":"50125","x":"-93.5682","y":"41.3593","tags":""},{"type":"market","name":"Iowa City Farmers Market","website":"http://www.icgov.org/farmersmarket","facebook":"","twitter":"","street":"220 S. Gilbert St.","city":"Iowa City","state":"ia","zip":"52240","x":"-91.529299","y":"41.659824","tags":"organic baked goods cheese crafts flowers eggs herbs vegetables honey jams maple meat nuts plants poultry prepared soap wine coffee beans fruits juices mushrooms pet food tofu wild"},{"type":"market","name":"Iowa Falls Farmers Market (River Halls Mall)","website":"","facebook":"","twitter":"","street":"River Halls Mall","city":"Iowa Falls","state":"ia","zip":"50126","x":"-93.2624","y":"42.5122","tags":""},{"type":"market","name":"iowa falls farmers' market","website":"","facebook":"","twitter":"","street":"Corner of Rocksylvania Ave. anb Stevens St.","city":"Iowa Falls","state":"ia","zip":"","x":"-93.264270","y":"42.521386","tags":"baked goods crafts flowers eggs herbs vegetables jams plants soap fruits"},{"type":"market","name":"Jasper County Farmers Market","website":"http:// jasper.agrilife.org/jasper-county-farmers-market/","facebook":"","twitter":"","street":"501 W. 3rd St. N.","city":"Newton","state":"ia","zip":"50208","x":"-93.0564","y":"41.7032","tags":"baked goods crafts herbs vegetables jams plants prepared soap fruits pet food"},{"type":"market","name":"Jesup Farmers Market","website":"","facebook":"","twitter":"","street":"Land of Corn Park","city":"Jesup","state":"ia","zip":"50648","x":"-91.9039","y":"42.6781","tags":""},{"type":"market","name":"Johnston Farmers Market","website":"http://www.johnstonlionsclub.com","facebook":"https://www.facebook.com/pages/Johnston-Farmers-Market/199378466755830","twitter":"","street":"Corner of NW 62nd Avenue & Merle Hay Road","city":"Johnston","state":"ia","zip":"50131","x":"-93.69703","y":"41.67354","tags":"organic baked goods cheese crafts flowers eggs herbs vegetables honey jams meat nuts plants poultry prepared soap trees coffee fruits pet food"},{"type":"market","name":"Kanawha Farmers Market","website":"","facebook":"","twitter":"","street":"","city":"Kanawha","state":"ia","zip":"50447","x":"-93.7932746","y":"42.9377443","tags":"baked goods crafts vegetables honey coffee fruits"},{"type":"market","name":"Keokuk Farmers Market","website":"http://www.keokukchamber.com","facebook":"","twitter":"","street":"River City Mall parking lot","city":"Keokuk","state":"ia","zip":"52632","x":"-91.381762","y":"40.393557","tags":"baked goods cheese crafts flowers eggs herbs vegetables honey jams nuts plants soap fruits grains"},{"type":"market","name":"Keosauqua Farmers Market","website":"","facebook":"","twitter":"","street":"In front of M & B Repair, Hwy 1 North","city":"Keosauqua","state":"ia","zip":"52565","x":"-91.9552","y":"40.7246","tags":""},{"type":"market","name":"Kimball Ridge Family Market ","website":"http://www.localharvest.org/kimball-ridge-family-market-M21835","facebook":"","twitter":"","street":"Corner of Kimball & Ridgeway Ave., in the Ridgeway","city":"Waterloo","state":"ia","zip":"50702","x":"-92.357","y":"42.4694","tags":""},{"type":"market","name":"Knoxville Farmers' Market ","website":"","facebook":"knoxville farmers market","twitter":"","street":"","city":"Knoxville ","state":"ia","zip":"50138","x":"-93.097039","y":"41.318334","tags":"baked goods crafts flowers eggs vegetables plants prepared coffee fruits"},{"type":"market","name":"Kossuth County Farmers Market","website":"","facebook":"","twitter":"","street":"Corner of Dodge & Nebraska Streets","city":"Algona","state":"ia","zip":"50511","x":"-94.0956","y":"43.3755","tags":""},{"type":"market","name":"Lake Mills Farmers Market","website":"","facebook":"","twitter":"","street":"Corner of US 69 & 1st Avenue","city":"Lake Mills","state":"ia","zip":"50450","x":"-93.6021","y":"43.1018","tags":""},{"type":"market","name":"Lakes Area Farmers Market","website":"","facebook":"","twitter":"","street":"1602 15th street","city":"Spirit Lake","state":"ia","zip":"51360","x":"-95.1140916","y":"43.4255548","tags":"organic baked goods crafts flowers eggs herbs vegetables honey jams meat plants prepared soap trees coffee fruits pet food"},{"type":"market","name":"Lamoni Farmer's Market","website":"","facebook":"Lamoni Farmers' Market","twitter":"","street":"610  E. Main St  or Corner of Main St & South Linden St","city":"Lamoni","state":"ia","zip":"50140","x":"-93.933204","y":"40.623530","tags":"crafts flowers eggs herbs vegetables honey meat fruits mushrooms"},{"type":"market","name":"Le Mars Area Farmers Market II","website":"http://www.lemarsiowa.com","facebook":"","twitter":"","street":"Bomgaars parking lot on Hwy 75","city":"Le Mars","state":"ia","zip":"51031","x":"-96.1697","y":"42.7896","tags":""},{"type":"market","name":"Le Mars Area Farmers' Market","website":"http://www.lemarsiowa.com","facebook":"","twitter":"","street":"Olson Cultural Event Center, 33 1st Street NE","city":"Le Mars","state":"ia","zip":"51031","x":"-96.1156","y":"42.7943","tags":""},{"type":"market","name":"Lime Springs Farmers Market","website":"http://www.howard-county.com","facebook":"","twitter":"","street":"Brown Park","city":"Lime Springs","state":"ia","zip":"52155","x":"-92.282836","y":"43.447861","tags":"baked goods vegetables"},{"type":"market","name":"Linn Street Farmers Market","website":"","facebook":"","twitter":"","street":"203 E. Linn Street","city":"Marshalltown","state":"ia","zip":"50158","x":"-92.9096","y":"42.0467","tags":""},{"type":"market","name":"Lisbon Farmers Market","website":"","facebook":"","twitter":"","street":"Main Street","city":"Lisbon","state":"ia","zip":"52253","x":"-91.4035","y":"41.9217","tags":""},{"type":"market","name":"LSI Global Greens Farmers' Market","website":"http://lsiowa.org/market","facebook":"","twitter":"","street":"3200 University Ave","city":"Des Moines","state":"ia","zip":"50311","x":"-93.660454","y":"41.599698","tags":"flowers herbs vegetables plants beans"},{"type":"market","name":"Lucas Farmers Market","website":"","facebook":"","twitter":"","street":"Lucas Memorial Park, Junction Highways 65 & 34","city":"Lucas","state":"ia","zip":"50151","x":"-90.1786","y":"41.8723","tags":""},{"type":"market","name":"Lyons Farmers Market","website":"","facebook":"","twitter":"","street":"4 Square Park","city":"Clinton","state":"ia","zip":"52732","x":"-90.1906","y":"41.8529","tags":""},{"type":"market","name":"Madison County Farmers Market","website":"","facebook":"https://www.facebook.com/madisoncofarmersmarket","twitter":"","street":"112 N. John Wayne Dr.","city":"Winterset","state":"ia","zip":"50273","x":"-94.013604","y":"41.335222","tags":"organic baked goods crafts flowers eggs herbs vegetables honey jams meat nuts plants poultry soap coffee fruits"},{"type":"market","name":"Main Street Greenfield's Farmers Market","website":"http://www.greenfieldiowa.com","facebook":"","twitter":"","street":"South side of Courthouse Square","city":"Greenfield","state":"ia","zip":"50849","x":"-94.4613","y":"41.3049","tags":""},{"type":"market","name":"Manchester Farmers Market","website":"","facebook":"","twitter":"","street":"South Tama Street","city":"Manchester","state":"ia","zip":"52057","x":"-91.4543","y":"42.484","tags":""},{"type":"market","name":"Manson Farmers Market","website":"","facebook":"","twitter":"","street":"","city":"Manson ","state":"ia","zip":"50563","x":"-94.539507","y":"42.527104","tags":"baked goods vegetables honey jams wine fruits"},{"type":"market","name":"Maquoketa Farmers Market","website":"http://maquoketafarmersmarket@gmail.com","facebook":"Maquoketa Farmers Market","twitter":"","street":"1215 Platt ST.","city":"Maquoketa ","state":"ia","zip":"","x":"-90.6491555","y":"42.0680597","tags":"baked goods crafts flowers eggs herbs vegetables honey jams meat nuts plants prepared soap trees wine fruits juices"},{"type":"market","name":"Marion Farmers Market","website":"","facebook":"","twitter":"","street":"2200 31st Street","city":"Marion","state":"ia","zip":"52302","x":"-91.5807440","y":"42.0443772","tags":"baked goods crafts flowers eggs vegetables honey jams meat plants prepared soap coffee fruits"},{"type":"market","name":"Market on Central - Farmers Market in Historic Downtown Fort Dodge","website":"http://www.fdmarketoncentral.com","facebook":"https://www.facebook.com/marketoncentral","twitter":"","street":"7th to 10th Street on Central Avenue","city":"Fort Dodge","state":"ia","zip":"50501","x":"-94.186900","y":"42.505204","tags":"organic baked goods cheese crafts flowers eggs herbs vegetables honey jams maple meat nuts plants poultry prepared soap trees wine coffee beans fruits pet food wild"},{"type":"market","name":"Marne Farmers Market","website":"","facebook":"","twitter":"","street":"63 Washington","city":"Marne","state":"ia","zip":"51552","x":"-95.1114","y":"41.4483","tags":""},{"type":"market","name":"Mechanicsville Farmers Market","website":"","facebook":"","twitter":"","street":"Downtown area","city":"Mechanicsville","state":"ia","zip":"52306","x":"-91.2527","y":"41.9061","tags":""},{"type":"market","name":"Melcher-Dallas Farmer's Market","website":"","facebook":"Melcher-Dallas-Farmers-Market","twitter":"","street":"","city":"Melcher-Dallas","state":"ia","zip":"50163","x":"-93.241759","y":"41.223256","tags":"baked goods vegetables jams fruits"},{"type":"market","name":"Monona Farmers Market","website":"","facebook":"","twitter":"","street":"Gateway Park, 900 S. Main Street","city":"Monona","state":"ia","zip":"52159","x":"-91.3898","y":"43.0447","tags":""},{"type":"market","name":"Monroe County Farmers Market","website":"","facebook":"","twitter":"","street":"Southeast corner of The Albia Square","city":"Albia","state":"ia","zip":"52531","x":"-92.8041","y":"41.027","tags":""},{"type":"market","name":"Monticello Farmers Market","website":"http://www.monticellofarmersmarket.com","facebook":"","twitter":"","street":"South Main Street","city":"Monticello","state":"ia","zip":"52310","x":"-91.185","y":"42.2363","tags":"baked goods crafts flowers herbs vegetables honey jams meat plants"},{"type":"market","name":"Montrose Riverfront, Inc. Farmers Market","website":"","facebook":"","twitter":"","street":"201 N First Street","city":"Montrose","state":"ia","zip":"52639","x":"-91.4159","y":"40.534","tags":"baked goods flowers herbs vegetables honey jams plants"},{"type":"market","name":"Moravia Garden Club Farmers Market","website":"","facebook":"","twitter":"","street":"Gazebo in NE corner of City Park, Downtown","city":"Moravia","state":"ia","zip":"52571","x":"-92.8071","y":"41.027","tags":""},{"type":"market","name":"Mount Vernon (Iowa) Farmers' Market","website":"","facebook":"https://www.facebook.com/mtvernonfarmersmarket","twitter":"","street":"221 1st Street East","city":"Mount Vernon","state":"ia","zip":"52314","x":"-91.4158000","y":"41.9216036","tags":"baked goods crafts flowers eggs herbs vegetables honey jams meat nuts plants poultry soap fruits grains"},{"type":"market","name":"Moville Farmers Market","website":"","facebook":"","twitter":"","street":"Main Street & Pearl Street","city":"Moville","state":"ia","zip":"","x":"-96.0738","y":"42.4888","tags":""},{"type":"market","name":"Mt. Pleasant  Farmers Market","website":"","facebook":"Mt. Pleasant, Iowa Farmers Market","twitter":"","street":"S. Walnut St","city":"Mt. Pleasant","state":"ia","zip":"52641","x":"-91.547312","y":"40.956333","tags":"organic baked goods crafts flowers eggs herbs vegetables honey jams nuts plants prepared soap trees coffee"},{"type":"market","name":"Muscatine Area Farmers Market I","website":"","facebook":"https://www.facebook.com/MuscatineAreaFarmersMarket/","twitter":"","street":"City lot on the corner of 3rd & Cedar Street","city":"Muscatine","state":"ia","zip":"52761","x":"-91.0679255","y":"41.4358724","tags":"baked goods crafts flowers eggs herbs vegetables honey jams maple meat plants prepared soap coffee fruits mushrooms"},{"type":"market","name":"Muscatine Area Farmers Market II","website":"","facebook":"https://www.facebook.com/MuscatineAreaFarmersMarket/","twitter":"","street":"Muscatine Mall parking lot","city":"Muscatine","state":"ia","zip":"52761","x":"-91.0432051","y":"41.4244730","tags":"baked goods crafts eggs herbs vegetables jams maple plants prepared soap fruits"},{"type":"market","name":"New Hampton Farmers Market","website":"","facebook":"","twitter":"","street":"Corner of Main Street & Chestnut Avenue","city":"New Hampton","state":"ia","zip":"50659","x":"-92.3154","y":"43.0593","tags":""},{"type":"market","name":"Noelridge Farmers Market","website":"http://www.cedar-rapids.org/resident-resources/parks-recreation/farmers-markets/pages/default.aspx","facebook":"","twitter":"","street":"Corner of Collins Road & Council Street NE","city":"Cedar Rapids","state":"ia","zip":"52402","x":"-91.656845","y":"42.027648","tags":"baked goods crafts flowers eggs herbs vegetables honey jams maple meat nuts plants poultry prepared soap wine coffee fruits mushrooms pet food wild"},{"type":"market","name":"North Grand Farmers Market Association","website":"","facebook":"","twitter":"","street":"North Grand Mall","city":"Ames","state":"ia","zip":"50010","x":"-93.6205","y":"42.0494","tags":""},{"type":"market","name":"North Iowa Farmers Market","website":"https://northiowafarmersmarket.com/","facebook":"https://www.facebook.com/northiowafarmersmarket/","twitter":"","street":"1st NE and Delaware","city":"Mason City","state":"ia","zip":"50401","x":"-93.199249","y":"43.152590","tags":"organic baked goods crafts flowers eggs herbs vegetables honey jams meat plants poultry prepared soap fruits"},{"type":"market","name":"Northwood Farmers Market","website":"","facebook":"","twitter":"","street":"Main Street, south of Courthouse","city":"Northwood","state":"ia","zip":"50459","x":"-93.2183","y":"43.4442","tags":""},{"type":"market","name":"Norwalk Area Farmers Market","website":"","facebook":"","twitter":"","street":"Dollar General Store parking Lot","city":"Norwalk","state":"ia","zip":"50211","x":"-93.6798","y":"41.4787","tags":"baked goods crafts flowers herbs honey jams plants"},{"type":"market","name":"Oelwein Farmers Market","website":"","facebook":"","twitter":"","street":"South parking lot by Log Cabin Park","city":"Oelwein","state":"ia","zip":"50662","x":"-91.9082","y":"42.6833","tags":""},{"type":"market","name":"Orange City Farmers Market","website":"","facebook":"","twitter":"","street":"Windmill Park, center of town","city":"Orange City","state":"ia","zip":"50141","x":"-96.05941","y":"43.00741","tags":"baked goods flowers eggs herbs vegetables honey jams"},{"type":"market","name":"Osage Farmers Market","website":"","facebook":"","twitter":"","street":"Town & Country Plaza","city":"Osage","state":"ia","zip":"50461","x":"-92.8139","y":"43.2879","tags":""},{"type":"market","name":"Oskaloosa Farmers Market I","website":"http://www.hawkeye-re.com/farmersmarket/index.htm","facebook":"","twitter":"","street":"East side of Town Square","city":"Oskaloosa","state":"ia","zip":"52577","x":"-92.6419","y":"41.2946","tags":""},{"type":"market","name":"Oskaloosa Farmers Market II","website":"http://www.hawkeye-re.com/farmersmarket/index.htm","facebook":"","twitter":"","street":"High Ave. W., N. side of Hy-Vee Parking Lot","city":"Oskaloosa","state":"ia","zip":"52577","x":"-92.6495","y":"41.2951","tags":""},{"type":"market","name":"Ottumwa Farmers Market","website":"","facebook":"","twitter":"","street":"Quincy Place Mall, 1110 Quincy Ave.","city":"Ottumwa","state":"ia","zip":"52501","x":"-92.4259","y":"41.016","tags":""},{"type":"market","name":"Pamida Farmers Market","website":"","facebook":"","twitter":"","street":"Pamida parking lot, 616 Highway 9 East","city":"Forest City","state":"ia","zip":"50436","x":"-93.6295","y":"43.2704","tags":""},{"type":"market","name":"Paradise Farmers' Market","website":"","facebook":"@leonparadisefarmersmarket","twitter":"","street":"Court House Square","city":"Leon ","state":"ia","zip":"50144","x":"-93.746796","y":"40.740433","tags":"baked goods crafts herbs vegetables honey fruits"},{"type":"market","name":"Paullina Farmers Market","website":"","facebook":"","twitter":"","street":"City Park","city":"Paullina","state":"ia","zip":"51046","x":"-95.6832","y":"42.9612","tags":""},{"type":"market","name":"Pella Farmers Market","website":"","facebook":"https://www.facebook.com/pages/Pella-Farmers-Market/167683583289918","twitter":"","street":"603 Broadway","city":"Pella","state":"ia","zip":"50219","x":"-92.918792","y":"41.404495","tags":"organic baked goods flowers eggs herbs vegetables honey jams plants fruits"},{"type":"market","name":"Perry Farmers Market","website":"","facebook":"","twitter":"","street":"1st & Willis at Caboose parking lot","city":"Perry","state":"ia","zip":"50220","x":"-94.1061","y":"41.8386","tags":""},{"type":"market","name":"Pocahontas Farmers Market","website":"","facebook":"","twitter":"","street":"East side of Court House Square","city":"Pocahontas","state":"ia","zip":"50574","x":"-94.6677","y":"42.737","tags":"baked goods crafts flowers herbs vegetables honey jams maple meat nuts plants soap"},{"type":"market","name":"Polk City Farmers Market","website":"","facebook":"","twitter":"","street":"Town Square","city":"Polk City","state":"ia","zip":"50226","x":"-93.713658","y":"41.771136","tags":"baked goods crafts flowers eggs herbs vegetables honey jams plants prepared soap trees fruits pet food"},{"type":"market","name":"Prairie City Farmers Market","website":"http://www.pcbaiowa.com","facebook":"https://m.facebook.com/prairiecityfm/","twitter":"","street":"103 S. Marshall St.","city":"Prairie City","state":"ia","zip":"50228","x":"-93.236140","y":"41.598313","tags":"baked goods crafts flowers eggs herbs vegetables honey jams maple meat prepared fruits"},{"type":"market","name":"Preston Farmers Market","website":"","facebook":"","twitter":"","street":"Twogood Park off Highway 64","city":"Preston","state":"ia","zip":"52069","x":"-90.4115","y":"42.0585","tags":""},{"type":"market","name":"Primghar Farmers Market","website":"","facebook":"","twitter":"","street":"Courthouse Square","city":"Primghar","state":"ia","zip":"51245","x":"-95.6269","y":"43.0853","tags":""},{"type":"market","name":"Produce in the Park","website":"","facebook":"produceinthepark","twitter":"","street":"10 West 7th Street","city":"Atlantic ","state":"ia","zip":"50022","x":"-95.013901","y":"41.404685","tags":"organic baked goods crafts flowers eggs herbs vegetables jams meat plants poultry prepared soap fruits pet food"},{"type":"market","name":"Protivin Farmers Market","website":"","facebook":"","twitter":"","street":"Main Street","city":"Protivin","state":"ia","zip":"52163","x":"-92.090930","y":"43.215719","tags":"baked goods vegetables"},{"type":"market","name":"Punta Gorda Downtown Farmers Market","website":"http://www.icgov.org/farmersmarket","facebook":"","twitter":"","street":"460 E. Washington St.","city":"Iowa City","state":"ia","zip":"52240","x":"-91.5290438","y":"41.6600665","tags":""},{"type":"market","name":"Red Oak Farmers Market","website":"http://redoakfarmersmarket.com","facebook":"facebook.com@redoakfarmersmarket","twitter":"","street":"307 East Reed Street","city":"Red Oak","state":"ia","zip":"51566","x":"-95.228044","y":"41.009641","tags":"baked goods crafts herbs vegetables honey jams fruits"},{"type":"market","name":"Richland Farmers Market","website":"","facebook":"","twitter":"","street":"Central Park-downtown Richland on the Square","city":"Richland","state":"ia","zip":"52585","x":"-91.8856","y":"41.1782","tags":""},{"type":"market","name":"River City Farmers Market I","website":"","facebook":"","twitter":"","street":"1951 Madison Avenue","city":"Council Bluffs","state":"ia","zip":"51503","x":"-95.8531","y":"41.2534","tags":""},{"type":"market","name":"River City Farmers Market II","website":"","facebook":"","twitter":"","street":"Kanesville & Main Streets","city":"Council Bluffs","state":"ia","zip":"50513","x":"-95.8223","y":"41.2416","tags":""},{"type":"market","name":"Riverfront Farmers Market","website":"","facebook":"","twitter":"","street":"400 N Front Street","city":"Burlington","state":"ia","zip":"52601","x":"-91.0996","y":"40.8099","tags":""},{"type":"market","name":"Rock Rapids Farmers Market","website":"","facebook":"","twitter":"","street":"SE corner of Sunshine Grocery Store parking lot","city":"Rock Rapids","state":"ia","zip":"","x":"-96.1695","y":"43.4319","tags":""},{"type":"market","name":"Rolfe Farmers Market","website":"","facebook":"","twitter":"","street":"Downtown Rolfe","city":"Rolfe","state":"ia","zip":"50581","x":"-94.52774","y":"42.81454","tags":"baked goods flowers eggs herbs vegetables honey jams prepared fruits"},{"type":"market","name":"Rudd Farmers Market","website":"","facebook":"","twitter":"","street":"City Park by the Library","city":"Rudd","state":"ia","zip":"50471","x":"-92.9022","y":"43.1282","tags":""},{"type":"market","name":"Shelby County Farmers Market","website":"","facebook":"https://www.facebook.com/pages/Shelby-County-Farmers-Market/","twitter":"","street":"Hwys 44 and 59","city":"Harlan","state":"ia","zip":"51537","x":"-95.338551","y":"41.645619","tags":"baked goods flowers eggs herbs vegetables jams trees fruits"},{"type":"market","name":"Sheldon Farmers Market","website":"http://www.sheldoniowa.com","facebook":"","twitter":"","street":"Pamida parking lot on Highway 18","city":"Sheldon","state":"ia","zip":"51201","x":"-95.85","y":"43.1855","tags":""},{"type":"market","name":"Shellsburg Farmers Market","website":"http://www.shellsburg.com/farmersmarket","facebook":"","twitter":"","street":"City Park","city":"Shellsburg","state":"ia","zip":"52332","x":"-91.8707","y":"42.0929","tags":"organic baked goods crafts flowers herbs vegetables honey jams plants prepared soap"},{"type":"market","name":"Shenandoah Garden City Market","website":"","facebook":"","twitter":"","street":"500 W. Clarinda Avenuel","city":"Shenandoah","state":"ia","zip":"51601","x":"-95.3714","y":"40.7651","tags":""},{"type":"market","name":"Sibley Farmers Market","website":"","facebook":"","twitter":"","street":"400 block of 9th Street","city":"Sibley","state":"ia","zip":"51249","x":"-95.7503","y":"43.4","tags":""},{"type":"market","name":"Silver Creek Farmers Market","website":"http://www.silvercreekfarmersmarket.com","facebook":"","twitter":"","street":"Centenial City Park on Main Street, along Wabash Trace Trail","city":"Silver City","state":"ia","zip":"51571","x":"-95.6372","y":"41.1126","tags":""},{"type":"market","name":"Sioux City Farmers Market","website":"http://www.farmersmarketsiouxcity.com","facebook":"Sioux City Farmers Market","twitter":"@SiouxCityFarmersMarket","street":"100 Pearl Street","city":"Sioux City","state":"ia","zip":"51101","x":"-96.408445","y":"42.490552","tags":"organic baked goods cheese crafts flowers eggs herbs vegetables honey jams meat plants poultry prepared soap wine coffee fruits juices pet food"},{"type":"market","name":"Spencer Riverfront Farmers Market","website":"","facebook":"https://www.facebook.com/SpencerRiverfrontDistrictFarmersMarket/","twitter":"","street":"24 West Park Street","city":"Spencer","state":"ia","zip":"51301","x":"-95.1457676","y":"43.1375126","tags":"organic baked goods crafts flowers eggs seafood herbs vegetables honey maple meat plants poultry prepared soap wine coffee grains pet food"},{"type":"market","name":"Springville Farmers' Market","website":"http://www.springville-sedc.org","facebook":"","twitter":"","street":"304 Broadway","city":"Springville","state":"ia","zip":"52336","x":"-91.442835","y":"42.060748","tags":"organic baked goods crafts eggs herbs vegetables honey jams meat nursery nuts plants soap"},{"type":"market","name":"Square Fridays Flea and Farmers' Market","website":"http://www.panora.org/square_fridays/","facebook":"https://www.facebook.com/SquareFridays","twitter":"","street":"Town Square","city":"Panora","state":"ia","zip":"50216","x":"-94.365608","y":"41.691859","tags":"baked goods crafts flowers eggs herbs vegetables honey jams plants prepared soap fruits grains"},{"type":"market","name":"St. Ansgar Farmers Market","website":"","facebook":"","twitter":"","street":"Corner of 4th & School Streets","city":"St. Ansgar","state":"ia","zip":"50472","x":"-92.9204","y":"43.3785","tags":""},{"type":"market","name":"State Center Farmers Market","website":"","facebook":"https://www.facebook.com/statecenterfarmersmarket","twitter":"","street":"100 block of West Main Street","city":"State Center","state":"ia","zip":"50247","x":"-93.164577","y":"42.016469","tags":"baked goods cheese crafts flowers eggs herbs vegetables honey jams meat nuts plants poultry prepared soap trees wine fruits"},{"type":"market","name":"Storm Lake Farmers Market","website":"","facebook":"","twitter":"","street":"SE side 600 block of Erie Street","city":"Storm Lake","state":"ia","zip":"51588","x":"-95.1953","y":"42.6456","tags":""},{"type":"market","name":"Strawberry Point Farmers Market","website":"","facebook":"","twitter":"","street":"Inger Park","city":"Strawberry Point","state":"ia","zip":"52076","x":"-91.5135","y":"42.6963","tags":""},{"type":"market","name":"Stuart Farmers Market","website":"","facebook":"","twitter":"","street":"Lawbaugh Park, 3rd & S. Division Sts.","city":"Stuart","state":"ia","zip":"50250","x":"-94.3174","y":"41.496","tags":""},{"type":"market","name":"Swea City Farmers Market","website":"","facebook":"","twitter":"","street":"Reynolds Park","city":"Swea City","state":"ia","zip":"50590","x":"-94.3073","y":"43.3841","tags":""},{"type":"market","name":"Sycamore Mall Farmers Market","website":"http://www.sycamoremall.com","facebook":"","twitter":"","street":"Highway 6 & Sycamore Street","city":"Iowa City","state":"ia","zip":"52240","x":"-92.4618","y":"42.6436","tags":""},{"type":"market","name":"The Gardeners Market","website":"","facebook":"","twitter":"","street":"North side of Courthouse Square on 10th Street","city":"Emmetsburg","state":"ia","zip":"50536","x":"-94.6787","y":"43.111","tags":""},{"type":"market","name":"The Iowa City Mercer Park Farmers Market","website":"http://www.icgov.org/farmersmarket","facebook":"https://www.facebook.com/FICFM","twitter":"","street":"1317 Dover Street","city":"Iowa City","state":"ia","zip":"52240","x":"-91.496115","y":"41.645086","tags":"organic baked goods cheese crafts flowers eggs herbs vegetables honey jams meat nuts plants poultry prepared soap trees wine coffee beans fruits grains juices mushrooms pet food wild"},{"type":"market","name":"The Mason City Market ","website":"http://www.localharvest.org/the-mason-city-market-M52990","facebook":"","twitter":"","street":"9 N. Federal Avenue (Central Park)","city":"Mason City","state":"ia","zip":"50401","x":"-78.826","y":"42.9332","tags":""},{"type":"market","name":"Tipton Farmers Market Association","website":"","facebook":"","twitter":"","street":"North side of Court House","city":"Tipton","state":"ia","zip":"52772","x":"-91.1284","y":"41.7694","tags":""},{"type":"market","name":"Tripoli Farmers Market","website":"","facebook":"","twitter":"","street":"Swimming pool parking lot","city":"Tripoli","state":"ia","zip":"50676","x":"-92.2582","y":"42.8056","tags":""},{"type":"market","name":"Union Farmers Market","website":"","facebook":"","twitter":"","street":"City Park at 406 Center Street","city":"Union","state":"ia","zip":"50258","x":"-93.0636","y":"42.2452","tags":""},{"type":"market","name":"University Avenue Farmers' Market","website":"","facebook":"","twitter":"","street":"4000 University Avenue","city":"Waterloo","state":"ia","zip":"50701","x":"-92.4038187","y":"42.5053323","tags":"baked goods crafts flowers eggs herbs vegetables honey jams meat nursery nuts plants wine"},{"type":"market","name":"Uptown Ankeny Farmers Market","website":"http://www.uptownankeny.org","facebook":"","twitter":"","street":"Corner of SW 3rd & SW Maple Street","city":"Ankeny","state":"ia","zip":"50023","x":"-93.608108","y":"41.729882","tags":"baked goods crafts flowers eggs herbs vegetables honey jams meat nuts plants poultry prepared soap fruits"},{"type":"market","name":"Urbana Farmers' Market","website":"","facebook":"urbanafarmersmarket","twitter":"urbanaiafm","street":"102 Capitol Ave","city":"Urbana","state":"ia","zip":"52345","x":"-91.8829631","y":"42.2263834","tags":"baked goods crafts flowers eggs vegetables jams plants soap fruits"},{"type":"market","name":"Valley Junction Farmers Market","website":"http://www.valleyjunction.com","facebook":"https://www.facebook.com/pages/Historic-Valley-Junction/213942310119?fref=ts","twitter":"https://twitter.com/Valley_Junction","street":"100 & 200 blocks on 5th Street","city":"West Des Moines","state":"ia","zip":"50265","x":"-93.708959","y":"41.570412","tags":"organic baked goods cheese crafts flowers eggs herbs vegetables honey jams meat nuts plants poultry prepared soap wine fruits juices"},{"type":"market","name":"Van Meter Farmers Market ","website":"http://www.farmersmarketonline.com/fm/VanMeterFarmersMarket.html","facebook":"https://www.facebook.com/vanmeterfamersmarket","twitter":"","street":"Van Meter Recreation Complex behind Casey's Market","city":"Van Meter","state":"ia","zip":"","x":"-93.9544","y":"41.5333","tags":""},{"type":"market","name":"Vinton Farmers Market","website":"http://www.vprdzone.com","facebook":"","twitter":"","street":"Vinton Depot, 612 2nd Avenue","city":"Vinton","state":"ia","zip":"52349","x":"-92.0216","y":"42.1649","tags":"baked goods herbs honey jams fruits"},{"type":"market","name":"Wapello County Farmers Market","website":"","facebook":"Wapello County  Farmers Market","twitter":"","street":"","city":"Ottumwa","state":"ia","zip":"52501","x":"-92.425855","y":"41.017422","tags":"baked goods crafts eggs herbs vegetables honey jams prepared fruits"},{"type":"market","name":"Washington Farmers' Market","website":"","facebook":"Washington Farmers' Market","twitter":"","street":"","city":"Washington","state":"ia","zip":"52353","x":"-91.691948","y":"41.298848","tags":"organic baked goods crafts flowers eggs herbs vegetables honey jams meat plants prepared soap fruits juices wild"},{"type":"market","name":"Waukee Downtown Farmers Market","website":"http://waukeedowntown.com","facebook":"","twitter":"","street":"Ashworth Dr. and 6th St.","city":"Waukee ","state":"ia","zip":"50263","x":"-93.8855918","y":"41.6119491","tags":"baked goods crafts eggs herbs vegetables honey jams plants prepared fruits juices"},{"type":"market","name":"Waverly Farmers Market","website":"http://www.waverlyfarmersmarket.com","facebook":"","twitter":"","street":"Downtown behinde Keller's Furniture","city":"Waverly","state":"ia","zip":"50677","x":"-92.4714","y":"42.7318","tags":""},{"type":"market","name":"Webster City Farmers Market","website":"","facebook":"https://www.facebook.com/pages/Webster-City-Farmers-Market/117809551586110","twitter":"","street":"City Plaza","city":"Webster City","state":"ia","zip":"50595","x":"-93.81654","y":"42.46893","tags":"baked goods crafts eggs herbs vegetables jams nuts plants soap fruits"},{"type":"market","name":"Welcome Center Farmers Market","website":"","facebook":"https://www.facebook.com/Harrison-County-Iowa-Welcome-Center-198265796855610/","twitter":"","street":"2931 Monroe Avenue","city":"Missouri Valley","state":"ia","zip":"51555","x":"-95.848181","y":"41.583893","tags":"baked goods cheese crafts flowers eggs herbs vegetables honey jams plants prepared soap coffee fruits"},{"type":"market","name":"West Glen Farmers Market","website":"","facebook":"","twitter":"","street":"Avenue of the Arts in West Glen Town Center","city":"West Des Moines","state":"ia","zip":"50266","x":"-93.7793","y":"41.5507","tags":""},{"type":"market","name":"West Union Farmers Market","website":"","facebook":"","twitter":"","street":"Highways 18 & 150","city":"West Union","state":"ia","zip":"52175","x":"-91.8194","y":"42.9736","tags":""},{"type":"market","name":"Whittemore Farmers Market","website":"","facebook":"","twitter":"","street":"Times Square","city":"Whittemore","state":"ia","zip":"50598","x":"-94.422","y":"43.0647","tags":""},{"type":"market","name":"Williamsburg Farmers Market","website":"","facebook":"https://www.facebook.com/pages/Williamsburg-Farmers-Market/191504654205734","twitter":"","street":"Williamsburg city park","city":"Williamsburg","state":"ia","zip":"52361","x":"-92.0092","y":"41.6615","tags":"organic baked goods crafts eggs vegetables honey nuts plants prepared soap fruits"},{"type":"market","name":"Winneshiek Farmers Market","website":"http://www,winnehiekfarmersmarket.com","facebook":"","twitter":"","street":"Lower Oneota Coop Parking lot","city":"Decorah","state":"ia","zip":"52101","x":"-91.788765","y":"43.304600","tags":"organic baked goods cheese crafts flowers eggs herbs vegetables honey jams maple meat nuts plants poultry soap wine coffee beans fruits grains mushrooms wild"},{"type":"market","name":"Youngville Café Farmers Market II","website":"","facebook":"","twitter":"","street":"On Highway 30 east of junction of Highway 218","city":"VanHorn/Newhall area","state":"ia","zip":"","x":"-92.0276","y":"41.9638","tags":""}]
