"city","facebook","name","state","street","tags","twitter","type","website","x","y","zip"
"Captain Cook","","Edge of the World","Hawaii","82-5889 Old Government Rd.","coffee tea fresh-fruits nuts wild-harvested forest-products","","farm","www.konaedge.com","-155.898354","19.477671","96704"
"Mountain View","https://www.facebook.com/hcmcoffee","Hilo Coffee Mill Market @ The Mill","Hawaii","17-995 Volcano Rd","baked-goods bedding plants canned preserved coffee tea crafts woodworking cut-flowers eggs herbs fresh-fruits fresh-vegetables honey prepared foods wild-harvested forest-products","www.twitter.com/hilocoffeemill ","farm","www.hilocoffeemill.com","-155.088528","19.564663","96771"
"Captain Cook","","Love Family Farms","Hawaii","81-639994 lilikalani","baked-goods canned preserved coffee tea crafts woodworking fresh-fruits honey nuts","","farm","http://www.hawaiifruit.net","-155.920972","19.499856","96704"
"Kealakekua","https://www.facebook.com/adaptationsaloha","Adaptations' Fresh Feast","Hawaii","79-7500 Mamalahoa Highway, Unit 1","organic baked goods cheese eggs herbs vegetables honey jams nuts coffee fruits mushrooms","https://twitter.com/MaureenDatta","market","http://www.adaptationsaloha.com","-155.9236509","19.5257840","96750"
"Honolulu","","Aina Moana  Park (People's Open Market)","Hawaii","1201 Ala Moana Boulevard","herbs vegetables nuts beans fruits mushrooms","","market","http://www.honolulu.gov/parks/programs/pom","-157.844930","21.287867","96822"
"Pahoa","","Akebono Farmersâ€™ Market","Hawaii","Akebono Parking Lot","","","market","","-154.951","19.4975",""
"Kailua-Kona","","Alii Garden Market Place","Hawaii","75-6129 Alii Drive","","","market","","-155.982","19.6144","96740"
"Honolulu","","City Hall Parking Lot Deck (People's Open Market)","Hawaii","Alapai & Beretania Street","flowers herbs vegetables nuts beans fruits mushrooms","","market","http://www.honolulu.gov/parks/programs/pom","-157.852699","21.305408","96813"
"Ewa Beach","","Ewa Beach Community Park (People's Open Market)","Hawaii","91-955 North Road","vegetables nuts beans fruits mushrooms","","market","http://www.honolulu.gov/parks/programs/pom","-158.007174","21.314954","96706"
"Maui","","Farmers Market of Maui-Honokowai","Hawaii","Located at Hawaiian Motors parking lot","","","market","","-156.299","20.9038",""
"Maui","","Farmers Market of Maui-Kihei","Hawaii","Located in Suda Store parking lot","","","market","","-156.448","20.7322","96753"
"Honokaa","facebook/hamakuaharvest","Farmers' Market at Hamakua Harvest","Hawaii","46-2600 Hawaii Belt Highway","organic baked goods cheese crafts flowers eggs seafood herbs vegetables honey jams nuts plants prepared soap trees coffee fruits juices wild","","market","http://www.hamakuaharvest.org","-155.449740","20.070927","96727"
"Fern Forest","","Fern Forest Town Market","Hawaii","","","","market","","-155.166","19.4657","96771"
"Honolulu","","Fort Street near Wilcox Park","Hawaii","In front of Macy's","","","market","","-157.862","21.3093","96814"
"Maui","","Get Fresh Maui","Hawaii","Honopiilani HWY","","","market","http://www.getfreshmaui.com","-156.657","20.8491","96761"
"Aiea","","Halawa District Park (People's Open Market)","Hawaii","99-795 Iwaiwa Street","herbs vegetables nuts fruits mushrooms","","market","http://www.honolulu.gov/parks/programs/pom","-157.914948","21.373292","96701"
"Hale'iwa","https://www.facebook.com/pages/Haleiwa-Farmers-Market/165600733499663","Hale'iwa Farmers' Market","Hawaii","59-864 Kamehameha Hwy","organic baked goods cheese crafts flowers eggs seafood herbs vegetables honey jams meat nuts plants prepared soap trees wine coffee fruits juices","https://twitter.com/farmlovers","market","http://www.haleiwafarmersmarket.com","-158.054476","21.636544","96712"
"Hanalei","https://www.facebook.com/hanaleifarmersmarket.halehalawai/","Hanalei Farmers' Market at Hale Halawai 'Ohana O Hanalei","Hawaii","55299C Kuhio Hwy ","baked goods cheese crafts flowers eggs herbs vegetables honey jams nuts prepared soap coffee fruits juices mushrooms wild","","market","http://halehalawai.org/","-159.497738","22.203847","96714"
"Hanapepe","","Hanapepe Park (Sunshine Markets)","Hawaii","Old Hanapepe Town","","","market","","-159.588","21.9101","96716"
"Honolulu","","Hawaii Farm Bureau Farmers' Markets","Hawaii","","","","market","http://hfbg.org","-157.8583333","21.3069444",""
"Honolulu","","Hawaii Kai Park n Ride (People's Open Market)","Hawaii","300 Keahole Street","flowers herbs vegetables nuts beans fruits mushrooms","","market","http://www.honoluluparks.com","-157.713935","21.283943",""
"Honolulu","","Hawaii Kai Towne Center","Hawaii","Kalanianaole Highway at Keahole Street","","","market","","-157.712","21.2826","96816"
"Hanalei","","Hawaiian Farmers of Hanalei","Hawaii","5-5785 Kuhio Highway","","","market","","-159.514","22.2033","96714"
"Waimea","","Hawaiian Homestead Farmers Market","Hawaii","64-759 Kahilu Road","","","market","","-155.641","20.0233","96796"
"Mountain View ","Facebook.com/hilocoffeemill","Hilo Coffee Mill Market @ The Mill","Hawaii","17-995 Volcano Rd","crafts flowers eggs vegetables honey plants prepared soap trees coffee fruits pet food","twitter.com/hilocoffeemill ","market","http://Hilocoffeemill.com","-155.087901","19.564034","96771"
"Hilo","","Hilo Farmers Market","Hawaii","Corner of Kamehameha Ave. & Mamo St.","organic baked goods cheese crafts flowers eggs seafood herbs vegetables honey jams nursery plants prepared soap trees","","market","http://www.hilofarmersmarket.com","-155.084800","19.723358","96720"
"Kailua-Kona","","Ho'oulu Community Farmers Market","Hawaii","Keauhou Beach Resort Royal Gardens","","","market","","-155.996","19.6406",""
"Honolulu","","Honolulu Farmers Market","Hawaii","Blaisdell Concert Hall Lawn, 777 Ward Avenue","","","market","http://www.hfbf.org","-157.852","21.2992","96814"
"Na`alehu","","Ka' U Farmers' Market","Hawaii","In front of Ace Hardware","","","market","","-155.575","19.0646","96772"
"Kailua","","Kailua Distirct Park (People's Open Market)","Hawaii","21 South Kainalu Drive","baked goods flowers herbs vegetables jams beans fruits mushrooms","","market","http://www.honolulu.gov/parks/programs/pom","-157.737337","21.395631","96734"
"Kailua","","Kailua Farmers Market","Hawaii","Kailua Town Center, 609  Kailua Road","","","market","http://www.hfbf.org","-157.742","21.3941","96734"
"Kailua ","https://www.facebook.com/KailuaTownFarmersMarket","KailuaTown Farmers Market","Hawaii","315 Kuulei St","organic baked goods cheese crafts flowers eggs seafood herbs vegetables honey jams meat nuts plants prepared soap trees fruits","https://twitter.com/farmlovers","market","http://www.kailuatownfarmersmarket.com","-157.7415370","21.3955679","96734"
"Honolulu","https://www.facebook.com/pages/Kakaako-Farmers-Market/245999865419258","Kakaako Farmers' Market","Hawaii","1050 Ala Moana Blvd","organic baked goods cheese flowers eggs seafood herbs vegetables honey jams meat nuts plants prepared trees fruits","https://twitter.com/farmlovers","market","http://www.kakaakofarmersmarket.com","-157.855564","21.294941","96814"
"Kalaheo","","Kalaheo Neighborhood Center (Sunshine Markets)","Hawaii","Paplina Road off Kaumualli","","","market","","-159.527","21.9251","96741"
"Honolulu","","Kalihi Valley District Park (People's Open Market)","Hawaii","1911 Kam IV Road","baked goods flowers herbs vegetables nuts beans fruits mushrooms","","market","http://www.honolulu.gov/parks/programs/pom","-157.869800","21.344726","96819"
"Honolulu","","Kamehameha Community Park (People's Open Market)","Hawaii","1400 Kalihi Street","baked goods flowers eggs vegetables honey beans fruits mushrooms","","market","http://www.honolulu.gov/parks/programs/pom","-157.872454","21.335165","96822"
"Kamuela","https://www.facebook.com/kamuelafarmersmarket/","Kamuela Farmers Market","Hawaii","67-139 Pukalani Road","organic baked goods crafts flowers eggs herbs vegetables honey jams nuts plants prepared soap trees coffee fruits","","market","http://kamuelafarmersmarket.com/","-155.662467","20.016964","96743"
"Kaneohe","","Kaneohe District Park (People's Open Market)","Hawaii","45-660 Keaahala Road","herbs jams fruits mushrooms","","market","http://www.honolulu.gov/parks/programs/pom","-157.810103","21.409789","96788"
"Kapaa","","Kapaa New Town Park (Sunshine Markets)","Hawaii","Kahau Road","","","market","","-159.321","22.0764","96746"
"Kapolei","","Kapolei Community Park (People's Open Market)","Hawaii","91-1049 Kamaaha Loop","herbs vegetables honey nuts fruits mushrooms","","market","http://www.honolulu.gov/parks/programs/pom","-158.066932","21.333263","96707"
"Lihue","","Kauai Community Market","Hawaii","3-1901 Kaumualii Highway","organic baked goods cheese flowers eggs herbs vegetables honey jams plants prepared soap fruits","","market","http://www.kauaicommunitymarket.org","-159.396482","21.967037","96766"
"Koloa ","","Kauai Culinary Market","Hawaii","Kukuiula Shopping Village","","","market","http://www.kauaigrown.org","-159.469167","21.906667","96756"
"Honolulu","","Kaumualii Street (People's Open Market)","Hawaii"," 700 Kalihi Street","baked goods flowers vegetables nuts plants beans fruits mushrooms","","market","http://www.honolulu.gov/parks/programs/pom","-157.877976","21.327407","96819"
"Honolulu","","KCC Diamond Head Farmers Market","Hawaii","4303 Diamond Head Road","","","market","http://www.hfbf.org","-157.799","21.268","96816"
"Keaau","","Keaau Village Farmers Market","Hawaii","16-0550 Olld Volcano Road","","","market","","-155.039","19.6258","96749"
"Kahaluu-Keauhou ","https://www.facebook.com/KeauhouFarmersMarket/","Keauhou Farmers Market","Hawaii","78-6831 Alii Dr, Kailua-Kona, HI 96740","organic baked goods flowers eggs seafood herbs vegetables honey jams meat nuts prepared soap coffee fruits mushrooms pet food","","market","http://www.konacountyfarmbureau.org","-155.961611","19.570129","96740"
"Kekaha","","Kekaha Neighborhood Center (Sunshine Markets)","Hawaii","Elepaio Road","","","market","","-159.718","21.9704","96752"
"Waimea","","Kekela Farm Market","Hawaii","64-604 Mana Rd.","baked goods vegetables coffee fruits mushrooms","","market","","-155.6287506","20.0271797","96743"
"Kilauea","","Kilauea Neighborhood Center (Sunshine Markets)","Hawaii","Kenecke off Lighthouse Road","","","market","","-159.406","22.2112","96754"
"Hilo","","Kinoole Farmer's Market","Hawaii","1990 Kinoole Street","baked goods flowers eggs herbs vegetables jams meat nursery plants prepared trees","","market","","-155.070111111111","19.6904555555556","96720"
"Koloa","","Koloa Ball Park (Knudsen) (Sunshine Markets)","Hawaii","Maluhia Road","","","market","","-159.465","21.9081","96756"
"Captain Cook","","Kona Pacific Farmer's Cooperative Farmers' Market","Hawaii","By the Pink Donkey sign","","","market","","-155.916","19.4897","96704"
"Lihue","","Kukui Grove Shopping Center Farmers Market","Hawaii","Kukui Grove Shopping Center","","","market","","-159.393","21.9674",""
"Laupahoehoe","","Laupahoehoe Farmers' Market","Hawaii","Laupahoehoe - next to the Minit Stop on Hwy. 19","","","market","","-155.234","19.9842",""
"Kihei ","https://www.facebook.com/LipoaMarket","Lipoa Street Farmer's Market ","Hawaii","95 Lipoa Street","organic baked goods crafts eggs vegetables honey jams nuts plants prepared soap coffee fruits juices","","market","","-156.4525780","20.7484484","96753"
"Honolulu","","Luau Farmers Market","Hawaii","333 International Road","","","market","","-157.858","21.3069","96801"
"Waimanalo","https://www.facebook.com/mahiku.farmersmarket","Mahiku Farmers Market ","Hawaii","41-1009 Mahiku Pl","","","market","http://www.mahikufarmersmarket.com/","-157.741","21.3431","96795"
"Makawao","","Makawao Marketplace ","Hawaii","3654 Baldwin Ave. (Maui)","","","market","http://www.localharvest.org/makawao-marketplace-M39565","-156.311","20.8545","96768"
"Kapolei","https://www.facebook.com/MakekeKapolei","Makeke Kapolei, a farmers' & green market","Hawaii","91-5007 Kapolei Parkway","organic baked goods cheese crafts flowers eggs seafood herbs vegetables honey jams meat plants poultry prepared soap trees coffee fruits juices mushrooms","","market","","-158.070177","21.328806","96707"
"Waianae","https://www.facebook.com/pages/WAIANAE-FARMERS-MARKET/234161083106","Makeke Waianae, a farmers' & green market","Hawaii","86-120 Farrington Highway","organic baked goods cheese crafts flowers eggs seafood herbs vegetables honey jams meat plants prepared soap trees coffee fruits grains juices mushrooms","","market","","-158.182357","21.451627","96792"
"Honolulu","","Makiki District Park (People's Open Market)","Hawaii","1527 Keeaumoku Street","vegetables fruits mushrooms","","market","http://www.honolulu.gov/parks/programs/pom","-157.836497","21.303939","96822"
"Pahoa","https://www.facebook.com/makuufarmersmarket/","Maku'u Farmers Market","Hawaii","15-2131 Keaau Pahoa Highway","baked goods cheese crafts flowers eggs seafood herbs vegetables honey jams maple nuts plants poultry prepared soap trees coffee beans fruits grains juices mushrooms pet food tofu wild","","market","","-154.971986","19.536657","96778"
"Hilo","","Mamo Street Market","Hawaii","Mamo Parking Lot","","","market","","-155.086","19.7226","96720"
"Honolulu","","Manoa Valley District Park (People's Open Market)","Hawaii","Manoa Rd","herbs vegetables nuts fruits mushrooms","","market","http://www.honolulu.gov/parks/programs/pom","-157.807997","21.314189","96826"
"Kahului","","Maui Mall Farmers Market & Craft Fair","Hawaii","Maui Mall","","","market","","-156.466","20.8918",""
"Kahului","","Maui Swap Meet","Hawaii","Puunene Avenue","","","market","","-156.466","20.8876",""
"Mililani  ","","Mililani District Park (People's Open Market)","Hawaii","94-1150 Lanikuhana Ave.","baked goods flowers herbs vegetables nuts beans fruits mushrooms","","market","http://www.honoluluparks.com","-158.018299","21.440682","96789"
"Mililani","","Mililani Farmers' Market","Hawaii","","baked goods flowers vegetables honey prepared trees coffee fruits juices mushrooms wild","","market","http://hfbf.org","-158.0152807","21.4513314",""
"Kaunakakai","https://www.facebook.com/FiestaFreshProduce","Molokai Farmers' Market ","Hawaii","Ala Malama St. ","","","market","","-157.017","21.0919","96748"
"Honolulu","","Old Stadium Park (People's Open Market)","Hawaii","2237 South King Street","flowers vegetables jams nuts beans fruits mushrooms","","market","http://www.honoluluparks.com","-157.827323","21.292322",""
"Paia","https://www.facebook.com/OneLoveFarmersMarket","Paia Farmers Market","Hawaii","381 Baldwin ave","","","market","","-156.3756935","20.9078644","96799"
"Honolulu","","Palolo Valley District Park (People's Open Market)","Hawaii","2007 Palolo Avenue","flowers herbs vegetables nuts beans fruits mushrooms","","market","http://www.honolulu.gov/parks/program/pom","-157.797316","21.298910","96813"
"Hilo","","Panaewa Hawaiian Home Lands Farmers Market","Hawaii","Corner of Puainako and Ohuohu","","","market","","-155.061","19.6955","96720"
"Aiea ","https://www.facebook.com/PearlridgeFarmersMarket","Pearlridge Farmers Market","Hawaii","98-1005 Moanalua Rd","organic baked goods cheese crafts flowers eggs seafood herbs vegetables honey jams meat nuts plants prepared soap trees fruits","https://twitter.com/farmlovers","market","http://www.pearlridgefarmersmarket.com","-157.941677","21.381691","96701"
"Waianae","","Pokai Bay Beach Park (People's Open Market)","Hawaii","85-037 Pokai Bay Road","herbs vegetables beans fruits mushrooms","","market","http://www.honolulu.gov/parks/programs/pom","-158.188437","21.442923","96792"
"Honolulu","","Queen Kapiolani Park (People's Open Market)","Hawaii","Monsarrat and Paki Streets","flowers herbs vegetables jams beans fruits","","market","http://www.honolulu.gov/parks/programs/pom","-157.816380","21.268812","96822"
"Waipahu","","Royal Kunia Park-n-Ride (People's Open Market)","Hawaii","Kupuna Lp/Kupuohi Street","herbs vegetables beans fruits","","market","http://www.honolulu.gov/parks/programs/pom","-158.032652","21.389120","96797"
"Honolulu","","Salt Lake Municipal Lot (People's Open Market)","Hawaii","5337 Likini Street","baked goods flowers herbs vegetables nuts plants fruits mushrooms","","market","http://www.honolulu.gov/parks/programs/pom","-157.904131","21.346157","96818"
"Captain Cook","","South Kona Fruit Stand","Hawaii","84-4770 Mamalahoa Hwy., Near old Higashi Store","","","market","","-155.88","19.4139","96704"
"Kahului","","The Maui's Fresh Produce Farmers' Market","Hawaii","Queen Kaahumanu Shopping Center (center stage area)","","","market","","-156.472","20.8887",""
"Captain Cook","https://www.facebook.com/SouthKonaGreenMarket","The South Kona Green Market","Hawaii","82-6188 Mamalahoa Highway","organic baked goods crafts flowers eggs seafood herbs vegetables honey jams meat nuts plants prepared soap trees coffee fruits juices pet food","https://twitter.com/SKGreenMarket","market","http://www.skgm.org","-155.911300","19.489787","96704"
"Hawi","","Under the Banyan's Farmers Market","Hawaii","","","","market","","-155.831","20.2371","96719"
"Lihue","","Vidinha Stadium (Sunshine Markets)","Hawaii","Hoolako Road","","","market","","-159.355","21.9728","96766"
"Kailua-Kona","","Village Farmers' Market","Hawaii","Across from Hale Halawai","","","market","","-155.992","19.6373","96740"
"volcano","","Volcano Farmers Market","Hawaii","14-4030 wright road","baked goods cheese crafts flowers eggs seafood herbs vegetables honey jams meat poultry prepared soap trees coffee fruits juices tofu","","market","","-155.2492898","19.4640866","96785"
"Wahiawa","","Wahiawa District Park (People's Open Market)","Hawaii","1139 A Kilani Avenue","baked goods flowers vegetables plants fruits mushrooms","","market","http://www.honolulu.gov/parks/programs/pom","-158.022580","21.500382","96786"
"Honolulu","","Waialua Farmers' Market","Hawaii","Waialua Sugar Mill","","","market","","-158.126","21.574","96824"
"Waianae","https://www.facebook.com/#!/pages/WAIANAE-FARMERS-MARKET/234161083106","Waianae Farmers' Market/Makeke Waianae","Hawaii","86-120 Farrington Hwy.","organic baked goods cheese crafts flowers eggs vegetables honey jams meat plants poultry prepared soap trees coffee fruits juices wild","","market","http://www.makeke.org","-158.183774","21.435119","96792"
"Pearl City","","Waiau District Park (People's Open Market)","Hawaii","98-1650 Kaahumanu Street","baked goods flowers herbs vegetables nuts plants fruits mushrooms","","market","http://www.co.honolulu.hi.us/parks/programs/pom","-157.952992","21.402403","96782"
"Waiapahu","","Waikele Community Park (People's Open Market)","Hawaii","94-870 Lumiana Street","herbs vegetables fruits mushrooms","","market","http://www.honolulu.gov/parks/programs/pom","-157.971725","21.453708","96767"
"Honolulu","","Waikiki Farmers' Market","Hawaii","Waikiki Community Center's Parking Lot","","","market","","-157.821","21.2754","96815-3738"
"Waikoloa","","Waikoloa Village Farmers Market","Hawaii","68-3625 Paniolo Avenue","","","market","","-155.788","19.9304","96738"
"Kapaa","","Wailua Homesteads Park (Sunshine Markets)","Hawaii","Malu Road","","","market","","-159.369","22.0597","96746"
"Waimanalo","","Waimanalo Beach Park (People's Open Market)","Hawaii","41-741 Kalanianaole Highway.","flowers herbs vegetables nuts plants fruits mushrooms","","market","http://www.honolulu.gov/parks/programs/pom","-157.694600","21.331444","96795"
"Kamuela","https://www.facebook.com/WaimeaFarmersMarket?sk=wall","Waimea Homestead Farmers Market, Inc.","Hawaii"," 67-1229 Mamalahoa Hwy","organic baked goods crafts flowers eggs herbs vegetables honey jams nuts prepared coffee fruits mushrooms wild","","market","http://www.waimeafarmersmarket.com","-155.668368","20.018308","96743"
"Kamuela","Waimea Midweek Farmers Market","Waimea Midweek Farmers Market","Hawaii","67-129 Pukalani Road","organic baked goods cheese crafts flowers eggs seafood herbs vegetables honey jams nuts poultry prepared soap coffee fruits juices mushrooms wild","Waimea Midweek Mkt","market","","-155.662961","20.018116","96743"
"Kamuela","https://www.facebook.com/WaimeaTownMarket","Waimea Town Market at Parker School","Hawaii","65-1224 Lindsey Rd","organic baked goods cheese crafts flowers eggs seafood herbs vegetables honey jams meat nuts prepared soap coffee fruits","","market","http://www.waimeatownmarket.com","-155.669737","20.022262","96743"
"Waipahu","","Waipahu District Park (People's Open Market)","Hawaii","94-230 Paiwa Street","baked goods flowers vegetables beans fruits mushrooms","","market","http://www.honolulu.gov/parks/programs/pom","-157.999449","21.387839","96767"
"Poipu","","West Kauai Agricultural Association","Hawaii","Poipu Road and Cane Haul Road","","","market","","-159.435","21.8815",""
