[{"type":"farm","street":"6405 109th Avenue","city":"South Haven","state":"mi","zip":"49090","x":"-86.169217","y":"42.483804","name":"A.W. Overhiser Orchards","website":"www.overhiserorchards.com","facebook":"www.facebook.com/OverhiserOrchards","twitter":"","tags":"baked-goods canned preserved coffee tea cut-flowers eggs fresh-fruits fresh-vegetables honey juices ciders maple-products nuts poultry fowl soap body-care"},{"type":"farm","street":"69676 Cr376 (40th Ave)","city":"Hartford","state":"mi","zip":"49057","x":"-86.220746","y":"42.257492","name":"Adams Farms","website":"www.facebook.com/Adams.Blueberry.Farms","facebook":"https://www.facebook.com/Adams.Blueberry.Farms","twitter":"","tags":"fresh-fruits maple-products"},{"type":"farm","street":"7964 Daus Rd.","city":"Cass City","state":"mi","zip":"48726","x":"-83.118298","y":"43.645862","name":"Battel's Sugar Bush and Heritage Farm","website":"www.battelsyrup.weebly.com","facebook":"https://www.facebook.com/battelsyrup","twitter":"","tags":"maple-products"},{"type":"farm","street":"849 N. Aurelius Road","city":"Mason","state":"mi","zip":"48854","x":"-84.5267180","y":"42.6017140","name":"Beery Farms of Michigan LLC","website":"","facebook":"","twitter":"","tags":"red-meat non-poultry-meat"},{"type":"farm","street":"10844 E Revold Road","city":"Suttons Bay","state":"mi","zip":"49682","x":"-85.637741","y":"44.940501","name":"Black Star Farms","website":"www.blackstarfarms.com","facebook":"","twitter":"","tags":"baked-goods coffee tea prepared-foods wine spirits beer hard-cider"},{"type":"farm","street":"13240 Blueberry Lane","city":"Otter Lake","state":"mi","zip":"48464","x":"-83.4703358","y":"43.1983610","name":"Blueberry Lane Farms","website":"www.blueberrylanefarms.com","facebook":"Blueberry Lane Farms","twitter":"","tags":"baked-goods canned preserved coffee tea honey juices ciders maple-products prepared-foods"},{"type":"farm","street":"71269 Bauman Rd","city":"Sturgis ","state":"mi","zip":"49091","x":"-85.3379395","y":"41.7610830","name":"Borderline Farm","website":"http://borderline.farm","facebook":"https://www.facebook.com/BorderlineFarm.MI","twitter":"","tags":"baked-goods canned preserved crafts woodworking eggs fresh-fruits fresh-vegetables honey wild-harvested forest-products"},{"type":"farm","street":"6300 Rea Rd","city":"Dundee","state":"mi","zip":"48131","x":"-83.722228","y":"41.986419","name":"BP Farms","website":"","facebook":"http://www.facebook.com/BPFarmsLLC/","twitter":"","tags":"eggs fresh-vegetables grains flour poultry fowl red-meat non-poultry-meat"},{"type":"farm","street":"5885 Lake George Rd","city":"Dryden","state":"mi","zip":"48428","x":"-83.181137","y":"42.890544","name":"Brandywine Farm Nursery","website":"brandywinefarmnursery.com","facebook":"https://www.facebook.com/BrandywineFarmNursery","twitter":"","tags":"bedding plants cut-flowers eggs herbs fresh-vegetables honey nursery-stock poultry fowl"},{"type":"farm","street":"2883 Wilder Road","city":"Metamora","state":"mi","zip":"48083","x":"-83.2413567","y":"42.9761288","name":"BRASS RING BEEF","website":"www.parksshowcattle.com","facebook":"https://www.facebook.com/brassringbeef","twitter":"","tags":""},{"type":"farm","street":"17505 Roosevelt Rd","city":"Hemlock","state":"mi","zip":"48626","x":"-84.259970","y":"43.361975","name":"Brenskes Blueberries","website":"","facebook":"https://www.facebook.com/pages/Brenskes-Blueberry-Farm/386802954774918?sk=timeline","twitter":"","tags":"fresh-fruits"},{"type":"farm","street":"7845 Bordman Road","city":"Almont","state":"mi","zip":"48003","x":"-83.029178","y":"42.890456","name":"Brookwood Fruit Farm","website":"www.brookwoodfruitfarm.com","facebook":"http://www.facebook.com/pages/Brookwood-Fruit-Farm/109942475759366","twitter":"","tags":"fresh-fruits honey"},{"type":"farm","street":"3441 South Morton Road","city":"Ludington","state":"mi","zip":"49431","x":"-86.358937","y":"43.891499","name":"Christofferson Farms","website":"","facebook":"","twitter":"","tags":"fresh-fruits honey"},{"type":"farm","street":"3000 Brown Lane","city":"Highland","state":"mi","zip":"48357","x":"-83.662443","y":"42.661046","name":"Clor's Greenhouse","website":"","facebook":"","twitter":"","tags":"fresh-vegetables"},{"type":"farm","street":"2724 N Lewis Rd","city":"Coleman","state":"mi","zip":"48618","x":"-84.566845","y":"43.690128","name":"Coon's Berry Farm","website":"www.coonsberryfarm.com","facebook":"","twitter":"","tags":"fresh-fruits"},{"type":"farm","street":"4160 US131 South","city":"Petoskey","state":"mi","zip":"49770","x":"-84.966729","y":"45.317777","name":"Coveyou Scenic Farm Market","website":"coveyouscenicfarm.com","facebook":"https://www.facebook.com/pages/Coveyou-Scenic-Farm-Market/362874771540","twitter":"","tags":"bedding plants canned preserved coffee tea crafts woodworking cut-flowers dry beans herbs fresh-fruits fresh-vegetables grains flour honey juices ciders maple-products nuts prepared-foods"},{"type":"farm","street":"6500 Rollenhagen Rd","city":"Ravenna","state":"mi","zip":"49451","x":"-85.994367","y":"43.134669","name":"Creswick Farms","website":"www.CreswickFarms.com","facebook":"https://www.facebook.com/CreswickFarms","twitter":"","tags":"eggs pet-food poultry fowl red-meat non-poultry-meat"},{"type":"farm","street":"14475 Quincy Street","city":"Holland","state":"mi","zip":"49424","x":"-86.1396032","y":"42.8411303","name":"deBerry Shack","website":"","facebook":"www.facebook.com/deBerryShack","twitter":"","tags":"crafts woodworking cut-flowers herbs fresh-fruits fresh-vegetables"},{"type":"farm","street":"13078 Windy Hollow","city":"Brighton Township","state":"mi","zip":"48380","x":"-83.691015","y":"42.533793","name":"Destiny Farm- FarmStand","website":"","facebook":"","twitter":"","tags":"bedding plants dry beans herbs fresh-vegetables honey poultry fowl"},{"type":"farm","street":"6967 109th Avenue","city":"South Haven","state":"mi","zip":"49090","x":"-86.2247478","y":"42.4838629","name":"Dutch Farm Market","website":"","facebook":"https://www.facebook.com/pages/Dutch-Farm-Market/270598596340448","twitter":"","tags":"baked-goods canned preserved coffee tea crafts woodworking cut-flowers dairy products eggs herbs fresh-fruits fresh-vegetables honey juices ciders maple-products"},{"type":"farm","street":"302 Thumb Lake Rd","city":"Vanderbilt","state":"mi","zip":"49795","x":"-84.680748","y":"45.186933","name":"English Orchards & Family Farm","website":"","facebook":"","twitter":"","tags":"baked-goods crafts woodworking cut-flowers eggs herbs fresh-fruits fresh-vegetables honey juices ciders mushrooms poultry fowl red-meat non-poultry-meat soap body-care"},{"type":"farm","street":"1824 66th St.","city":"Fennville","state":"mi","zip":"49408","x":"-86.1892542","y":"42.5511441","name":"Evergreen Lane Farm & Creamery","website":"www.evergreenlanefarm.com","facebook":"www.Facebook.com/EvergreenLaneArtisanCheese","twitter":"","tags":"dairy products fresh-fruits"},{"type":"farm","street":"4295 Moyer Road","city":"Williamston","state":"mi","zip":"48895","x":"-84.2000890","y":"42.7082229","name":"FlowerEssence of Blue Barn Farm","website":"","facebook":"https://www.facebook.com/FlowerEssenceLlcAndBlueBarnFarmMarket?ref=hl","twitter":"","tags":""},{"type":"farm","street":"8249 Deans Hill Road","city":"Berrien Center","state":"mi","zip":"49102","x":"-86.258689","y":"41.957279","name":"Frank Farms","website":"www.frankfarms.com","facebook":"https://www.facebook.com/pages/Frank-Farms/321419985624","twitter":"","tags":"fresh-fruits fresh-vegetables honey"},{"type":"farm","street":"Friesian Lane","city":"Lakeview","state":"mi","zip":"48850","x":"-85.253005","y":"43.349196","name":"Fresh Whole Rabbit","website":"www.catalayarabbitry.weebly.com","facebook":"https://www.facebook.com/catalayasrabbitry","twitter":"","tags":"baked-goods canned preserved eggs herbs fresh-vegetables pet-food poultry fowl soap body-care"},{"type":"farm","street":"3728 S. Morey Road","city":"Lake City","state":"mi","zip":"49651","x":"-85.2150385","y":"44.2847493","name":"Friends Farm","website":"friendsministry.net","facebook":"https://www.facebook.com/FriendsMinistryLC","twitter":"","tags":"fresh-fruits fresh-vegetables"},{"type":"farm","street":"2073 S M 65","city":"Whittemore","state":"mi","zip":"48770","x":"-83.802520","y":"44.216309","name":"Frontier Farms","website":"michiganfrontierfarms.com","facebook":"","twitter":"","tags":"baked-goods canned preserved coffee tea cut-flowers eggs herbs fresh-fruits fresh-vegetables soap body-care"},{"type":"farm","street":"3452 Friday Rd.","city":"Coloma","state":"mi","zip":"49038","x":"-86.3064067","y":"42.1744010","name":"Fruit Acres Farm Market & U-Pick","website":"fruitacresfarms.com","facebook":"https://www.facebook.com/fruitacres/","twitter":"","tags":"baked-goods canned preserved cut-flowers fresh-fruits fresh-vegetables honey juices ciders"},{"type":"farm","street":"11966 Fruit Ridge Ave.","city":"Kent City","state":"mi","zip":"49330","x":"-85.769231","y":"43.183267","name":"Fruit Ridge Hayrides LLC","website":"www.fruitridgehayrides.com","facebook":"https://www.facebook.com/fruitridge.hayrides","twitter":"","tags":"fresh-fruits fresh-vegetables juices ciders prepared-foods"},{"type":"farm","street":"5696 W Townline Rd","city":"Pickford","state":"mi","zip":"49774","x":"-84.4816159","y":"46.1582650","name":"Galloway's Red Clay Ranch","website":"","facebook":"Galloway's Red Clay Ranch","twitter":"","tags":"baked-goods cut-flowers eggs herbs fresh-vegetables honey maple-products red-meat non-poultry-meat wild-harvested forest-products"},{"type":"farm","street":"431 S Littlefield Rd","city":"Mount Pleasant","state":"mi","zip":"48858","x":"-84.948278","y":"43.633948","name":"GCC Organics","website":"gccorganics.com","facebook":"https://www.facebook.com/gcc.organics","twitter":"","tags":"canned preserved dry beans eggs fresh-fruits fresh-vegetables grains flour poultry fowl red-meat non-poultry-meat"},{"type":"farm","street":"11901 South Greenville Rd","city":"Greenville","state":"mi","zip":"48838","x":"-85.2630340","y":"43.1209267","name":"Good Land Growers","website":"Http://www.goodlandgrowers.com","facebook":"https://www.facebook.com/GoodLandGrowers","twitter":"","tags":"canned preserved fresh-fruits honey"},{"type":"farm","street":"8416 Gale Rd","city":"Goodrich","state":"mi","zip":"48438","x":"-83.534492","y":"42.906654","name":"Goodrich Acres","website":"","facebook":"","twitter":"","tags":"eggs"},{"type":"farm","street":"3654 E. Weidman Rd.","city":"Rosebush","state":"mi","zip":"48878","x":"-84.773415","y":"43.683767","name":"Graham's Organics","website":"grahamsorganics.com","facebook":"","twitter":"","tags":"dairy products eggs poultry fowl red-meat non-poultry-meat"},{"type":"farm","street":"10724 Grange Ave NE","city":"Rockford","state":"mi","zip":"49341","x":"-85.625363","y":"43.159966","name":"Grange Fruit Farm","website":"grangefruit.com","facebook":"Grange Fruit Farm","twitter":"","tags":"fresh-fruits"},{"type":"farm","street":"11299 Grand River Avenue","city":"Brighton","state":"mi","zip":"48116","x":"-83.7271648","y":"42.5159990","name":"Green Oak Farmers and Community Market","website":"www.facebook.com/GreenOakMarket","facebook":"www.facebook.com/GreenOakMarket","twitter":"","tags":"baked-goods bedding plants canned preserved coffee tea crafts woodworking cut-flowers dairy products eggs herbs fresh-fruits fresh-vegetables honey juices ciders maple-products nuts poultry fowl prepared-foods red-meat non-poultry-meat soap body-care"},{"type":"farm","street":"9800 Youngs Rd.","city":"Quincy","state":"mi","zip":"49082","x":"-84.8045536","y":"41.9123800","name":"Greener Grass Farms","website":"www.greenergrassfarms.com","facebook":"","twitter":"","tags":"eggs honey maple-products poultry fowl red-meat non-poultry-meat"},{"type":"farm","street":"1425 N. State Rd. (M-66) at the corner of Dildine","city":"Ionia","state":"mi","zip":"48846","x":"-85.075274","y":"43.008938","name":"Hanulcik Farm Market","website":"www.farm-grown.com","facebook":"","twitter":"","tags":"fresh-fruits fresh-vegetables"},{"type":"farm","street":"10423 Vergennes St","city":"Lowell","state":"mi","zip":"49331","x":"-85.410060","y":"42.958307","name":"Happy Buddha Farm, LLC","website":"www.happybuddhafarm.com","facebook":"facebook.com/happybuddhafarm","twitter":"","tags":"cut-flowers dry beans fresh-fruits fresh-vegetables maple-products"},{"type":"farm","street":"12751 E Baseline Rd","city":"Hickory Corners ","state":"mi","zip":"49060","x":"-85.382163","y":"42.419918","name":"Hickory Corners Homestead","website":"www.hickorycornershomestead.com","facebook":"www.facebook.com/HickoryCornersHomestead","twitter":"","tags":"eggs herbs fresh-vegetables grains flour honey maple-products soap body-care wild-harvested forest-products"},{"type":"farm","street":"175 Olsen Rd","city":"Gwinn ","state":"mi","zip":"49841","x":"-87.398745","y":"46.405359","name":"Homestead Honey Farm","website":"","facebook":"https://www.facebook.com/HomesteadHoneyFarm","twitter":"","tags":"honey"},{"type":"farm","street":"","city":"Clare","state":"mi","zip":"48617","x":"-84.768971","y":"43.851510","name":"Honor Box Produce by Crawford Farms","website":"http://www.MichiganFarmFreshProduce.com","facebook":"https://www.facebook.com/MichiganFarmMarket","twitter":"","tags":"baked-goods canned preserved crafts woodworking cut-flowers dairy products eggs herbs fresh-fruits fresh-vegetables honey maple-products"},{"type":"farm","street":"N8536 Pelkey Rd K 3","city":"Stephenson","state":"mi","zip":"49887","x":"-87.547894","y":"45.421889","name":"Immerfrost Farm","website":"ImmerfrostFarm.com","facebook":"http://goo.gl/qlvwg","twitter":"https://www.twitter.com/ImmerfrostFarm","tags":"bedding plants cut-flowers herbs fresh-fruits fresh-vegetables"},{"type":"farm","street":"2060 Bladwin Road","city":"Lapeer","state":"mi","zip":"48446","x":"-83.340607","y":"42.997927","name":"Ives Organics","website":"","facebook":"www.Facebook.com/IvesOrganics ","twitter":"","tags":"fresh-fruits"},{"type":"farm","street":"4680 Fitzpatrick Rd","city":"Hillsdale","state":"mi","zip":"49242","x":"-84.701342","y":"41.944006","name":"K's Acres - A North Sand Lake Fruit and Berry Farm","website":"K's Acres@facebook.com ","facebook":"https://www.facebook.com/pages/Ks-Acres-Orchard-A-North-Sand-lake-Fruit-and-Berry-farm/147653817831","twitter":"","tags":"bedding plants canned preserved fresh-fruits fresh-vegetables nursery-stock"},{"type":"farm","street":"16682 Schwark Rd","city":"Three Oaks","state":"mi","zip":"49128","x":"-86.6295918","y":"41.8138326","name":"Kaminski Farms Meats","website":"www.kaminskifarmsmeats.com","facebook":"https://www.facebook.com/KaminskiFarmsMeatsKaminski","twitter":"","tags":"honey poultry fowl red-meat non-poultry-meat"},{"type":"farm","street":"4781 Powell Road","city":"Kewadin","state":"mi","zip":"49648","x":"-85.332570","y":"44.961640","name":"Kastanu Farm","website":"kastanufarm@aol.com","facebook":"","twitter":"","tags":"nuts"},{"type":"farm","street":"130 Hastings Ct","city":"Bangor ","state":"mi","zip":"49013","x":"-86.106671","y":"42.321930","name":"Kitipi Farm, llc","website":"","facebook":"Kitipi Farm, llc","twitter":"","tags":"crafts woodworking fresh-vegetables wild-harvested forest-products"},{"type":"farm","street":"11466 W Carson City Rd.","city":"Greenville","state":"mi","zip":"48838","x":"-85.297866","y":"43.177077","name":"Klackle Orchards","website":"www.klackleorchards.com","facebook":"www.facebook.com/klackleorchards","twitter":"www.twitter.com/klackleorchards","tags":"baked-goods canned preserved coffee tea dairy products fresh-fruits fresh-vegetables honey juices ciders maple-products prepared-foods soap body-care"},{"type":"farm","street":"1067 Somer Road","city":"Lyons","state":"mi","zip":"48851","x":"-84.980334","y":"42.972623","name":"KlineKrest Certified Organic Produce","website":"http://www.klinekrestcertifiedorganicproduce.com/","facebook":"","twitter":"","tags":"baked-goods canned preserved cut-flowers herbs fresh-fruits fresh-vegetables juices ciders nuts wild-harvested forest-products"},{"type":"farm","street":"16530 Hall Rd","city":"Casnovia","state":"mi","zip":"49318","x":"-85.8366985","y":"43.2494138","name":"L& L Bull","website":"llbull","facebook":"L&LBull ","twitter":"","tags":"eggs fresh-fruits fresh-vegetables"},{"type":"farm","street":"1219 Morris Dr. (lower level, rear)","city":"Niles","state":"mi","zip":"49120","x":"-86.301255","y":"41.839746","name":"Lavender Hill Farm of Niles, MI LLC","website":"www.thelavenderhill.com","facebook":"https://www.facebook.com/thelavenderhill","twitter":"","tags":"cut-flowers honey nursery-stock soap body-care"},{"type":"farm","street":"4180 W. M-20 (stony Lake Road)","city":"New Era","state":"mi","zip":"49446","x":"-86.388669","y":"43.558496","name":"Lewis Farm Market & Petting Farm","website":"http://lewisfarmmarket.com/","facebook":"https://www.facebook.com/LewisFarmMarket","twitter":"","tags":"baked-goods canned preserved crafts woodworking dairy products fresh-fruits fresh-vegetables juices ciders maple-products prepared-foods"},{"type":"farm","street":"2290 E Madison Rd","city":"St. Louis","state":"mi","zip":"48880","x":"-84.565644","y":"43.422010","name":"Madison Road Produce, LLC","website":"http://www.madisonroadproduce.com","facebook":"http://www.facebook.com/madisonroadproduce","twitter":"","tags":"fresh-fruits fresh-vegetables"},{"type":"farm","street":"","city":"sidney","state":"mi","zip":"","x":"-85.193087","y":"43.257295","name":"Maia Organics","website":"","facebook":"","twitter":"","tags":"baked-goods bedding plants cut-flowers eggs herbs fresh-vegetables soap body-care"},{"type":"farm","street":"1460 W Wardlow Rd","city":"Highland","state":"mi","zip":"48357","x":"-83.6356530","y":"42.6555660","name":"Maria & David Huff Farm Products","website":"","facebook":"https://m.facebook.com/profile.php?id=222802057812310&ref=bookmark","twitter":"","tags":"eggs fresh-vegetables poultry fowl red-meat non-poultry-meat wild-harvested forest-products"},{"type":"farm","street":"22460 Garfield Road","city":"Northville","state":"mi","zip":"48167","x":"-83.5318160","y":"42.4511380","name":"Michigan Flower Farm","website":"http://michiganflowerfarm.com/flowers/index.php?main_page=","facebook":"","twitter":"","tags":"cut-flowers"},{"type":"farm","street":"1048 Sarah Dr.","city":"Pinckney","state":"mi","zip":"48169","x":"-83.9208522","y":"42.4257150","name":"Michigan Garlic Farm","website":"www.michigangarlicfarm.com","facebook":"michigan garlic","twitter":"","tags":""},{"type":"farm","street":"3404 Mitchell Road","city":"Holly","state":"mi","zip":"48442","x":"-83.630219","y":"42.849441","name":"Mitchell Farm","website":"www.mitchellfarm.biz","facebook":"","twitter":"","tags":"bedding plants"},{"type":"farm","street":"0-9265 Kenowa Ave SW","city":"Grand Rapids","state":"mi","zip":"49534","x":"-85.7839190","y":"42.9371423","name":"Moelker Orchards & Farm Market LLC","website":"www.moelkerorchards.com","facebook":"www.Facebook.com/MoelkerOrchards","twitter":"","tags":"baked-goods canned preserved coffee tea dairy products fresh-fruits fresh-vegetables honey juices ciders maple-products"},{"type":"farm","street":"5790 N. Omena Rise","city":"Omena","state":"mi","zip":"49674","x":"-85.600037","y":"45.069524","name":"New Mission Organics","website":"http://www.newmissionorganics.com/","facebook":"https://www.facebook.com/MI.Hop.Alliance","twitter":"https://www.twitter.com/michiganhops","tags":""},{"type":"farm","street":"3151 Niles Avenue (M63)","city":"Saint Joseph","state":"mi","zip":"49085","x":"-86.459915","y":"42.060280","name":"Nye's Apple Barn and Farms","website":"www.nyesapplebarn.com","facebook":"www.facebook.com/NyesAppleBarn","twitter":"","tags":"baked-goods canned preserved fresh-fruits fresh-vegetables honey juices ciders maple-products"},{"type":"farm","street":"4980 South 52nd Avenue","city":"New Era","state":"mi","zip":"49446","x":"-86.4275015","y":"43.5553953","name":"Oceana Winery & Vineyard","website":"www.oceanawinery.com","facebook":"https://www.facebook.com/pages/Oceana-Winery-Vineyard/180943698619727","twitter":"","tags":"wine spirits beer hard-cider"},{"type":"farm","street":"130 Orchard Trail","city":"Quincy","state":"mi","zip":"49082","x":"-84.912234","y":"41.890472","name":"Orchard Beach Farm","website":"www.farmermaps.com","facebook":"","twitter":"","tags":"fresh-fruits"},{"type":"farm","street":"6110 Robertson Rd","city":"Middleville","state":"mi","zip":"49333","x":"-85.4274459","y":"42.7417363","name":"Origins Hobby Farm","website":"Www.orriginshobbyfarm.com","facebook":"https://www.facebook.com/originshobbyfarm","twitter":"https://www.twitter.com/originshf","tags":"bedding plants canned preserved eggs herbs fresh-fruits fresh-vegetables honey poultry fowl soap body-care wild-harvested forest-products"},{"type":"farm","street":"3909 S Summerton Road","city":"Mt. Pleasant","state":"mi","zip":"48858","x":"-84.719181","y":"43.571437","name":"Papaxe2x80x99s Pumpkin Patch","website":"papaspumpkinpatch@yahoo.com","facebook":"","twitter":"","tags":"baked-goods bedding plants canned preserved coffee tea fresh-fruits fresh-vegetables honey juices ciders"},{"type":"farm","street":"3565 Elder Rd.","city":"Carp Lake","state":"mi","zip":"49718","x":"-84.843103","y":"45.709447","name":"Peaceful Produce","website":"","facebook":"Peaceful Produce","twitter":"","tags":"baked-goods bedding plants canned preserved coffee tea crafts woodworking cut-flowers eggs fish seafood herbs fresh-fruits fresh-vegetables mushrooms prepared-foods red-meat non-poultry-meat soap body-care wild-harvested forest-products"},{"type":"farm","street":"11854 Peacock Road","city":"Laingsburg","state":"mi","zip":"48848","x":"-84.369377","y":"42.844666","name":"Peacock Road Family Farm","website":"www.peacockrff.com","facebook":"www.facebook.com/peacockroadtreefarm","twitter":"","tags":""},{"type":"farm","street":"5408 W. Grand River Rd.","city":"Lansing","state":"mi","zip":"48906","x":"-84.628209","y":"42.777257","name":"Peckham Farms","website":"http://www.peckham.org/Business-Operations/Peckham-Farms.aspx/","facebook":"https://www.facebook.com/Peckham.Farms","twitter":"","tags":"bedding plants cut-flowers fresh-fruits fresh-vegetables"},{"type":"farm","street":"1174 W Gratiot County Line Rd","city":"Saint Johns","state":"mi","zip":"48879","x":"-84.622316","y":"43.117405","name":"Phillips Orchards & Cider Mill","website":"www.phillipsorchards.com","facebook":"https://www.facebook.com/PhillipsOrchards","twitter":"https://twitter.com/phillipsorchard","tags":"baked-goods canned preserved crafts woodworking fresh-fruits honey juices ciders maple-products soap body-care"},{"type":"farm","street":"3824 E. Napier Ave.","city":"Benton Harbor","state":"mi","zip":"49022","x":"-86.3656372","y":"42.0906298","name":"Piggott's Farm Market & Bakery","website":"www.piggottsfarmmarket.com","facebook":"https://www.facebook.com/piggottsfarmmarketbakery","twitter":"https://twitter.com/piggottsproduce","tags":"baked-goods bedding plants canned preserved coffee tea cut-flowers dairy products eggs herbs fresh-fruits fresh-vegetables honey juices ciders maple-products"},{"type":"farm","street":"5859 124th Ave.","city":"Fennville","state":"mi","zip":"49408","x":"-86.1198859","y":"42.5942229","name":"Pleasant Hill Farm","website":"http://www.pleasanthillblueberryfarm.com/","facebook":"https://www.facebook.com/pages/Pleasant-Hill-Farm/82478554686?ref=hl","twitter":"","tags":"eggs fresh-fruits honey maple-products"},{"type":"farm","street":"2398 Vandermark Rd","city":"Bellaire","state":"mi","zip":"49615","x":"-85.2418749","y":"44.9987500","name":"Raven's Roost Farm","website":"","facebook":"https://www.facebook.com/pages/Ravens-Roost-Farm/244514162293833","twitter":"","tags":"maple-products poultry fowl red-meat non-poultry-meat"},{"type":"farm","street":"44 72nd Street","city":"South Haven","state":"mi","zip":"49090","x":"-86.2460946","y":"42.4254424","name":"Riverbend Farms","website":"greatberries.net","facebook":"","twitter":"","tags":"canned preserved fresh-fruits maple-products nuts"},{"type":"farm","street":"301 Nelson Road","city":"Iron River","state":"mi","zip":"49935","x":"-88.5334027","y":"46.0944389","name":"S&C Nelson Farm","website":"","facebook":"","twitter":"","tags":""},{"type":"farm","street":"4763 Baldwin St","city":"Hudsonville","state":"mi","zip":"49426","x":"-85.900775","y":"42.907060","name":"Salad Central","website":"","facebook":"Salad Central","twitter":"","tags":"baked-goods fresh-vegetables"},{"type":"farm","street":"3056 West Buchanan","city":"Shelby","state":"mi","zip":"49455","x":"-86.3542400","y":"43.6310020","name":"Satterlee Small Fruits","website":"","facebook":"","twitter":"","tags":"fresh-fruits"},{"type":"farm","street":"1185 9 Mile Rd. NW","city":"Sparta","state":"mi","zip":"49345","x":"-85.697411","y":"43.101815","name":"Schwalliers Country Basket","website":"","facebook":"https://www.facebook.com/pages/Schwalliers-Country-Basket/57481257124","twitter":"","tags":"baked-goods canned preserved fresh-fruits honey juices ciders maple-products soap body-care"},{"type":"farm","street":"13275 Blair Street","city":"Holland","state":"mi","zip":"49424","x":"-86.111787","y":"42.892902","name":"Shady Side Farm","website":"http://www.shadysidefarm.com","facebook":"https://www.facebook.com/shadysidefarm","twitter":"","tags":"crafts woodworking dry beans"},{"type":"farm","street":"12602 Center Road","city":"Traverse City","state":"mi","zip":"49686","x":"-85.5152461","y":"44.8701943","name":"Shangrila Too","website":"","facebook":"","twitter":"","tags":"baked-goods canned preserved eggs fresh-fruits fresh-vegetables honey"},{"type":"farm","street":"4039 Dennis Rd.","city":"Webberville","state":"mi","zip":"48892","x":"-84.201761","y":"42.616054","name":"Spartan Country Meats","website":"www.spartancountrymeats.com","facebook":"https://www.facebook.com/pages/Spartan-Country-Meats/213932578620907?sk=timeline&ref=page_internal","twitter":"https://www.twitter.com/spartancntrymts","tags":"eggs poultry fowl red-meat non-poultry-meat"},{"type":"farm","street":"7353 Brockway Rd.","city":"Melvin","state":"mi","zip":"48454","x":"-82.801607","y":"43.207260","name":"Speaker Lone Oak Orchard","website":"speakerorchard.com","facebook":"Speaker orchard","twitter":"","tags":"baked-goods canned preserved fresh-fruits honey juices ciders maple-products"},{"type":"farm","street":"1633 Hagadorn Rd","city":"Mason","state":"mi","zip":"48854","x":"-84.4585120","y":"42.6305369","name":"Swallowtail Farm","website":"http://www.swallowtailfarm.net/","facebook":"https://www.facebook.com/pages/Swallowtail-Farm/299185864935?ref_type=bookmark","twitter":"","tags":"canned preserved cut-flowers eggs fresh-fruits fresh-vegetables"},{"type":"farm","street":"4867 Swoish Road","city":"North Branch","state":"mi","zip":"48461","x":"-83.1602176","y":"43.1868314","name":"Swoish Farms","website":"","facebook":"https://www.facebook.com/swoishfarms/","twitter":"","tags":"poultry fowl red-meat non-poultry-meat"},{"type":"farm","street":"39227 fisk lake road","city":"paw apw","state":"mi","zip":"49079","x":"-86.018937","y":"42.2512872","name":"tanstaafl farmstead","website":"","facebook":"","twitter":"","tags":""},{"type":"farm","street":"16147 US HWY 27 N","city":"Marshall","state":"mi","zip":"49068","x":"-84.964657","y":"42.307229","name":"The Blue Barn","website":"http://www.thebluebarninmarshall.com/","facebook":"","twitter":"","tags":"eggs fresh-vegetables honey soap body-care"},{"type":"farm","street":"3091 Riverside Road","city":"Benton Harbor","state":"mi","zip":"49022","x":"-86.397710","y":"42.167229","name":"The Extraordinary Berry","website":"Theextraordinaryberry.com","facebook":"https://www.facebook.com/pages/The-Extraordinary-Berry/228277483856012","twitter":"","tags":"canned preserved fresh-fruits fresh-vegetables honey"},{"type":"farm","street":"19758 S Corunna Road","city":"Chesaning","state":"mi","zip":"48616","x":"-84.1141690","y":"43.1322360","name":"Tomac Pumpkins and Farm Market","website":"","facebook":"","twitter":"","tags":""},{"type":"farm","street":"9436 Peck Lake Rd.","city":"Lowell","state":"mi","zip":"49331","x":"-85.261964","y":"42.900684","name":"Two Sparrows Farm LLC","website":"https://twosparrowsfarm.wordpress.com/","facebook":"https://www.facebook.com/TwoSparrowsFarm","twitter":"","tags":"dairy products eggs honey maple-products poultry fowl red-meat non-poultry-meat"},{"type":"farm","street":"7344 Hammond Ave.","city":"Caledonia","state":"mi","zip":"49316","x":"-85.5752534","y":"42.8309000","name":"Vertical Paradise Farms","website":"www.vpfarms.com","facebook":"www.facebook.com/vpfarms","twitter":"","tags":"fresh-vegetables"},{"type":"farm","street":"6580 Judd Rd","city":"Milan","state":"mi","zip":"48160","x":"-83.626685","y":"42.140496","name":"Wasem Fruit Farm, LLC","website":"www.wasemfruitfarm.com","facebook":"www.facebook.com/pages/Wasem-Fruit-Farm/255034514021","twitter":"","tags":"baked-goods fresh-fruits"},{"type":"farm","street":"6580 Judd Rd","city":"Milan","state":"mi","zip":"48160","x":"-83.626685","y":"42.140496","name":"Wasem Fruit Farm, LLC","website":"www.wasemfruitfarm.com","facebook":"www.facebook.com/pages/Wasem-Fruit-Farm/255034514021","twitter":"","tags":"baked-goods fresh-fruits"},{"type":"farm","street":"6580 Judd Rd","city":"Milan","state":"mi","zip":"48160","x":"-83.626685","y":"42.140496","name":"Wasem Fruit Farm, LLC","website":"www.wasemfruitfarm.com","facebook":"www.facebook.com/pages/Wasem-Fruit-Farm/255034514021","twitter":"","tags":"baked-goods fresh-fruits"},{"type":"farm","street":"6580 Judd Rd","city":"Milan","state":"mi","zip":"48160","x":"-83.626685","y":"42.140496","name":"Wasem Fruit Farm, LLC","website":"www.wasemfruitfarm.com","facebook":"www.facebook.com/pages/Wasem-Fruit-Farm/255034514021","twitter":"","tags":"baked-goods fresh-fruits"},{"type":"farm","street":"O-8993 Kenowa Ave SW","city":"Grand Rapids","state":"mi","zip":"49534","x":"-85.783388","y":"42.932177","name":"Wells Orchards","website":"www.wellsorchards.com","facebook":"https://www.facebook.com/pages/Wells-Orchards/122028811170560?ref=ts","twitter":"","tags":"canned preserved fresh-fruits fresh-vegetables honey juices ciders maple-products"},{"type":"farm","street":"60636 County Road 652","city":"Mattawan","state":"mi","zip":"49071","x":"-85.784927","y":"42.198224","name":"Westview Farm","website":"","facebook":"","twitter":"","tags":""},{"type":"farm","street":"9235 Windemere Court","city":"Clarkston","state":"mi","zip":"48348","x":"-83.4724440","y":"42.7733080","name":"Whitfield's Raw Honey","website":"wwww.simplyrawhoney.com","facebook":"","twitter":"","tags":"honey"},{"type":"farm","street":"3649 E Sherwood Rd","city":"Williamston","state":"mi","zip":"48895","x":"-84.2269170","y":"42.7171210","name":"Windswept Farm","website":"","facebook":"","twitter":"","tags":""},{"type":"farm","street":"3230 Portage Rd N","city":"Grass Lake","state":"mi","zip":"49240","x":"-84.275871","y":"42.282429","name":"Witamy Farm","website":"www.witamyfarm.com","facebook":"https://www.facebook.com/witamy.farm","twitter":"","tags":"eggs herbs fresh-vegetables poultry fowl"},{"type":"farm","street":"10821 Pierce Street","city":"Zeeland","state":"mi","zip":"49464","x":"-86.048985","y":"42.957257","name":"Woodland Enterprises Inc.","website":"www.woodlandberries.com","facebook":"","twitter":"","tags":""},{"type":"farm","street":"17050 Kane Rd","city":"Stockbridge","state":"mi","zip":"49285","x":"-84.1431360","y":"42.4932460","name":"Zatkovich Pastures, LLC","website":"http://www.zatkovichpastures.com","facebook":"https://www.facebook.com/ZatkovichPasturesLLC","twitter":"","tags":"eggs poultry fowl red-meat non-poultry-meat"},{"type":"market","name":"Ada Farmers' Market","website":"http://www.adafarmersmarket.com","facebook":"https://www.facebook.com/adafarmersmarket","twitter":"https://twitter.com/AdaFarmersMkt","street":"7239 Thornapple River Dr.","city":"Ada","state":"mi","zip":"49301","x":"-85.4889683","y":"42.9553715","tags":"baked goods cheese flowers eggs seafood herbs vegetables honey jams maple meat plants poultry prepared-foods soap fruits mushrooms pet food"},{"type":"market","name":"Adrian Farmers Market","website":"","facebook":"","twitter":"","street":"115 Toledo Street","city":"Adrian ","state":"mi","zip":"49221","x":"-84.034589","y":"41.900169","tags":"baked goods crafts flowers eggs herbs vegetables honey jams maple meat nuts plants poultry soap fruits mushrooms wild"},{"type":"market","name":"Albion Farmer's Market","website":"http://greateralbionchamber.org","facebook":"","twitter":"","street":"211 Market Place","city":"Albion","state":"mi","zip":"49224","x":"-84.751569","y":"42.243544","tags":"baked goods crafts flowers eggs herbs vegetables honey jams maple plants soap trees fruits"},{"type":"market","name":"Alcona Farmers Market","website":"http://www.alconalocalfoods.org","facebook":"","twitter":"","street":"320 S. State Steet   (US23)","city":"Harrisville","state":"mi","zip":"48740","x":"-83.2973","y":"44.6547","tags":"baked goods crafts seafood herbs honey meat soap"},{"type":"market","name":"Allegan Farmers Market","website":"","facebook":"https://www.facebook.com/Allegan-Farmers-Market-146878898707147/","twitter":"","street":"Water Street & Cutler Street","city":"Allegan","state":"mi","zip":"49010","x":"-85.849658","y":"42.529649","tags":"baked goods flowers eggs vegetables honey jams maple plants prepared-foods soap trees fruits juices"},{"type":"market","name":"Allen Farmers Market","website":"http://allenneighborhoodcenter.org/food/market/","facebook":"https://www.facebook.com/AllenFarmersMarket/","twitter":"","street":"1629 E Kalamazoo","city":"Lansing","state":"mi","zip":"48912","x":"-84.5263803","y":"42.7302387","tags":"organic baked goods cheese crafts eggs herbs vegetables honey poultry prepared-foods coffee beans fruits grains"},{"type":"market","name":"Alma Farmers' Market","website":"","facebook":"","twitter":"","street":"Pine & Downie Streets","city":"Alma","state":"mi","zip":"48801","x":"-84.6569840","y":"43.3802699","tags":"organic baked goods flowers eggs herbs vegetables honey maple plants fruits"},{"type":"market","name":"Almont Farmers' Market","website":"http://www.almontfarmersmarket.com","facebook":"","twitter":"","street":"Van Dyke at School Street (northwest corner)","city":"Almont","state":"mi","zip":"","x":"-83.0475","y":"42.9216","tags":""},{"type":"market","name":"Alpena Farmers' Market","website":"http://alpenafarmersmarket.org","facebook":"Friends of the Alpena Farmers Market","twitter":"","street":"208 N 1st Ave.","city":"Alpena ","state":"mi","zip":"49707","x":"-83.430998","y":"45.061878","tags":"organic baked goods cheese crafts flowers eggs seafood herbs vegetables jams maple meat plants poultry prepared-foods soap coffee fruits mushrooms wild"},{"type":"market","name":"Ann Arbor Farmers Market","website":"http://www.a2gov.org/market","facebook":"https://www.facebook.com/a2market","twitter":"https://twitter.com/a2market","street":"315 Detroit Street","city":"Ann Arbor","state":"mi","zip":"48104","x":"-83.746653","y":"42.283836","tags":"organic baked goods cheese crafts flowers eggs seafood herbs vegetables honey jams maple meat nuts plants poultry prepared-foods soap trees coffee beans fruits grains juices mushrooms pet food tofu wild"},{"type":"market","name":"Arenac Conservation District Farmers Market","website":"http://www.arenacconservationdistrict.com","facebook":"","twitter":"","street":"107 N Main Street","city":"Standish","state":"mi","zip":"48658","x":"-83.961296","y":"43.983428","tags":"baked goods crafts herbs vegetables honey nuts plants trees"},{"type":"market","name":"Argus Farm Stop - Packard","website":"http://www.argusfarmstop.com","facebook":"https://www.facebook.com/argusfarmstop/","twitter":"https://twitter.com/ArgusFarmStop","street":"1200 Packard Rd","city":"Ann Arbor, Michigan, United States","state":"mi","zip":"48104","x":"-83.838671","y":"42.2532638","tags":"organic baked goods cheese crafts flowers eggs seafood herbs vegetables honey jams maple meat plants poultry prepared-foods soap trees coffee beans fruits grains juices mushrooms tofu wild"},{"type":"market","name":"Artisan and Agriculture Market","website":"http://www.MacombConservationDistrict.org","facebook":"https://www.facebook.com/macombcd","twitter":"https://twitter.com/macombcd1","street":"72955 Van Dyke Ave.","city":"Bruce Township","state":"mi","zip":"48065","x":"-83.020813","y":"42.830852","tags":"baked goods crafts flowers eggs herbs vegetables honey jams maple soap coffee fruits"},{"type":"market","name":"Athens Farmers Market","website":"","facebook":"","twitter":"","street":"Wilson Park","city":"Athens","state":"mi","zip":"49011","x":"-85.235417","y":"42.091051","tags":"baked goods crafts flowers eggs herbs vegetables honey jams maple plants soap fruits wild"},{"type":"market","name":"Auburn Hills Farmers Market","website":"http://www.auburnhills.org/farmersmarket","facebook":"","twitter":"","street":"Auburn and Squirrel Road","city":"Auburn Hills","state":"mi","zip":"48326","x":"-83.2204160","y":"42.6337033","tags":"baked goods cheese crafts eggs vegetables honey meat plants prepared-foods soap fruits"},{"type":"market","name":"Bangor Farmers Market","website":"","facebook":"https://www.facebook.com/BangorFarmMarket","twitter":"","street":"Center St. & Monroe St.","city":"Bangor","state":"mi","zip":"49056","x":"-86.1090777","y":"42.3123539","tags":"organic baked goods crafts flowers eggs herbs vegetables honey jams maple plants prepared-foods soap trees fruits"},{"type":"market","name":"Bath Farmers Market","website":"http://www.bathtownship.us","facebook":"","twitter":"","street":"13751 Main St, Bath, MI 48808","city":"Bath","state":"mi","zip":"48808","x":"-84.449093","y":"42.816181","tags":""},{"type":"market","name":"Battle Creek Farmers Market","website":"","facebook":"@BattleCreekFarmersMarketAssociation","twitter":"","street":"25 S McCamly","city":"Battle Creek","state":"mi","zip":"49034","x":"-85.185107","y":"42.319940","tags":"baked goods cheese crafts flowers eggs herbs vegetables honey jams maple plants prepared-foods soap wine beans fruits juices"},{"type":"market","name":"Bay County Farmers Market","website":"","facebook":"","twitter":"","street":"105 Adams St","city":"Bay City","state":"mi","zip":"48708","x":"-83.8881","y":"43.5895","tags":""},{"type":"market","name":"Bayside Farmers Market","website":"","facebook":"","twitter":"","street":"13 S. State Street","city":"St. Ignace","state":"mi","zip":"49781","x":"-84.720967","y":"45.867004","tags":"baked goods crafts flowers eggs herbs vegetables honey jams maple plants soap fruits"},{"type":"market","name":"Beaumont Hospital Royal Oak, Farmers Market","website":"","facebook":"","twitter":"","street":"3601 West Thirteen Mile Rd.","city":"Royal Oak","state":"mi","zip":"48073","x":"-83.192119","y":"42.514952","tags":"baked goods cheese crafts flowers eggs herbs vegetables honey jams maple meat nuts plants prepared-foods soap coffee beans fruits juices mushrooms pet food"},{"type":"market","name":"Bedford Farmer's Market","website":"http://bedfordmifarmersmarket.org","facebook":"https://www.facebook.com/bedfordmifarmersmarket/","twitter":"","street":"2000 W. Dean Rd","city":"Temperance ","state":"mi","zip":"48182","x":"-83.596275","y":"41.765307","tags":"baked goods crafts eggs herbs honey jams maple poultry fruits pet food"},{"type":"market","name":"Beets, Beats, and Eats Farmers Market","website":"http://www.downtownortonville.org/bbe","facebook":"https://www.facebook.com/beetsbeatseats","twitter":"","street":"Crossman Park, 395 Mill Street","city":"Ortonville","state":"mi","zip":"48462","x":"-83.443812","y":"42.852734","tags":"baked goods crafts flowers eggs herbs vegetables honey jams plants prepared-foods soap fruits"},{"type":"market","name":"Belding Beatnik Bazaar","website":"","facebook":"https://www.facebook.com/Belding-Beatnik-Bazaar-813935875369495/","twitter":"","street":"201 S Bridge Street","city":"Belding","state":"mi","zip":"48809","x":"-85.228826","y":"43.096859","tags":"baked goods cheese crafts flowers eggs herbs vegetables honey jams maple prepared-foods soap fruits"},{"type":"market","name":"Bellaire Farmers Market","website":"","facebook":"www.facebook.com/BellaireFarmersMarket","twitter":"","street":"102 Maple Street","city":"Bellaire","state":"mi","zip":"49615","x":"-85.205265","y":"44.974831","tags":"baked goods cheese crafts flowers eggs seafood herbs vegetables honey jams maple plants poultry prepared-foods soap trees wine coffee fruits juices pet food"},{"type":"market","name":"Belleville Farmers Market","website":"","facebook":"","twitter":"","street":"In the parking lot behind museum on Main Street","city":"Belleville","state":"mi","zip":"48111","x":"-83.4907","y":"42.2083","tags":""},{"type":"market","name":"Bellevue Farmers Market","website":"http://www.battlecreekfarmersmarket.com","facebook":"","twitter":"","street":"Main St and Mill St","city":"Bellevue","state":"mi","zip":"49021","x":"-85.018644","y":"42.445850","tags":"baked goods cheese crafts flowers eggs herbs vegetables honey jams maple meat nuts poultry prepared-foods soap fruits"},{"type":"market","name":"Bennigton Township Farmers Market","website":"http://www.bennington-township.org/","facebook":"","twitter":"","street":"5849 S. M 52","city":"Owosso","state":"mi","zip":"48867","x":"-84.1682","y":"43.0829","tags":""},{"type":"market","name":"Benton Harbor Farmers Market","website":"","facebook":"www.facebook.com/bentonharborfarmersmarket","twitter":"","street":"Pipestone and Main St","city":"Benton Harbor","state":"mi","zip":"49022","x":"-86.454635","y":"42.115797","tags":"baked goods herbs vegetables fruits"},{"type":"market","name":"Big Rapids Farmers' Market","website":"","facebook":"","twitter":"","street":"310 North Fourth Ave.","city":"Big Rapids","state":"mi","zip":"49307","x":"-85.4752","y":"43.7046","tags":""},{"type":"market","name":"Birch Run Farmers' Market","website":"http://www.organicworldspicemarket.com/new-events/","facebook":"https://www.facebook.com/birchrunfarmersmarket/","twitter":"","street":"12245 S. Beyer Rd. A110","city":"Birch Run","state":"mi","zip":"48415","x":"-83.777762","y":"43.247801","tags":"baked goods crafts flowers eggs herbs vegetables honey jams maple meat plants poultry soap fruits juices pet food"},{"type":"market","name":"Birmingham Farmers Market","website":"http://www.birminghamfarmersmarket.org","facebook":"https://www.facebook.com/BIRMINGHAMFARMERSMARKET","twitter":"https://twitter.com/BhamFarmMkt","street":"660 North Old Woodward Avenue","city":"Birmingham ","state":"mi","zip":"48009","x":"-83.217619","y":"42.551570","tags":"organic baked goods cheese crafts flowers eggs seafood herbs vegetables honey jams maple meat nuts plants poultry prepared-foods soap trees coffee fruits juices mushrooms pet food wild"},{"type":"market","name":"Bliss Farmer's Market","website":"","facebook":"","twitter":"","street":"Corner of Sturgeon Bay Rd. & Pleasantview Rd.","city":"Bliss","state":"mi","zip":"49718","x":"-84.883123","y":"45.681307","tags":"baked goods cheese crafts flowers eggs seafood herbs vegetables honey jams maple meat plants poultry prepared-foods soap trees coffee beans fruits grains pet food wild"},{"type":"market","name":"Blue Water Farmers Market","website":"","facebook":"","twitter":"","street":"Riverview Plzaz, north end, N. Riverside Street","city":"St. Clair","state":"mi","zip":"48079","x":"-82.483","y":"42.8332","tags":""},{"type":"market","name":"Boyne City Farmers Market","website":"http://boynecitymainstreet.com/farmers-market-welcome/","facebook":"https://www.facebook.com/BoyneCityFarmersMarket/","twitter":"","street":"319 N. Lake St","city":"Boyne City","state":"mi","zip":"49712","x":"-85.015378","y":"45.216850","tags":"organic baked goods cheese crafts flowers eggs seafood herbs vegetables honey jams maple meat plants poultry prepared-foods soap trees wine coffee beans fruits juices mushrooms pet food wild"},{"type":"market","name":"Brighton Farmers Market","website":"","facebook":"","twitter":"","street":"North 1st St","city":"Brighton","state":"mi","zip":"48116","x":"-83.7852","y":"42.5313","tags":""},{"type":"market","name":"Bronson Winter Farmers' Market","website":"http://www.bronsonhealth.com/farmersmarket","facebook":"","twitter":"","street":"601 John Street","city":"Kalamazoo","state":"mi","zip":"49007","x":"-85.582","y":"42.2849","tags":"baked goods cheese herbs vegetables honey jams maple meat prepared-foods"},{"type":"market","name":"Brownstown Farmers Market","website":"http://www.brownstowndda.org","facebook":"https://www.facebook.com/BrownstownFarmersMarket?ref=hl","twitter":"","street":"21313 Telegraph Road","city":"Brownstown","state":"mi","zip":"48183","x":"-83.2645968","y":"42.1504155","tags":"baked goods cheese crafts flowers herbs vegetables honey jams maple meat plants prepared-foods soap trees wine fruits pet food"},{"type":"market","name":"Buchanan Farmer' Market","website":"http://www.buchananfarmersmarket.com","facebook":"","twitter":"","street":"112 Days Avenue","city":"Buchanan","state":"mi","zip":"49107","x":"-86.3596","y":"41.8272","tags":""},{"type":"market","name":"Byron Farmer's Market","website":"","facebook":"https://www.facebook.com/ByronCenterFarmersMarket","twitter":"","street":"84th St & Byron Center Ave","city":"Byron Center","state":"mi","zip":"49315","x":"-85.722456","y":"42.812545","tags":"baked goods cheese crafts flowers eggs herbs vegetables honey jams maple plants prepared-foods soap trees fruits"},{"type":"market","name":"Cadillac Area Farmers Market","website":"","facebook":"","twitter":"","street":"Lake Street near the Wexford County Public Library","city":"Cadillac","state":"mi","zip":"49601","x":"-85.402114","y":"44.250855","tags":"flowers eggs herbs vegetables honey trees"},{"type":"market","name":"Caledonia Farmers Market","website":"http://www.caledoniafarmersmarket.org","facebook":"","twitter":"","street":"9942 Cherry Valley Ave","city":"Caledonia","state":"mi","zip":"49316","x":"-85.5067032","y":"42.7842298","tags":""},{"type":"market","name":"Canterbury Village Farmers Market ","website":"","facebook":"","twitter":"","street":"2369 Joslyn Ct. (Main courtyard)","city":"Lake Orion","state":"mi","zip":"48360","x":"-83.239661","y":"42.784475","tags":""},{"type":"market","name":"Canton Farmers Market","website":"https://www.canton-mi.org/496/Canton-Farmers-Market","facebook":"@cantonfarmersmarket","twitter":"","street":"500 North Ridge Road","city":"Canton","state":"mi","zip":"48188","x":"-83.533591","y":"42.308841","tags":"organic baked goods cheese crafts flowers eggs herbs vegetables honey jams maple meat plants poultry prepared-foods soap coffee fruits grains juices mushrooms"},{"type":"market","name":"Caro Farmers Market","website":"http://www.carochamber.org","facebook":"https://www.facebook.com/pages/Caro-Farmers-Market/156760491000879","twitter":"","street":"M-81 on Court House Lawn","city":"Caro","state":"mi","zip":"48723","x":"-83.393464","y":"43.490938","tags":"baked goods cheese crafts flowers eggs herbs vegetables honey jams maple nuts plants soap fruits pet food"},{"type":"market","name":"Cassopolis Farmers Market ","website":"http://www.localharvest.org/cassopolis-farmers-market-M22415","facebook":"","twitter":"","street":"980 East State Street (across from the Phillips 66 station)","city":"Cassopolis ","state":"mi","zip":"49031","x":"-86.0023","y":"41.9115","tags":""},{"type":"market","name":"Centerponite Mall’s Farmers Market","website":"","facebook":"","twitter":"","street":"3665 28th Street","city":"Grand Rapids","state":"mi","zip":"","x":"-85.5809","y":"42.9154","tags":""},{"type":"market","name":"Charlevoix Farmers Market","website":"http://www.charlevoixmainstreet.org","facebook":"https://www.facebook.com/CharlevoixFarmersMarket","twitter":"https://twitter.com/MChrisLeese","street":"408 Bridge Street along East Park","city":"Charlevoix","state":"mi","zip":"49720","x":"-85.258400","y":"45.316373","tags":"organic baked goods cheese flowers eggs seafood herbs vegetables honey jams maple meat nuts plants poultry prepared-foods soap wine coffee beans fruits grains juices mushrooms pet food tofu wild"},{"type":"market","name":"Charlotte DDA Farmers Market","website":"","facebook":"","twitter":"","street":"100 block of West Harris St","city":"Charlotte","state":"mi","zip":"48813","x":"-84.836318","y":"42.565077","tags":"baked goods cheese crafts flowers eggs herbs vegetables honey jams maple plants soap fruits"},{"type":"market","name":"Cheboygan Farmers Market","website":"http://www.msue.msu.edu/cheboygan","facebook":"","twitter":"","street":"City Hall parking lot, State Street","city":"Cheboygan","state":"mi","zip":"49721","x":"-84.4716","y":"45.5931","tags":""},{"type":"market","name":"Chelsea Farmers Market","website":"http://www.chelseafarmersmkt.org","facebook":"https://www.facebook.com/chelseafarmersmkt?ref=hl","twitter":"","street":"222 S. Main St.","city":"Chelsea","state":"mi","zip":"48118","x":"-84.0210800","y":"42.3163150","tags":"organic baked goods cheese crafts flowers eggs herbs vegetables honey jams maple meat nuts plants poultry soap trees fruits tofu"},{"type":"market","name":"Chesaning Market off Broad","website":"http://www.broadstreetevents.org","facebook":"https://www.facebook.com/bsechesaning","twitter":"","street":"Broad St and S. Chapman St.","city":"Chesaning","state":"mi","zip":"48616","x":"-84.117669","y":"43.185151","tags":"organic baked goods cheese crafts flowers eggs herbs vegetables honey jams maple meat nuts plants poultry prepared-foods soap trees wine coffee beans fruits juices"},{"type":"market","name":"City Market","website":"http://www.citymarketbc.com","facebook":"www.facebook.com/citymarketbc","twitter":"","street":"401 Center Avenue Suite 100","city":"Bay City","state":"mi","zip":"48708","x":"-83.8863179","y":"43.5982695","tags":"organic baked goods cheese crafts flowers eggs seafood herbs vegetables honey jams maple meat nuts poultry prepared-foods soap coffee beans fruits grains juices tofu wild"},{"type":"market","name":"City Market","website":"http://www.webrewstarbucks.com/CityMarket.html","facebook":"","twitter":"","street":"Railway Station - Corner of 8th and Woodmere Streets","city":"Traverse City","state":"mi","zip":"49686","x":"-85.6077","y":"44.7592","tags":""},{"type":"market","name":"City of Au Gres Downtown Farmers Market","website":"","facebook":"","twitter":"","street":"501 Park Street","city":"Au Gres","state":"mi","zip":"","x":"-83.6878","y":"44.05","tags":""},{"type":"market","name":"City of Grand Blanc Farmers Market","website":"http://www.cityofgrandblanc.com/NewsEvents/FarmersMarket/tabid/5439/Default.aspx","facebook":"https://www.facebook.com/grandblanc.farmersmarket","twitter":"https://twitter.com/GBFarmersMarket","street":"Grand Boulevard","city":"GRAND BLANC","state":"mi","zip":"48439","x":"-83.6321608","y":"42.9273395","tags":"organic baked goods cheese crafts flowers eggs herbs vegetables honey jams maple meat nuts plants poultry prepared-foods soap trees coffee beans fruits juices mushrooms pet food"},{"type":"market","name":"City of Grayling Farm Market","website":"http://www.cityofgrayling.org","facebook":"","twitter":"","street":"Michigan Ave. Downtown Grayling","city":"Grayling","state":"mi","zip":"49738","x":"-84.7092680","y":"44.6657840","tags":"baked goods cheese crafts eggs seafood herbs vegetables honey jams maple meat nursery plants poultry prepared-foods soap trees"},{"type":"market","name":"City of Grayling Farm Market","website":"http://www.cityofgrayling.org","facebook":"","twitter":"","street":"City Park 213 N. James Street","city":"Grayling","state":"mi","zip":"49738","x":"-84.71587","y":"44.66235","tags":"baked goods cheese crafts eggs seafood herbs vegetables honey jams maple meat nursery plants poultry prepared-foods soap"},{"type":"market","name":"City of Otsego Farmers Market","website":"http://www.otsegochamber.org","facebook":"","twitter":"","street":"112 Kalamazoo Street/M-89","city":"Otsego","state":"mi","zip":"49078","x":"-85.6988","y":"42.4606","tags":""},{"type":"market","name":"City of Walled Lake Farmers Market","website":"","facebook":"","twitter":"","street":"1499 E. West Maple","city":"Walled Lake","state":"mi","zip":"48390","x":"-83.46616","y":"42.53957","tags":"baked goods flowers herbs vegetables honey jams nursery plants prepared-foods soap trees"},{"type":"market","name":"City of warren","website":"http://warrenfarmersmarket@cityofwarren.org","facebook":"warren parks and rec","twitter":"warren parks and rec","street":"1 city square","city":"Warren","state":"mi","zip":"48093","x":"-83.024314","y":"42.512232","tags":"baked goods crafts flowers eggs herbs vegetables honey jams plants prepared-foods soap coffee fruits juices"},{"type":"market","name":"City of Wayne Farmers' Market","website":"http://www.waynefarmersmarket.net","facebook":"","twitter":"","street":"35310 Michigan Avenue","city":"Wayne","state":"mi","zip":"48184","x":"-83.388269","y":"42.282659","tags":""},{"type":"market","name":"Clare Main Street Farm & Arts Market","website":"http://www.clearlyclaremi.com","facebook":"","twitter":"","street":"Fourth & Beech St","city":"Clare","state":"mi","zip":"48617","x":"-84.770679","y":"43.818907","tags":"organic baked goods cheese flowers eggs herbs vegetables honey jams maple meat plants prepared-foods soap"},{"type":"market","name":"Clarkston Farmers Market","website":"http://www.clarkstonfarmersmarket.org;","facebook":"","twitter":"","street":"Across from Depot Park","city":"Clarkston","state":"mi","zip":"48348","x":"-83.4096","y":"42.7615","tags":""},{"type":"market","name":"Clawson Farmers Market","website":"http://www.cityofclawson.com/","facebook":"https://www.facebook.com/pages/Clawson-Farmers-Market/156582121049116","twitter":"","street":"1080 N Custer","city":"Clawson","state":"mi","zip":"48017","x":"-83.152922","y":"42.541950","tags":"baked goods crafts eggs herbs vegetables honey jams meat plants prepared-foods soap fruits mushrooms pet food"},{"type":"market","name":"Clio Area Farmers Market","website":"","facebook":"","twitter":"","street":"","city":"Clio","state":"mi","zip":"48420","x":"-83.7343","y":"43.1779","tags":""},{"type":"market","name":"Cobblestone Farmers Market","website":"http://www.cobblestonefarmmarket.com/","facebook":"https://www.facebook.com/CobblestoneFarmMarket","twitter":"","street":"2781 Packard Road","city":"Ann Arbor","state":"mi","zip":"48108","x":"-83.710105","y":"42.245054","tags":"organic baked goods crafts flowers eggs herbs vegetables honey jams maple plants prepared-foods soap coffee fruits grains pet food"},{"type":"market","name":"CONCORD MARKET","website":"","facebook":"","twitter":"","street":"106 East Jackson Rd (M-60),","city":"Concord","state":"mi","zip":"49237","x":"-84.4234","y":"42.2485","tags":""},{"type":"market","name":"Coopersville Farmers Market","website":"http://www.coopersville.com/farmer.htm","facebook":"","twitter":"","street":"N. Main Street Parking Lot Pavilion","city":"Coopersville","state":"mi","zip":"49404","x":"-85.9412","y":"43.0599","tags":""},{"type":"market","name":"CrossRoad Farmers Market","website":"","facebook":"","twitter":"","street":"","city":"Reed City","state":"mi","zip":"49677","x":"-85.510540","y":"43.875639","tags":"baked goods crafts eggs vegetables honey jams maple plants soap fruits"},{"type":"market","name":"Crystal Falsh Energy Farmers Market","website":"","facebook":"","twitter":"","street":"1754 Alpine Avenue, N.W.","city":"Grand Rapids","state":"mi","zip":"49504","x":"-85.6884","y":"42.9957","tags":""},{"type":"market","name":"Crystal Farmers Market","website":"","facebook":"","twitter":"","street":"831 S. Main Street parking lot","city":"Crystal","state":"mi","zip":"48818","x":"-84.9149","y":"43.2581","tags":""},{"type":"market","name":"CSA Farmers Market","website":"http://www.csafarmersmarket.com","facebook":"","twitter":"","street":"2933 Burnside Rd.","city":"North Branch","state":"mi","zip":"48461","x":"-83.2363667339087","y":"43.2066100090742","tags":"organic baked goods cheese eggs herbs vegetables honey maple meat poultry prepared-foods soap fruits"},{"type":"market","name":"Davison Downtown Farmers Market","website":"http://www.cityofdavison.org/farmers.htm","facebook":"","twitter":"","street":"Cornier of Shoppers Alley & Second Street","city":"Davison","state":"mi","zip":"48423","x":"-83.516","y":"43.0317","tags":""},{"type":"market","name":"Dearborn Farmers & Artisans Market","website":"http://www.dearbornfarmersartisansmarket.com","facebook":"@DearbornFarmersArtisansMarket","twitter":"","street":"22271 West Village Drive","city":"Dearborn ","state":"mi","zip":"48124","x":"-83.211488","y":"42.313057","tags":"organic baked goods cheese crafts flowers eggs seafood herbs vegetables honey jams maple plants poultry prepared-foods soap coffee fruits grains juices mushrooms pet food tofu wild"},{"type":"market","name":"Decatur Farmers Market","website":"","facebook":"","twitter":"","street":"In the park downtown at Phelps & St Marys","city":"Decatur","state":"mi","zip":"49045","x":"-85.9774","y":"42.1119","tags":""},{"type":"market","name":"Dewitt Farmers Market","website":"http://www.dewittfarmersmarket.com/","facebook":"","twitter":"","street":"Bridge and Main St","city":"Dewitt","state":"mi","zip":"48820","x":"-84.5691","y":"42.8422","tags":""},{"type":"market","name":"Dexter Farmers Market","website":"http://www.dextermi.gov","facebook":"","twitter":"","street":"3233 Alpine","city":"Dexter","state":"mi","zip":"48130","x":"-83.889499","y":"42.339166","tags":"baked goods cheese crafts eggs herbs vegetables honey jams maple plants poultry soap fruits"},{"type":"market","name":"Dimondale Farmers' Market","website":"http://villageofdimondale.org","facebook":"http://facebook.com/dimondalefarmersmarket","twitter":"","street":"136 N Bridge St","city":"Dimondale","state":"mi","zip":"48821","x":"-84.647388","y":"42.646201","tags":"baked goods cheese crafts flowers eggs seafood herbs vegetables honey jams maple meat plants poultry prepared-foods soap beans fruits juices"},{"type":"market","name":"Dixboro Farmers' Market","website":"http://www.dixborofarmersmarket.org","facebook":"https://www.facebook.com/pages/Dixboro-Farmers-Market/372563842791981","twitter":"","street":"5221 Church Road","city":"Ann Arbor","state":"mi","zip":"48105","x":"-83.656340","y":"42.312497","tags":"organic baked goods cheese crafts flowers eggs seafood herbs vegetables honey jams maple meat nuts plants poultry prepared-foods soap trees coffee beans fruits pet food wild"},{"type":"market","name":"Douglass Farmers' Market","website":"http://www.douglassfarmersmarket.wordpress.com","facebook":"https://www.facebook.com/pages/Fair-Food-Matters/113123338709080","twitter":"https://twitter.com/FFMKzoo","street":"1000 West Paterson Street","city":"Kalamazoo","state":"mi","zip":"49007","x":"-85.598452","y":"42.303569","tags":"baked goods crafts flowers eggs herbs vegetables jams plants prepared-foods soap fruits"},{"type":"market","name":"Downtown Allen Park Farmers Market","website":"http://www.allenparkdowntown.com","facebook":"https://www.facebook.com/allenpark.dda?sk=wall","twitter":"","street":"Park Avenue and Harrison Avenue","city":"Allen Park","state":"mi","zip":"48101","x":"-83.2089890","y":"42.2548010","tags":"baked goods cheese crafts flowers eggs herbs vegetables honey jams meat plants poultry prepared-foods soap trees fruits pet food"},{"type":"market","name":"Downtown Bay City Farmers Market","website":"http://www.downtownbaycityfarmersmarket.org","facebook":"https://www.facebook.com/pages/Downtown-Bay-City-Farmers-Market/200900103265896","twitter":"","street":"318 Sixth St","city":"Bay City","state":"mi","zip":"48708","x":"-83.8877893","y":"43.5969764","tags":"baked goods flowers eggs herbs vegetables honey jams maple meat plants poultry soap wine beans fruits"},{"type":"market","name":"Downtown Big Rapids Farmers Market ","website":"","facebook":"https://www.facebook.com/pages/Downtown-Big-Rapids-Farmers-Market/152427584813743","twitter":"","street":"226 N Michigan Ave","city":"Big Rapids","state":"mi","zip":"49307","x":"-85.4819","y":"43.6999","tags":""},{"type":"market","name":"Downtown Gaylord Farmers Market","website":"","facebook":"https://www.facebook.com/DowntownGaylordFarmersMarket","twitter":"","street":"100 Court Street","city":"Gaylord","state":"mi","zip":"49735","x":"-84.6758757","y":"45.0273917","tags":"baked goods cheese crafts flowers eggs seafood herbs vegetables honey jams maple meat plants poultry prepared-foods soap trees wine coffee beans fruits mushrooms"},{"type":"market","name":"Downtown Jackson Grand River Farmers Market","website":"http://www.jacksondda.org","facebook":"www.facebook.com/downtownjacksonmi","twitter":"","street":"117 W. Louis Glick Hwy","city":"Jackson","state":"mi","zip":"49201","x":"-84.406020","y":"42.248764","tags":"baked goods cheese flowers herbs vegetables jams plants poultry prepared-foods soap fruits"},{"type":"market","name":"Downtown Market Grand Rapids","website":"http://downtownmarketgr.com/","facebook":"https://www.facebook.com/DowntownMarket","twitter":"https://twitter.com/dtmarketgr","street":"435 Ionia Ave. SW","city":"Grand Rapids","state":"mi","zip":"49525","x":"-85.6708470","y":"42.9545290","tags":"organic baked goods cheese flowers eggs seafood herbs vegetables honey jams maple meat nuts plants poultry prepared-foods trees beans fruits grains mushrooms pet food"},{"type":"market","name":"Downtown Marquette Farmers Market","website":"http://mqtfarmersmarket.com","facebook":"facebook.com/downtownmqtfarmersmarket/","twitter":"","street":"112 S. Third St.","city":"Marquette","state":"mi","zip":"49855","x":"-87.395409","y":"46.543488","tags":"organic baked goods crafts flowers eggs seafood herbs vegetables honey jams maple meat plants poultry prepared-foods soap wine coffee beans fruits mushrooms wild"},{"type":"market","name":"Downtown Owosso Farmers Market ","website":"","facebook":"https://www.facebook.com/DowntownOwossoFarmersMarket","twitter":"","street":"Exchange Street in Downtown","city":"Owosso","state":"mi","zip":"48867","x":"-84.1493","y":"42.9987","tags":""},{"type":"market","name":"Downtown Petoskey Farmers Market","website":"http://www.petoskey.com","facebook":"https://www.facebook.com/chamberpetoskey","twitter":"https://twitter.com/PetoskeyChamber","street":"Near corner of Howard & Michigan Streets","city":"Petoskey","state":"mi","zip":"49770","x":"-84.9555","y":"45.3733","tags":"baked goods cheese flowers seafood herbs vegetables honey jams maple poultry soap fruits mushrooms wild"},{"type":"market","name":"Downtown Rochester Farmers' Market","website":"http://www.DowntownRochesterMI.com","facebook":"www.facebook.com/downtownrochesterfarmersmarket","twitter":"","street":"Corner of E. Third & Water","city":"Rochester","state":"mi","zip":"48307","x":"-83.131950","y":"42.679095","tags":"organic baked goods cheese flowers eggs herbs vegetables honey jams maple meat plants poultry prepared-foods soap trees fruits"},{"type":"market","name":"Downtown Saginaw Farmers' Market, Inc.","website":"http://www.saginawfarmersmarket.org","facebook":"Downtown Saginaw Farmers Market","twitter":"","street":"507 S. Washington Avenue (M-13)","city":"Saginaw","state":"mi","zip":"48601","x":"-83.9410120","y":"43.4285520","tags":"baked goods cheese flowers eggs herbs vegetables honey jams maple meat plants poultry prepared-foods soap coffee beans fruits grains"},{"type":"market","name":"Downtown Sparta Farmers Market","website":"http://www.spartachamber.com","facebook":"","twitter":"","street":"72 N. Union","city":"Sparta","state":"mi","zip":"49345","x":"-85.7072","y":"43.1624","tags":"baked goods crafts vegetables jams meat plants"},{"type":"market","name":"dulce diamante farmer market","website":"","facebook":"","twitter":"","street":"6897 michigan ave","city":"Detroit","state":"mi","zip":"48210","x":"-83.129376","y":"42.331109","tags":"vegetables plants fruits"},{"type":"market","name":"Dundee Farmers Market","website":"https://heartofdundee.com/farmers-market/","facebook":"https://www.facebook.com/dundeefarmersmarket/?fref=ts","twitter":"","street":"Downtown Dundee, In the Triangle","city":"DUNDEE","state":"mi","zip":"48131","x":"-83.660742","y":"41.957342","tags":"baked goods crafts flowers eggs herbs vegetables honey jams maple plants prepared-foods soap coffee fruits"},{"type":"market","name":"Durand Union Station Farmers Market","website":"","facebook":"","twitter":"","street":"Corner of Hagle & Main Street","city":"Durand","state":"mi","zip":"48429","x":"-83.9831","y":"42.9108","tags":""},{"type":"market","name":"East Jordan Farmers Market","website":"","facebook":"facebook.com/eastjordanfarmersmarket","twitter":"","street":"85 Bridge Street","city":"East Jordan ","state":"mi","zip":"49727","x":"-85.130525","y":"45.152834","tags":"baked goods crafts flowers eggs seafood herbs vegetables honey jams maple plants prepared-foods soap fruits"},{"type":"market","name":"East Lansing Farmer's Market","website":"https://www.cityofeastlansing.com/farmersmarket","facebook":"https://www.facebook.com/elfarmersmarket/","twitter":"https://twitter.com/ELFarmersMarket","street":"280 Valley Court ","city":"East Lansing ","state":"mi","zip":"48823","x":"-84.487514","y":"42.737164","tags":"organic baked goods cheese flowers eggs seafood herbs vegetables honey jams maple meat plants poultry prepared-foods soap coffee fruits juices mushrooms wild"},{"type":"market","name":"Eastern Market","website":"http://www.easternmarket.com","facebook":"https://www.facebook.com/easternmarketdetroit","twitter":"https://twitter.com/EasternMarket","street":"2934 Russell Street","city":"Detroit","state":"mi","zip":"48207","x":"-83.040134","y":"42.346768","tags":"organic baked goods cheese crafts flowers eggs seafood herbs vegetables honey jams maple meat nuts plants poultry prepared-foods soap trees coffee beans fruits grains juices mushrooms wild"},{"type":"market","name":"Eastpointe Farmers Market","website":"","facebook":"https://www.facebook.com/pages/Eastpointe-Farmers-Market/390111054360362?fref=ts","twitter":"","street":"Gratiot Ave and Nine Mile Rd","city":"Eastpointe","state":"mi","zip":"48021","x":"-82.958729","y":"42.464167","tags":"organic baked goods crafts flowers herbs vegetables jams meat plants prepared-foods soap fruits"},{"type":"market","name":"Eastside Farmers Market","website":"","facebook":"https://www.facebook.com/eastsidefarmersmarket","twitter":"https://twitter.com/EastsideFarmMkt","street":"14820 Mack Avenue","city":"Detroit","state":"mi","zip":"48215","x":"-82.9481112","y":"42.3872170","tags":"baked goods crafts herbs vegetables jams plants prepared-foods fruits"},{"type":"market","name":"Eaton Rapids Medical Center Farmer's Market","website":"http://www.eatonrapidsmedicalcenter.org","facebook":"Eaton Rapids Medical Center ","twitter":"","street":"1500 S. Main St. ","city":"Eaton Rapids ","state":"mi","zip":"48827","x":"-84.657876","y":"42.495807","tags":"baked goods flowers eggs herbs vegetables honey jams maple plants soap fruits"},{"type":"market","name":"Edmore Farmers Market","website":"http://www.Edmore.org","facebook":"https://www.facebook.com/EdmoreFarmersMarket","twitter":"https://Twitter.com/edmoremarket","street":"Corner of Lewis Street and Pine Street","city":"Edmore","state":"mi","zip":"48829","x":"-85.0375810","y":"43.4060489","tags":"organic baked goods crafts flowers eggs herbs vegetables honey jams maple nuts plants prepared-foods soap fruits"},{"type":"market","name":"Elberta Farmers Market","website":"http://www.villageofelberta.gov","facebook":"https://www.facebook.com/pages/Elberta-Farmers-Market/116719868340073","twitter":"","street":"M-22","city":"Elberta","state":"mi","zip":"49628","x":"-86.226146","y":"44.619209","tags":"organic baked goods flowers eggs herbs vegetables honey jams maple meat plants poultry prepared-foods soap trees fruits grains mushrooms wild"},{"type":"market","name":"Elk Rapids Area Chamber of Commerce Farmers Market","website":"http://www.elkrapidschamber.org","facebook":"https://www.facebook.com/elkrapidschamber","twitter":"","street":" 305  US-31 North","city":"Elk Rapids","state":"mi","zip":"49629","x":"-85.409560","y":"44.896361","tags":"baked goods cheese flowers eggs seafood herbs vegetables honey jams maple meat nuts plants poultry prepared-foods soap wine fruits"},{"type":"market","name":"Ellsworth Farmer's Market","website":"http://www.ridethebreezeway.com","facebook":"https://www.facebook.com/pages/The-Breezeway/250641938319933","twitter":"","street":"Across from High School on C48  and Main St.","city":"Ellsworth","state":"mi","zip":"49729","x":"-85.246155","y":"45.165787","tags":""},{"type":"market","name":"Elsie Farmers Market ","website":"","facebook":"https://www.facebook.com/pages/Eastern-Shore-Summer-Market-Organic-Shop/453528631407571","twitter":"","street":"122 S Ovid St","city":"Elsie","state":"mi","zip":"48831","x":"-84.3873","y":"43.0884","tags":""},{"type":"market","name":"Empire Farmers Market","website":"http://www.leelanaufarmersmarkets.com","facebook":"https://www.facebook.com/leelanaufarmersmarkets/","twitter":"","street":"10234 Front Street","city":"Empire","state":"mi","zip":"49630","x":"-86.063056","y":"44.811224","tags":"organic baked goods cheese crafts flowers eggs herbs vegetables honey jams maple plants soap trees fruits"},{"type":"market","name":"Engadine Area Farmers' Market","website":"","facebook":"","twitter":"","street":"","city":"Engadine","state":"mi","zip":"","x":"-85.578248","y":"46.119734","tags":"baked goods flowers eggs herbs vegetables honey jams maple"},{"type":"market","name":"Escanaba Farmers Market","website":"","facebook":"","twitter":"","street":"115 North 9th Street","city":"Escanaba","state":"mi","zip":"49829","x":"-87.0604","y":"45.7465","tags":""},{"type":"market","name":"Evart Farmers' Market- Evart DDA","website":"http://evart.org/business/dda/farmers-market/","facebook":"https://www.facebook.com/pages/Evart-Farmers-Market/173877975995896","twitter":"","street":"200 South Main Street","city":"Evart","state":"mi","zip":"49631","x":"-85.259592","y":"43.899648","tags":"baked goods crafts flowers vegetables honey jams meat plants fruits"},{"type":"market","name":"Farmer’s Market on the Mountain","website":"http://www.crystalmountain.com","facebook":"","twitter":"","street":"12500 Crystal Mountain Drive","city":"Thompsonville","state":"mi","zip":"49683","x":"-85.99","y":"44.5196","tags":""},{"type":"market","name":"Farmers & Artisans Market Dearborn","website":"http://www.dearbornfarmersartisansmarket.org","facebook":"https://www.facebook.com/Dearbornfarmersartisanssmarket","twitter":"https://twitter.com/dearbornfarmersmkt","street":"22100 Michigan Ave","city":"Dearborn","state":"mi","zip":"48124","x":"-83.2462480","y":"42.3057198","tags":"baked goods cheese crafts flowers eggs herbs vegetables jams maple meat plants poultry prepared-foods soap trees fruits"},{"type":"market","name":"Farmers Markets at the Capitol","website":"http://mifma.org/fmatthecapitol/","facebook":"https://www.facebook.com/MichiganFarmersMarketAssociation/?ref=bookmarks","twitter":"","street":"Capitol Ave and Michigan Ave","city":"Lansing","state":"mi","zip":"48933","x":"-84.5538744","y":"42.7335912","tags":"organic baked goods cheese crafts flowers eggs seafood herbs vegetables honey jams maple meat nuts plants poultry prepared-foods soap coffee fruits juices pet food"},{"type":"market","name":"Farmers' Market of Sault Sainte Marie Michigan","website":"","facebook":"Sault Ste Marie Farmers' Market","twitter":"","street":"511 Ashmun ","city":"Sault Ste. Marie","state":"mi","zip":"49783","x":"-84.345838","y":"46.500099","tags":"baked goods crafts flowers eggs seafood herbs vegetables honey jams maple meat plants poultry soap wine fruits mushrooms pet food wild"},{"type":"market","name":"Farmington Farmers & Artisans Market","website":"http://www.downtownfarmington.org/Downtown-Events/Whats-Happening/Farmers-Artisans-Market","facebook":"https://www.facebook.com/FarmingtonMarket","twitter":"","street":"33113 Grand River Avenue","city":"Farmington","state":"mi","zip":"48336","x":"-83.373828","y":"42.463170","tags":"baked goods cheese crafts flowers eggs herbs vegetables honey jams maple plants prepared-foods soap fruits"},{"type":"market","name":"Farwell's Art & Crafts Farmer's Market","website":"http://www.villageoffarwell.org","facebook":"","twitter":"","street":"Corner of South Hall and Illinois","city":"Farwell","state":"mi","zip":"48622","x":"-84.866874","y":"43.833103","tags":"baked goods cheese crafts flowers eggs herbs vegetables honey jams maple plants soap fruits"},{"type":"market","name":"Fenton Farmers Market","website":"http://www.slpr.net","facebook":"","twitter":"","street":"150 S. Leroy Street","city":"Fenton","state":"mi","zip":"48430","x":"-83.7038","y":"42.7982","tags":""},{"type":"market","name":"Fife Lake Downtown Farmer's Market","website":"http://www.fifelakechamber.com","facebook":"https://www.facebook.com/fifelakefarmersmarket","twitter":"","street":"105 E. State St.","city":"Fife Lake","state":"mi","zip":"49633","x":"-85.3503286","y":"44.5769222","tags":"baked goods cheese crafts flowers eggs seafood herbs vegetables honey jams maple nuts plants soap trees wine coffee fruits mushrooms wild"},{"type":"market","name":"Flat Rock Farmers' Market","website":"http://www.waynemetro.org","facebook":"","twitter":"","street":"27313 Telegraph Rd.","city":"Flat Rock","state":"mi","zip":"48134","x":"-83.2872","y":"42.1056","tags":""},{"type":"market","name":"Flint Farmers Market","website":"http://flintfarmersmarket.com/contact/","facebook":"","twitter":"","street":"300 East First St Flint","city":"Flint ","state":"mi","zip":"48502","x":"-83.6870062","y":"43.0170979","tags":"organic baked goods vegetables trees fruits mushrooms"},{"type":"market","name":"Four Co Farmer's Market","website":"","facebook":"https://www.facebook.com/FourCountyFarmersMarket","twitter":"","street":"US 131","city":"Fife Lake","state":"mi","zip":"49633","x":"-85.363303","y":"44.577171","tags":"organic baked goods crafts flowers eggs herbs vegetables honey jams maple plants soap trees beans fruits juices mushrooms wild"},{"type":"market","name":"Frankenmuth Farmers Market","website":"http://www.frankenmuthfarmersmarket.org","facebook":"https://www.facebook.com/Frankenmuth-Farmers-Market-106279602732863/ ","twitter":"https://twitter.com/MuthFarmMarket","street":"534 North Main Street","city":"Frankenmuth","state":"mi","zip":"48734","x":"-83.738212","y":"43.344313","tags":"baked goods cheese crafts flowers eggs seafood herbs vegetables honey jams maple meat nuts plants poultry prepared-foods soap coffee beans fruits grains juices mushrooms pet food"},{"type":"market","name":"Frankfort \"Friendly\" Farmers Market","website":"","facebook":"https://www.facebook.com/frankfortfriendlyfarmersmarket","twitter":"","street":"832 Main Street","city":"Frankfort","state":"mi","zip":"49635","x":"-86.2338","y":"44.632","tags":"organic baked goods crafts flowers seafood herbs vegetables honey jams maple meat plants prepared-foods soap"},{"type":"market","name":"Fremont Farmers Market","website":"http://www.cityoffremont.net/web/downtown.htm#market","facebook":"www.facebook.com/FremontMiFarmersMarket","twitter":"","street":"Dayton St","city":"Fremont","state":"mi","zip":"49412","x":"-85.9432","y":"43.468","tags":"baked goods cheese crafts flowers eggs herbs vegetables honey jams maple plants trees fruits"},{"type":"market","name":"Friday Farmer's Market at Borgess Medical Center","website":"http://www.borgess.com","facebook":"","twitter":"","street":"1521 Gull Rd","city":"Kalamazoo","state":"mi","zip":"49048","x":"-85.5598","y":"42.3077","tags":""},{"type":"market","name":"Friends of Walker Tavern Farmers' Market","website":"http://www.michigan.gov/walkertavern","facebook":"","twitter":"","street":"13220 M-50","city":"Brooklyn","state":"mi","zip":"","x":"-84.2237","y":"42.0637","tags":""},{"type":"market","name":"Fulton Street Farmers Market","website":"http://www.fultonstreetmarket.org","facebook":"www.facebook.com/fultonstmarket","twitter":"","street":"1145 East Fulton","city":"Grand Rapids","state":"mi","zip":"49503","x":"-85.6404790","y":"42.9639130","tags":"organic baked goods cheese crafts flowers eggs seafood herbs vegetables honey jams maple meat plants poultry prepared-foods soap trees wine coffee beans fruits grains juices mushrooms wild"},{"type":"market","name":"Galesburg Community Market","website":"http://www.galesburgcomunitymarket.com","facebook":"https://www.facebook.com/galesburgcommunitymarket","twitter":"https://twitter.com/Mr49053","street":"45 West Michigan","city":"Galesburg ","state":"mi","zip":"49053","x":"-85.418966","y":"42.288858","tags":"organic baked goods cheese crafts flowers eggs herbs vegetables honey jams maple nuts plants prepared-foods soap coffee beans fruits grains tofu"},{"type":"market","name":"Gladwin Farmers Market","website":"","facebook":"https://www.facebook.com/pages/Gladwin-Farmers-Market/362116510514895","twitter":"","street":"N. State St.","city":"Gladwin","state":"mi","zip":"48624","x":"-84.481527","y":"43.980915","tags":"baked goods crafts flowers eggs herbs vegetables honey jams maple meat plants prepared-foods soap trees beans fruits mushrooms pet food wild"},{"type":"market","name":"Glen Arbor Farmers Market","website":"http://www.leelanaufarmersmarkets.com","facebook":"https://www.facebook.com/leelanaufarmersmarkets/","twitter":"","street":"6394 Western Ave.","city":"Glen Arbor","state":"mi","zip":"49636","x":"-85.986905","y":"44.897978","tags":"baked goods cheese crafts flowers eggs herbs vegetables honey jams maple meat plants poultry prepared-foods soap fruits mushrooms"},{"type":"market","name":"Grand Haven Farmer's Market","website":"http://www.grandhavenchamber.org/farmers-markets","facebook":"https://www.facebook.com/GHSL.FarmersMarkets","twitter":"","street":"300 N. Harbor Drive","city":"Grand Haven ","state":"mi","zip":"49417","x":"-86.231009","y":"43.067469","tags":"baked goods flowers vegetables honey jams plants prepared-foods coffee fruits juices pet food"},{"type":"market","name":"Grand Ledge Farmers Market","website":"http://www.glfarm.org","facebook":"","twitter":"","street":"Bridge Street","city":"Grand Ledge","state":"mi","zip":"48837","x":"-84.7463","y":"42.7533","tags":""},{"type":"market","name":"Grand Valley State University Farmers Market","website":"http://www.gvsu.edu/healthwellness/module-event-view.htm?eventId=1CFA3E52-9EE4-9B27-0F0F457C93599926","facebook":"","twitter":"","street":"1 Campus Drive, Parking Lot G","city":"Allendale","state":"mi","zip":"49504","x":"-85.9540218","y":"42.9721861","tags":"baked goods cheese flowers eggs herbs vegetables honey jams meat poultry soap coffee fruits"},{"type":"market","name":"Grandville Farmers' Market","website":"","facebook":"","twitter":"","street":"Wilson St","city":"Grandville","state":"mi","zip":"49418","x":"-85.7625","y":"42.876","tags":""},{"type":"market","name":"Green Oak Farmers and Community Market","website":"","facebook":"https://www.facebook.com/greenoakmarket","twitter":"","street":"11299 Grand River Avenue","city":"Brighton","state":"mi","zip":"48116","x":"-83.7271648","y":"42.5159990","tags":"baked goods cheese crafts flowers eggs herbs vegetables honey jams maple meat plants poultry prepared-foods soap coffee fruits"},{"type":"market","name":"Greenville Farm Market","website":"http://www.greenvillemi.org","facebook":"","twitter":"","street":"1325 W. Washington Street","city":"Greenville","state":"mi","zip":"48838","x":"-85.2707297","y":"43.1772910","tags":"baked goods crafts flowers eggs herbs vegetables honey maple plants fruits"},{"type":"market","name":"Grow Benzie Farmers Market","website":"http://www.GrowBenzie.org/","facebook":"https://www.facebook.com/Growbenzie/?fref=ts","twitter":"","street":"5885 Frankfort Hwy.","city":"Benzonia","state":"mi","zip":"49616","x":"-86.121490","y":"44.630837","tags":"organic baked goods cheese crafts flowers eggs herbs vegetables honey jams maple meat plants prepared-foods soap fruits grains mushrooms"},{"type":"market","name":"Hamtramck Farmers Market","website":"","facebook":"https://www.facebook.com/hamtramckfarmersmarket","twitter":"","street":"Joseph Campau St. and Belmont St.","city":"Hamtramck","state":"mi","zip":"48212","x":"-83.0588968","y":"42.3984530","tags":"baked goods vegetables honey jams prepared-foods soap"},{"type":"market","name":"Hancock Tori","website":"","facebook":"Hancock Tori","twitter":"","street":"Quincy Street","city":"Hancock","state":"mi","zip":"49930","x":"-88.585751","y":"47.126805","tags":"baked goods crafts flowers eggs herbs vegetables honey jams maple plants soap beans fruits"},{"type":"market","name":"Hannahville Farmer's Market","website":"http://www.hannahville.net","facebook":"https://www.facebook.com/Hannahville.Potawatomi","twitter":"","street":"N14925 Hannahville Road B 1 ","city":"Wilson","state":"mi","zip":"49896","x":"-87.438184","y":"45.705244","tags":""},{"type":"market","name":"Harbor Springs Farmers' Market","website":"http://www.hsfarmers'market.weebly.com","facebook":"https://www.facebook.com/pages/Harbor-Springs-Farmers-Market/194942923891996","twitter":"","street":"Harbor Springs High School","city":"Harbor Springs","state":"mi","zip":"49740","x":"-84.989643","y":"45.429507","tags":"baked goods cheese flowers eggs seafood herbs vegetables honey jams maple meat nuts plants poultry prepared-foods soap wine coffee fruits juices mushrooms wild"},{"type":"market","name":"Harrison Farmers' Market","website":"","facebook":"","twitter":"","street":"3170 N. Clare Ave","city":"Harrison","state":"mi","zip":"48625","x":"-84.8084","y":"44.0349","tags":""},{"type":"market","name":"Harrisville Farmers Market","website":"","facebook":"","twitter":"","street":"M-72 and US-23","city":"Harrisville ","state":"mi","zip":"48740","x":"-83.4029566","y":"44.6560742","tags":""},{"type":"market","name":"Hartford Farmers Market","website":"http://www.ourhartford.com/localnews_farmersmarket.html","facebook":"","twitter":"","street":"On Red Arrow Hwy (Main St)","city":"Hartford","state":"mi","zip":"49057","x":"-86.1696","y":"42.2071","tags":"baked goods crafts flowers herbs vegetables honey jams maple plants prepared-foods"},{"type":"market","name":"Hartland Farmer's Market","website":"","facebook":"","twitter":"","street":"9525 E Highland Road","city":"Howell","state":"mi","zip":"48843","x":"-83.7637","y":"42.6327","tags":"baked goods crafts flowers herbs vegetables honey jams maple meat plants prepared-foods soap"},{"type":"market","name":"Harvey Farmers Market","website":"","facebook":"","twitter":"","street":" In Citgo gas station parking lot, US-41 & M-28","city":"Harvey","state":"mi","zip":"","x":"-87.5119","y":"46.5269","tags":""},{"type":"market","name":"Hastings Farmers Market","website":"","facebook":"","twitter":"","street":"Corner of State and Church Streets","city":"Hastings","state":"mi","zip":"49058","x":"-85.2891","y":"42.6483","tags":"baked goods cheese crafts flowers herbs vegetables honey jams maple nuts plants soap"},{"type":"market","name":"Heights City Market","website":"","facebook":"","twitter":"","street":"99 Center Street","city":"Muskegon Heights ","state":"mi","zip":"49444","x":"-86.242558","y":"43.201885","tags":"baked goods eggs herbs vegetables nuts plants beans fruits"},{"type":"market","name":"Hemlock Farmers' Market","website":"","facebook":"","twitter":"","street":"Richland Township Park","city":"Hemlock","state":"mi","zip":"48626","x":"-84.2305","y":"43.4147","tags":""},{"type":"market","name":"Hillman Farmers Market","website":"","facebook":"","twitter":"","street":"Brush Creek Mill","city":"Hillman","state":"mi","zip":"49746","x":"-83.9011","y":"45.0632","tags":""},{"type":"market","name":"Hillsdale Farmers Market","website":"","facebook":"","twitter":"","street":"115 S Broad St, County Fairgrounds","city":"Hillsdale","state":"mi","zip":"49242","x":"-84.6278","y":"41.9148","tags":""},{"type":"market","name":"Historic Farmers Market of Lapeer","website":"http://www.historicfarmersmarketoflapeer.com ","facebook":"Historic Farmers Market of Lapeer","twitter":"","street":"287 W, Nepessing St.","city":"Lapeer ","state":"mi","zip":"48446","x":"-83.3112036","y":"43.0539654","tags":"baked goods crafts flowers eggs herbs vegetables honey jams maple meat plants poultry prepared-foods soap beans fruits"},{"type":"market","name":"Holland  Farmers Market","website":"http://www.hollandfarmersmarket.com","facebook":"https://www.facebook.com/hollandfarmersmarket","twitter":"","street":"150 W. 8th Street","city":"Holland","state":"mi","zip":"49423","x":"-86.113329","y":"42.790299","tags":"organic baked goods cheese flowers eggs seafood herbs vegetables honey jams maple meat nuts plants poultry prepared-foods trees wine coffee beans fruits"},{"type":"market","name":"Holly Farmers Market","website":"http://www.hollyfarmersmarket.weebly.com","facebook":"www.facebook.com/HollyFarmers","twitter":"","street":"Crapo Park","city":"Holly","state":"mi","zip":"48442","x":"-83.625343","y":"42.790600","tags":"baked goods crafts flowers eggs herbs vegetables honey jams maple meat plants poultry prepared-foods soap fruits wild"},{"type":"market","name":"Holt Farmers Market","website":"http://www.holtfarmersmarket.org","facebook":"https://www.facebook.com/HoltFarmersMarket","twitter":"","street":"2150 Cedar Street","city":"Holt","state":"mi","zip":"48842","x":"-84.5200140","y":"42.6451410","tags":"baked goods crafts flowers eggs herbs vegetables honey jams maple meat poultry prepared-foods soap trees coffee fruits pet food"},{"type":"market","name":"Homer Farmers Market","website":"","facebook":"","twitter":"","street":"109 East Leigh street (M-60)","city":"Homer","state":"mi","zip":"49245","x":"-84.8066","y":"42.1465","tags":"baked goods crafts eggs vegetables honey jams plants soap fruits pet food"},{"type":"market","name":"Honor Farmers Market","website":"","facebook":"","twitter":"","street":"10579 Main Street","city":"Honor","state":"mi","zip":"49640","x":"-86.022776","y":"44.665207","tags":""},{"type":"market","name":"Howard City DDA Farmer's Market","website":"http://www.howardcity.org","facebook":"","twitter":"","street":"120 W. Edgerton Street","city":"Howard City","state":"mi","zip":"49329","x":"-85.4701","y":"43.397","tags":""},{"type":"market","name":"Howell Farmers Market","website":"http://www.howell.org","facebook":"","twitter":"","street":"123 E. Washington St.","city":"Howell","state":"mi","zip":"48843","x":"-83.931","y":"42.6054","tags":""},{"type":"market","name":"Howell Farmers Market","website":"http://www.howell.org","facebook":"","twitter":"","street":"State Street","city":"Howell","state":"mi","zip":"48843","x":"-83.9115","y":"42.6029","tags":""},{"type":"market","name":"Hubbard Lake Farmers' Market","website":"","facebook":"www.facebook.com/#!/groups/556298227825396","twitter":"","street":"Hubbard Lake Road and Hubert Road","city":"Hubbard Lake","state":"mi","zip":"49747","x":"-83.587669","y":"44.859919","tags":"baked goods crafts flowers eggs herbs vegetables honey jams meat plants poultry soap fruits wild"},{"type":"market","name":"Hudsonville Farmers Market & Crafts","website":"http://www.fcelevator.com/index.cfm?show=10&mid=16","facebook":"https://www.facebook.com/Hudsonville-Farmers-Market-Crafts-131002943577800/","twitter":"","street":"3302 Prospect Street","city":"Hudsonville","state":"mi","zip":"49426","x":"-85.864407","y":"42.867745","tags":"baked goods crafts flowers eggs vegetables honey jams meat poultry soap fruits mushrooms"},{"type":"market","name":"Huron Valley Farmers' Market","website":"http://www.hvfarmersmarket.weebly.com","facebook":"https://www.facebook.com/HuronValleyFarmersMarket","twitter":"","street":"300 W. Livingston","city":"Highland Twp.","state":"mi","zip":"48357","x":"-83.620666","y":"42.638316","tags":"baked goods cheese crafts flowers eggs herbs vegetables honey jams maple meat nuts plants poultry prepared-foods soap trees coffee fruits juices pet food wild"},{"type":"market","name":"Imlay City Farmer's Market","website":"http://www.icdda.com","facebook":"https://www.facebook.com/pages/Imlay-City-Farmers-Market/215845188439242","twitter":"","street":"120 N Main","city":"Imlay City","state":"mi","zip":"48444","x":"-83.074322","y":"43.024290","tags":"baked goods crafts eggs vegetables honey jams maple plants poultry prepared-foods soap fruits"},{"type":"market","name":"Indian River Grower's Market","website":"","facebook":"","twitter":"","street":"3435 S. Straits Hwy, Chamber parking lot,","city":"Indian River","state":"mi","zip":"49749","x":"-84.6122","y":"45.4121","tags":""},{"type":"market","name":"Interlochen Farmers Market","website":"http://www.facebook.com/interlochenfarmersmarket","facebook":"https://www.facebook.com/interlochenfarmersmarket","twitter":"","street":"2112 M-137","city":"Interlochen","state":"mi","zip":"49643","x":"-85.7678865","y":"44.6570752","tags":"baked goods cheese crafts flowers eggs herbs vegetables honey jams maple meat nuts plants poultry prepared-foods soap trees coffee beans fruits grains juices pet food"},{"type":"market","name":"Ionia Farmers' Market","website":"http://www.ci.ionia.mi.us","facebook":"","twitter":"","street":"South Steele Street and Adams Street","city":"Ionia","state":"mi","zip":"48846","x":"-85.0677261","y":"42.9814841","tags":"baked goods flowers vegetables honey maple plants soap fruits"},{"type":"market","name":"Iron Mountain Farmers & Artisans Market","website":"http://www.ironmountaindowntown.com","facebook":"","twitter":"","street":"City Parking Lot on East A Street","city":"Iron Mountain","state":"mi","zip":"49801","x":"-88.0664","y":"45.8183","tags":""},{"type":"market","name":"Islandview Farmers Market","website":"http://www.genesishope.org/our-work/islandview_farmers_market/","facebook":"www.facebook.com/Islandview.Farmers.Market","twitter":"https://twitter.com/islandvieweats","street":"7200 Mack Ave","city":"Detroit","state":"mi","zip":"48214","x":"-83.0124046","y":"42.3642211","tags":"organic baked goods crafts flowers herbs vegetables honey jams plants prepared-foods soap coffee fruits juices"},{"type":"market","name":"Ithaca Farmers Market","website":"http://www.ithacami.com","facebook":"","twitter":"","street":"Center St","city":"Ithaca","state":"mi","zip":"48847","x":"-84.607979","y":"43.291365","tags":"baked goods crafts flowers vegetables honey jams trees fruits"},{"type":"market","name":"Jackson Mine Farmers and Crafters Market","website":"http://www.cityofnegaunee.com","facebook":"","twitter":"","street":"U.S. 41 and Maas Street","city":"Negaunee","state":"mi","zip":"49866","x":"-87.611951","y":"46.513579","tags":""},{"type":"market","name":"Kalamazoo Farmers Market","website":"http://pfcmarkets.com","facebook":"https://www.facebook.com/KalamazooFarmersMarket/","twitter":"","street":"1204 Bank Street","city":"Kalamazoo","state":"mi","zip":"49001","x":"-85.588501","y":"42.275163","tags":"organic baked goods cheese crafts flowers eggs seafood herbs vegetables honey jams maple meat nuts plants poultry prepared-foods soap wine coffee beans fruits grains juices mushrooms pet food tofu wild"},{"type":"market","name":"Kalkaska Farmers Market","website":"","facebook":"www.facebook.com/kalkaskafarmmarket","twitter":"","street":"353 S. Cedar","city":"Kalkaska","state":"mi","zip":"49646","x":"-85.178275","y":"44.730628","tags":"baked goods cheese crafts eggs vegetables jams maple poultry prepared-foods soap fruits"},{"type":"market","name":"Kensington Metropark Farmers Market","website":"http://www.metroparks.com/facilities-education/kensington-farm-center/","facebook":"https://www.facebook.com/KensingtonMetropark/","twitter":"","street":"4570 Huron River Parkway","city":"Milford","state":"mi","zip":"48380","x":"-83.634008","y":"42.551403","tags":"organic baked goods crafts flowers eggs herbs vegetables honey maple poultry prepared-foods soap fruits mushrooms pet food"},{"type":"market","name":"Kentwood Farmers Market","website":"http://www.KentwoodFarmersMarket.com","facebook":"CityofKentwoodFarmersMarket","twitter":"","street":"4900 Breton Rd SE","city":"Kentwood","state":"mi","zip":"49508","x":"-85.596957","y":"42.874316","tags":"baked goods flowers eggs herbs vegetables coffee fruits grains"},{"type":"market","name":"Kingsford Farmers Market","website":"","facebook":"","twitter":"","street":"","city":"Kingsford","state":"mi","zip":"49801","x":"-83.1816","y":"42.6628","tags":""},{"type":"market","name":"Kingsley Market ","website":"","facebook":"https://www.facebook.com/KingsleyMarket","twitter":"","street":"Brownson Memorial Park","city":"Kingsley","state":"mi","zip":"49649","x":"-85.5362","y":"44.583","tags":""},{"type":"market","name":"L'Anse Farmers Market","website":"","facebook":"","twitter":"","street":"Broad St","city":"L'Anse","state":"mi","zip":"49946","x":"-88.444","y":"46.7504","tags":""},{"type":"market","name":"Lake Orion Farmers' Market","website":"http://www.lakeorionfarmersmarket.com","facebook":"https://www.facebook.com/lakeorionfarmersmarket","twitter":"","street":"93 S. Anderson","city":"Lake Orion","state":"mi","zip":"48362","x":"-83.23849","y":"42.78292","tags":"organic baked goods eggs herbs vegetables honey jams maple plants poultry prepared-foods soap coffee fruits"},{"type":"market","name":"Lansing - Old Town Farmers Market","website":"http://www.oldtownmainstreet.org","facebook":"https://www.facebook.com/OldTownLansing","twitter":"","street":"On the corner of E. Grand River Ave. and Center St.","city":"Lansing","state":"mi","zip":"48906","x":"-84.5480353","y":"42.7464742","tags":"organic baked goods cheese flowers eggs herbs vegetables honey maple plants poultry prepared-foods wine fruits mushrooms wild"},{"type":"market","name":"Lansing City Market","website":"http://www.lansingcitymarket.com","facebook":"","twitter":"","street":"325 City Market Drive","city":"Lansing","state":"mi","zip":"48912","x":"-84.5471549","y":"42.7357602","tags":"organic baked goods cheese flowers eggs seafood herbs vegetables honey jams maple meat nursery nuts plants poultry prepared-foods soap wine"},{"type":"market","name":"Lathrup Village Farmers Market","website":"http://www.lathrupvillage.org/index.aspx?nid=241","facebook":"","twitter":"","street":"27400 Southfield Road","city":"Lathrup Village","state":"mi","zip":"49076","x":"-83.2202238","y":"42.4913339","tags":""},{"type":"market","name":"Lawrence Farmers Market","website":"http://www.lawrencemi.org/lawrence-farmers-market/","facebook":"Lawrence Farmers' Market","twitter":"","street":"304 E. St. Joseph Street","city":"Lawrence ","state":"mi","zip":"49064","x":"-86.047121","y":"42.219300","tags":"baked goods crafts flowers eggs herbs vegetables honey jams maple soap trees coffee fruits"},{"type":"market","name":"Leland Farmers Market","website":"http://www.leelanaufarmersmarkets.com","facebook":"https://www.facebook.com/leelanaufarmersmarkets/","twitter":"","street":"River Street","city":"Leland","state":"mi","zip":"49654","x":"-85.759459","y":"45.022857","tags":"baked goods crafts flowers vegetables jams maple prepared-foods soap wine fruits"},{"type":"market","name":"Leslie Farmers & Crafters Market","website":"","facebook":"","twitter":"","street":"","city":"Leslie","state":"mi","zip":"49251","x":"-83.8009","y":"44.4552","tags":""},{"type":"market","name":"Lincoln Park Farmers Market","website":"","facebook":"https://www.facebook.com/Lincoln-Park-Farmers-Market-208206362528258/","twitter":"https://twitter.com/LPFarmersMarket","street":"SW Corner Fort Street & Southfield","city":"Lincoln Park","state":"mi","zip":"48146","x":"-83.177696","y":"42.249938","tags":"baked goods crafts flowers herbs vegetables honey jams plants prepared-foods"},{"type":"market","name":"Linden Farmers Market","website":"http://www.slpr.net","facebook":"","twitter":"","street":"N. Main Street","city":"Linden","state":"mi","zip":"48451","x":"-83.7814","y":"42.8153","tags":""},{"type":"market","name":"Livonia Wilson Barn Farmers Market","website":"","facebook":"The Wilson Barn","twitter":"","street":"29350 W. Chicago","city":"Livonia","state":"mi","zip":"48150","x":"-83.331995","y":"42.362596","tags":"baked goods crafts vegetables honey jams prepared-foods soap fruits"},{"type":"market","name":"Lowell Area Farmers' Market","website":"","facebook":"https://www.facebook.com/Lowell-Farmers-Market-426239604141282/","twitter":"","street":"Veteran's Memorial Parking Lot ","city":"Lowell ","state":"mi","zip":"49331","x":"-85.337798","y":"42.934151","tags":"baked goods cheese crafts flowers eggs herbs vegetables honey jams maple meat prepared-foods soap wine coffee fruits mushrooms wild"},{"type":"market","name":"Ludington Farmer's Market","website":"http://www.ludington.mi.us/195/Farmers-Market","facebook":"http://www.facebook.com/pages/Ludington-Farmers-Market/323333473110","twitter":"","street":"North James Street Plaza","city":"Ludington","state":"mi","zip":"49431","x":"-86.447843","y":"43.955784","tags":"organic baked goods cheese crafts flowers eggs herbs vegetables honey jams maple meat nuts poultry soap trees wine fruits grains mushrooms"},{"type":"market","name":"M&M Farmers Market in Menominee","website":"","facebook":"https://www.facebook.com/MandMFarmersMarket/","twitter":"","street":"1207 8th Ave","city":"Menominee","state":"mi","zip":"49858","x":"-87.620522","y":"45.106924","tags":"baked goods crafts eggs herbs vegetables honey jams maple meat plants poultry soap coffee fruits mushrooms"},{"type":"market","name":"Main Street Calumet Market","website":"http://www.mainstreetcalumet.org","facebook":"","twitter":"","street":"200 Fifth Street","city":"Calumet","state":"mi","zip":"49913","x":"-88.4525322","y":"47.2453755","tags":"baked goods crafts flowers herbs vegetables honey jams maple nursery plants prepared-foods soap trees"},{"type":"market","name":"Main Street Calumet Market","website":"http://www.mainstreetcalumet.org","facebook":"","twitter":"","street":"Agassiz Park","city":"Calumet","state":"mi","zip":"49913","x":"-88.451014","y":"47.245445","tags":"baked goods crafts flowers herbs vegetables honey jams maple nursery plants prepared-foods soap trees"},{"type":"market","name":"Manachester Farmers Market","website":"","facebook":"","twitter":"","street":"Adrian Street","city":"Manchester","state":"mi","zip":"48158","x":"-84.0333","y":"42.1568","tags":""},{"type":"market","name":"Mancelona Farmers Market","website":"","facebook":"Mancelonafarmersmarket","twitter":"","street":"121 State St","city":"Mancelona","state":"mi","zip":"49659","x":"-85.059364","y":"44.902730","tags":"baked goods crafts flowers eggs herbs vegetables honey jams maple plants soap fruits"},{"type":"market","name":"Manistee Farmers Market","website":"https://manisteekitchen.org/farmers-market/","facebook":"https://www.facebook.com/Manistee-Farmers-Market-203800259657175/","twitter":"","street":"180 Memorial Drive","city":"Manistee ","state":"mi","zip":"49660","x":"-86.323001","y":"44.249273","tags":"organic baked goods cheese crafts flowers eggs herbs vegetables honey jams maple plants poultry prepared-foods soap trees wine coffee fruits mushrooms pet food"},{"type":"market","name":"Manistique Farmers' Market","website":"http://ManistiqueFarmersMarket.org/","facebook":"facebook.com/MSTQFarmersMKT","twitter":"twitter.com/MSTQFarmersMKT","street":"180 N. Maple Street","city":"Manistique","state":"mi","zip":"49854","x":"-86.243595","y":"45.959984","tags":"baked goods flowers eggs seafood vegetables honey jams maple meat wine fruits"},{"type":"market","name":"Marine City Farmer's Market","website":"","facebook":"https://www.facebook.com/FarmersMarketMC/?fref=ts","twitter":"","street":"310 S Parker St","city":"Marine City","state":"mi","zip":"48039","x":"-82.501097","y":"42.716150","tags":"organic baked goods crafts vegetables jams fruits"},{"type":"market","name":"Marshall Area Farmers Market","website":"","facebook":"Marshall Area Farmers Market","twitter":"","street":"200 North Madison Street ","city":"Marshall","state":"mi","zip":"49068","x":"-84.956978","y":"42.273676","tags":"organic baked goods cheese eggs herbs vegetables honey jams maple meat poultry prepared-foods soap fruits grains juices pet food"},{"type":"market","name":"Marshall Area Farmers Market","website":"","facebook":"Marshall Area Farmers Market ","twitter":"","street":"125 West Green Street","city":"Marshall, MI ","state":"mi","zip":"49068","x":"-84.959151","y":"42.270871","tags":"organic baked goods cheese crafts flowers eggs herbs vegetables honey jams maple meat plants poultry prepared-foods soap coffee fruits grains pet food"},{"type":"market","name":"Mason Farmers Market","website":"","facebook":"https://www.facebook.com/groups/309799505821466/","twitter":"","street":"100 block East Maple at Jefferson (in street)","city":"Mason","state":"mi","zip":"48854","x":"-84.442600","y":"42.580168","tags":"baked goods crafts flowers herbs vegetables honey jams maple prepared-foods soap beans fruits"},{"type":"market","name":"Melvindale DDA Farmers Market","website":"","facebook":"https://www.facebook.com/Melvindale-DDA-Farmers-Market-846492182127069/","twitter":"","street":"3696 Oakwood Blvd","city":"Melvindale","state":"mi","zip":"48122","x":"-83.184570","y":"42.280673","tags":"baked goods crafts eggs vegetables honey jams maple plants prepared-foods soap fruits grains"},{"type":"market","name":"Menominee Historic Downtown Farmers Market Association","website":"http://www.menomineefarmersmarket.com/","facebook":"https://www.facebook.com/MenomineeFarmersMarket/","twitter":"https://twitter.com/MenoFarmMarket","street":"1st Street and 8th Ave","city":"Menominee ","state":"mi","zip":"49858","x":"-87.6039237","y":"45.1058332","tags":"organic baked goods crafts flowers eggs seafood herbs vegetables honey jams maple meat plants fruits"},{"type":"market","name":"Meridian Township Farmers Market","website":"http://www.meridian.mi.us/index.asp?SEC=FBDDD477-61D6-4BC4-8CAD-81DAA4BB9692&Type=B_BASIC","facebook":"https://www.facebook.com/MeridianTownshipFarmersMarket/?ref=bookmarks","twitter":"","street":"5151 Marsh Rd","city":"Okemos","state":"mi","zip":"48864","x":"-84.415825","y":"42.728938","tags":"organic baked goods cheese flowers eggs seafood herbs vegetables honey jams maple meat nuts plants poultry prepared-foods soap coffee beans fruits grains juices mushrooms pet food tofu"},{"type":"market","name":"Metro Health Farm Market","website":"http://www.metrohealth.net/livehealthy/farm-market/","facebook":"","twitter":"","street":"5900 Byron Center Ave","city":"Wyoming","state":"mi","zip":"49519","x":"-85.72025","y":"42.85824","tags":"baked goods cheese crafts flowers seafood herbs vegetables honey jams maple nursery plants prepared-foods soap"},{"type":"market","name":"Middleville Farmers Market","website":"http://www.middleville.govoffice.com","facebook":"","twitter":"","street":"100 E Main St","city":"Middleville","state":"mi","zip":"49333","x":"-85.4647","y":"42.7112","tags":""},{"type":"market","name":"Midland Area Farmers Market","website":"http://mbami.org/farmersmarket/","facebook":"https://www.facebook.com/midlandfarmersmarket/","twitter":"https://twitter.com/midlandfmarket","street":"End of Ashman Street at the base of the Tridge ","city":"Midland","state":"mi","zip":"48640","x":"-84.247412","y":"43.612027","tags":"organic baked goods cheese flowers eggs seafood herbs vegetables honey jams maple meat nuts plants poultry prepared-foods soap trees wine coffee beans fruits grains juices mushrooms"},{"type":"market","name":"Milan Farmers & Crafters Market - Wilson Park","website":"http://www.ci.milan.mi.us","facebook":"","twitter":"","street":"","city":"Milan","state":"mi","zip":"48160","x":"-83.7402","y":"42.05","tags":""},{"type":"market","name":"Milford Farmers Market","website":"http://www.milfordfarmersmarket.org","facebook":"https://www.facebook.com/pages/Milford-Farmers-Market/93544778955","twitter":"","street":"","city":"Milford","state":"mi","zip":"48381","x":"-83.599662","y":"42.589528","tags":"baked goods cheese crafts flowers eggs herbs vegetables honey jams maple meat plants poultry prepared-foods soap coffee beans fruits"},{"type":"market","name":"Monroe County Farmer's Market","website":"http://www.farmersmarketmonroemi.com","facebook":"https://www.facebook.com/farmersmarketmonroemi","twitter":"","street":"20 E. Willow St.","city":"Monroe","state":"mi","zip":"48162","x":"-83.39378","y":"41.91965","tags":"baked goods crafts flowers eggs herbs vegetables honey jams maple nuts plants soap fruits"},{"type":"market","name":"Monroe County Growers Association ","website":"http://www.farmersmarketmonroemi.com","facebook":"https://www.facebook.com/monroefarmersmarket-monroemichigan","twitter":"","street":"20 E. Willow St","city":"Monroe ","state":"mi","zip":"48162","x":"-83.3952123","y":"41.9196913","tags":"baked goods crafts flowers eggs herbs vegetables honey jams maple plants soap fruits"},{"type":"market","name":"Montague Farmers Market","website":"","facebook":"","twitter":"","street":"283 Church Street","city":"Montague","state":"mi","zip":"49437","x":"-86.3574","y":"43.4162","tags":""},{"type":"market","name":"Mount Clemens Farmers Market","website":"http://www.mountclemensfarmersmarket.com","facebook":"https://www.facebook.com/pages/Mount-Clemens-Farmers-Market/105767222777622","twitter":"","street":"141 N. River Rd","city":"Mount Clemens","state":"mi","zip":"48043","x":"-82.868009","y":"42.598421","tags":"organic baked goods crafts flowers eggs seafood herbs vegetables honey jams maple nuts plants prepared-foods soap trees coffee fruits mushrooms pet food wild"},{"type":"market","name":"Mount Clemens Farmers Market Downtown","website":"http://mountclemensfarmersmarket@gmail.com","facebook":"https://www.facebook.com/Mount-Clemens-Farmers-Market-105767222777622/","twitter":"","street":"125 Macomb Pl","city":"Mount Clemens ","state":"mi","zip":"48043","x":"-82.881506","y":"42.598055","tags":"organic baked goods crafts flowers eggs seafood herbs vegetables honey jams maple plants prepared-foods coffee fruits mushrooms wild"},{"type":"market","name":"Mt. Pleasant Farmers' Market - City Hall","website":"http://www.mt-pleasant.org/farmersmarket","facebook":"https://www.facebook.com/mpfarmersmarket","twitter":"","street":"Broadway and Main St.","city":"Mt. Pleasant","state":"mi","zip":"48858","x":"-84.776193","y":"43.604509","tags":"baked goods crafts flowers eggs herbs vegetables honey jams maple meat plants soap trees coffee fruits"},{"type":"market","name":"Mt. Pleasant Farmers' Market - Island Park","website":"http://www.mt-pleasant.org/farmersmarket","facebook":"https://www.facebook.com/mpfarmersmarket","twitter":"","street":"331 North Main Street ","city":"Mt. Pleasant","state":"mi","zip":"48858","x":"-84.780045","y":"43.607275","tags":"organic baked goods cheese crafts flowers eggs seafood herbs vegetables honey jams maple nuts plants poultry prepared-foods soap trees coffee beans fruits grains"},{"type":"market","name":"Munising Farmers' and Artisans' Market","website":"","facebook":"MunisingMarket","twitter":"","street":"Veteran's Drive","city":"Munising","state":"mi","zip":"49862","x":"-86.653401","y":"46.412557","tags":"baked goods crafts flowers eggs herbs vegetables honey jams maple plants prepared-foods soap wine beans fruits mushrooms wild"},{"type":"market","name":"Muskegon Farmers Market","website":"http://www.muskegonfarmersmarket.com/","facebook":"https://www.facebook.com/MuskegonFarmersMarket/","twitter":"","street":"242 West Western Ave.","city":"Muskegon ","state":"mi","zip":"49440","x":"-86.250109","y":"43.238369","tags":"organic baked goods cheese crafts flowers eggs seafood herbs vegetables honey jams maple meat nuts plants poultry prepared-foods soap trees wine coffee beans fruits grains juices mushrooms pet food"},{"type":"market","name":"New Baltimore Farmers Market","website":"http://www.newbaltimorefarmersmarket.com","facebook":"https://www.facebook.com/New-Baltimore-Farmers-Market-Fan-Page-298736159230/","twitter":"","street":"On Washington Street between Main & Front Streets in Historic Downtown","city":"New Baltimore","state":"mi","zip":"48047","x":"-82.737607","y":"42.68546","tags":"baked goods crafts flowers eggs herbs vegetables honey jams maple plants prepared-foods soap coffee fruits juices mushrooms pet food wild"},{"type":"market","name":"New Horizons Farmers Market","website":"","facebook":"","twitter":"","street":"2660 Breton Rd., S.E. Corner of Breton/Woodmeadow","city":"Grand Rapids","state":"mi","zip":"","x":"-85.606","y":"42.9161","tags":""},{"type":"market","name":"Newaygo Area Chamber of Commerce Farmers Market","website":"http://www.rivercountrychamber.com","facebook":"","twitter":"","street":"28 State Rd.","city":"Newaygo","state":"mi","zip":"49337","x":"-85.799049","y":"43.419762","tags":"baked goods crafts flowers herbs vegetables honey jams maple nuts plants soap trees beans fruits"},{"type":"market","name":"Newberry Farmers Market","website":"","facebook":"www.facebook.com/#!/pages/Newberry-Farmers-Market/216024391744237","twitter":"","street":"7964 M-123","city":"Newberry","state":"mi","zip":"49868","x":"-85.5092","y":"46.3464","tags":"baked goods crafts flowers eggs seafood herbs vegetables honey jams maple nursery plants"},{"type":"market","name":"Niles French Market","website":"http://www.NilesFrenchMarket.com","facebook":"","twitter":"","street":"corner of Front & Main Street","city":"Niles","state":"mi","zip":"49120","x":"-86.2588","y":"41.8302","tags":""},{"type":"market","name":"northeast michigan regional farm market","website":"http://www.getitfresh.org","facebook":"https://www.facebook.com/pages/Northeast-Michigan-Regional-Farm-Market/90400258607?ref=hl","twitter":"","street":"4440 US-23","city":"Oscoda","state":"mi","zip":"48750","x":"-83.324926","y":"44.404185","tags":"baked goods cheese flowers eggs herbs vegetables honey jams maple meat plants poultry prepared-foods soap trees wine coffee fruits mushrooms"},{"type":"market","name":"Northeast Michigan Regional Farm Market","website":"http://www.getitfresh.org","facebook":"https://www.facebook.com/Northeast-Michigan-Regional-Farm-Market-90400258607/","twitter":"","street":"815 W. Lake Street (US-23)","city":"Tawas City","state":"mi","zip":"48763","x":"-83.5262372","y":"44.2605697","tags":"organic baked goods cheese flowers eggs herbs vegetables honey jams maple meat plants poultry prepared-foods soap trees wine coffee fruits mushrooms wild"},{"type":"market","name":"Northport Farmers Market","website":"http://www.leelanaufarmersmarkets.com","facebook":"https://www.facebook.com/leelanaufarmersmarkets/","twitter":"","street":"105 S. Bay Street","city":"Northport","state":"mi","zip":"49670","x":"-85.614175","y":"45.129668","tags":"organic baked goods cheese crafts flowers eggs herbs vegetables honey jams maple meat plants prepared-foods soap trees wine fruits"},{"type":"market","name":"Northville Farmers Market","website":"http://www.northville.org/events/farmersmarket","facebook":"","twitter":"","street":"301 Center Street","city":"Northville","state":"mi","zip":"48167","x":"-83.483326","y":"42.426989","tags":"organic baked goods cheese crafts flowers eggs herbs vegetables honey jams maple meat nursery plants prepared-foods soap trees"},{"type":"market","name":"Northwest Detroit Farmers' Market","website":"","facebook":"https://www.facebook.com/nwdetroitfarmersmarket/","twitter":"","street":"18445 Scarsdale St.","city":"Detroit","state":"mi","zip":"48223","x":"-83.2236095","y":"42.4068148","tags":"baked goods eggs herbs jams maple meat poultry prepared-foods fruits juices pet food"},{"type":"market","name":"Oakland Avenue Farmers Market","website":"http://www.oafm.org","facebook":"https://www.facebook.com/OAFMDetroit","twitter":"","street":"9352 Oakland Avenue","city":"Detroit","state":"mi","zip":"48211","x":"-83.0773111","y":"42.3929684","tags":"herbs vegetables plants coffee fruits"},{"type":"market","name":"Oakland County Market","website":"http://www.destinationoakland.com/countymarket/Pages/Default.aspx","facebook":"https://www.facebook.com/pages/OakCountyMarket","twitter":"","street":"2350 Pontiac Lake Road","city":"Waterford","state":"mi","zip":"48328","x":"-83.3354771","y":"42.6536246","tags":"baked goods crafts flowers eggs herbs vegetables honey jams maple meat nuts plants prepared-foods soap trees fruits mushrooms"},{"type":"market","name":"Onaway Farmers Market","website":"","facebook":"","twitter":"","street":"M-68, Subway complex","city":"Onaway","state":"mi","zip":"49765","x":"-84.2239","y":"45.3575","tags":""},{"type":"market","name":"Open Air Market of Stockbridge","website":"","facebook":"https://www.facebook.com/OpenAirMarketofStockbridge","twitter":"","street":"125 South Clinton Street","city":"Stockbridge","state":"mi","zip":"49285","x":"-84.179327","y":"42.451051","tags":"baked goods crafts flowers eggs herbs vegetables honey jams maple nuts plants prepared-foods soap fruits"},{"type":"market","name":"Original Farmers Market","website":"","facebook":"","twitter":"","street":"1400 E. Main ST. Owosso East Mall","city":"Owosso ","state":"mi","zip":"48867","x":"-84.145676","y":"42.997860","tags":"baked goods crafts flowers eggs herbs vegetables honey jams maple nuts plants prepared-foods soap trees coffee fruits juices mushrooms wild"},{"type":"market","name":"Orion Farmers Market at Howarth Church on Silverbell","website":"","facebook":"","twitter":"","street":"550 E. Silverbell Rd","city":"o","state":"mi","zip":"","x":"-83.233860","y":"42.722766","tags":"organic baked goods crafts flowers eggs herbs vegetables honey jams maple meat plants prepared-foods soap trees fruits"},{"type":"market","name":"Osma Acres Farmers Market","website":"http://www.osmaacresfarm.com/","facebook":"","twitter":"","street":"53464 Osma Acres Road","city":"Houghton ","state":"mi","zip":"49931","x":"-88.6430842","y":"47.1920323","tags":"baked goods flowers eggs herbs vegetables jams plants fruits"},{"type":"market","name":"Otsego Farmers Market","website":"","facebook":"https://www.facebook.com/otsego.chamberofcommerce","twitter":"","street":"M-89 and Kalamazoo Street","city":"Otsego ","state":"mi","zip":"49078","x":"-85.6983134","y":"42.4608192","tags":"coffee beans fruits"},{"type":"market","name":"Owosso Artisan Market","website":"http://www.owossoartisanmarket.com","facebook":"","twitter":"","street":"Washington & Main","city":"Owosso","state":"mi","zip":"48867","x":"-84.171","y":"42.9973","tags":""},{"type":"market","name":"Owosso Farmers Market","website":"http://www.OwossoFarmersMarket.com","facebook":"","twitter":"","street":"191 N. Water St.","city":"Owosso","state":"mi","zip":"48867","x":"-84.1732","y":"42.9984","tags":""},{"type":"market","name":"Oxford Open Air Market","website":"http://www.oxfordopenairmarket.com","facebook":"https://www.facebook.com/oxfordopenairmarket","twitter":"","street":"15 N. Washington St.","city":"Oxford","state":"mi","zip":"48371","x":"-83.2656520","y":"42.8250810","tags":"baked goods crafts flowers eggs herbs vegetables honey jams maple plants prepared-foods soap fruits mushrooms wild"},{"type":"market","name":"Park Township Farmers Market","website":"http://www.parktownship.org/2012/05/16/farmers-market/","facebook":"","twitter":"","street":"1286 Ottawa Beach Road","city":"Holland","state":"mi","zip":"49424","x":"-86.162703","y":"42.793306","tags":"baked goods cheese flowers eggs herbs vegetables honey jams nursery plants prepared-foods soap trees"},{"type":"market","name":"Pellston Farmers Market","website":"","facebook":"https://www.facebook.com/PellstonFarmersMarket","twitter":"","street":"US 31 and Main Street","city":"Pellston","state":"mi","zip":"49721","x":"-84.783936","y":"45.552789","tags":""},{"type":"market","name":"Pentwater Famers Market","website":"http://www.pentwater.org","facebook":"","twitter":"","street":"321 S. Hancock St.","city":"Pentwater","state":"mi","zip":"49449","x":"-86.433138","y":"43.779433","tags":"baked goods flowers eggs herbs honey jams maple plants soap fruits mushrooms wild"},{"type":"market","name":"Perry Dream Park Farmers Market","website":"http://perrydreampark.weebly.com/farmers-market-2014.html","facebook":"https://www.facebook.com/PerryDreamPark?ref=hl","twitter":"","street":"Corner of East 2nd Street and M52","city":"Perry","state":"mi","zip":"48872","x":"-84.219066","y":"42.825143","tags":"baked goods cheese crafts eggs herbs vegetables honey maple soap fruits"},{"type":"market","name":"Pickford Farmers Market","website":"","facebook":"www.facebook.com/pages/Pickford-Farmers-Market/99938990946","twitter":"","street":"Manilla Street, Township Park","city":"Pickford","state":"mi","zip":"49774","x":"-84.355447","y":"46.161138","tags":"baked goods crafts flowers eggs herbs vegetables honey maple plants poultry prepared-foods soap fruits"},{"type":"market","name":"Pinckney Market in the Park","website":"","facebook":"","twitter":"","street":"In the park on Main Street","city":"Pinckney","state":"mi","zip":"48169","x":"-83.9452","y":"42.4569","tags":""},{"type":"market","name":"Pittsfield Township Farmers Market","website":"http://www.pittsfield-mi.gov/Index.aspx?NID=760","facebook":"https://www.facebook.com/pittsfieldtwpfarmersmarket/","twitter":"https://twitter.com/PittsfieldTwp","street":"6201 W. Michigan Ave.","city":"Ann Arbor","state":"mi","zip":"48108","x":"-83.700595","y":"42.198027","tags":"baked goods cheese crafts flowers eggs herbs vegetables honey jams maple meat nuts plants poultry prepared-foods soap coffee fruits mushrooms pet food"},{"type":"market","name":"Plainfield Township Farmers Market Hale","website":"","facebook":"","twitter":"","street":"220 West Washington","city":"Hale","state":"mi","zip":"48739","x":"-83.798423","y":"44.382435","tags":"baked goods crafts flowers eggs vegetables honey jams maple plants fruits"},{"type":"market","name":"Plainwell Farmers Market","website":"http://plainwell.org","facebook":"Plainwell Farmers Market Official","twitter":"@PlainwellMarket","street":"798 E. Bridge St. ","city":"Plainwell ","state":"mi","zip":"49080","x":"-85.6305327","y":"42.4426520","tags":"organic baked goods crafts flowers eggs herbs vegetables honey jams maple poultry prepared-foods soap fruits"},{"type":"market","name":"Plainwell Indoor Market ","website":"http://plainwell.org ","facebook":"Plainwell Farmers Market Official","twitter":"","street":"211 N. Main St. ","city":"Plainwell","state":"mi","zip":"49080","x":"-85.650721","y":"42.452003","tags":"baked goods cheese crafts eggs honey jams maple poultry prepared-foods soap wine"},{"type":"market","name":"Plymouth County Farmers Market","website":"http://www.plymouthmi.org","facebook":"","twitter":"","street":"In \"The Gathering\" across from Kellogg Park","city":"Plymouth","state":"mi","zip":"48170","x":"-83.4709","y":"42.3684","tags":""},{"type":"market","name":"Port Austin Farmers Market","website":"http://www.portaustinfarmersmarket.com","facebook":"https://www.facebook.com/pages/Port-Austin-Farmers-Market/507659849354744","twitter":"https://twitter.com/portaustin","street":"West State Street and Line Street","city":"Port Austin","state":"mi","zip":"48467","x":"-82.9948317","y":"44.0448580","tags":"organic baked goods cheese crafts flowers eggs seafood herbs vegetables honey jams maple meat nuts plants poultry prepared-foods soap trees wine fruits"},{"type":"market","name":"Port Sanilac Farmers' Market","website":"","facebook":"https://m.facebook.com/portsanilacfarmersmarket","twitter":"","street":"228 S Ridge Street","city":"Port Sanilac","state":"mi","zip":"48469","x":"-82.543109","y":"43.424322","tags":"organic baked goods crafts eggs herbs vegetables honey jams maple plants poultry soap fruits"},{"type":"market","name":"Portage Market","website":"http://pfcmarkets.com/all-markets/portage-market/","facebook":"https://www.facebook.com/PortageMIFarmersMarket/","twitter":"","street":"320 Library Ln","city":"Portage","state":"mi","zip":"49002","x":"-85.586645","y":"42.203083","tags":"baked goods cheese crafts flowers eggs herbs vegetables honey jams maple meat nuts plants poultry prepared-foods soap wine coffee beans fruits grains juices mushrooms pet food tofu wild"},{"type":"market","name":"Porter School Farmers' Market","website":"http://www.porterschoolmarketplace.com","facebook":"","twitter":"","street":"303 E. Center Street","city":"Alpha","state":"mi","zip":"49902","x":"-88.377348","y":"46.046790","tags":"baked goods crafts flowers eggs herbs vegetables jams plants poultry soap fruits"},{"type":"market","name":"Portland Farmers Market","website":"","facebook":"","twitter":"","street":"At the Old Red Mill on Water Street","city":"Portland","state":"mi","zip":"48875","x":"-84.9036","y":"42.8745","tags":""},{"type":"market","name":"Powers Spalding Farmers Market","website":"http://psfarmersmarket.com/","facebook":"https://www.facebook.com/PowersSpaldingFarmersMarket/","twitter":"","street":"N16087 Main St.","city":"Powers","state":"mi","zip":"49874","x":"-87.5181730","y":"45.6947520","tags":"organic baked goods crafts eggs herbs vegetables honey jams maple meat poultry fruits"},{"type":"market","name":"Redford Township Market at the Marquee","website":"http://www.redfordtwp.com","facebook":"","twitter":"","street":"15145 Beech Daly Road","city":"Redford","state":"mi","zip":"48239","x":"-83.297825","y":"42.398251","tags":"baked goods flowers herbs vegetables"},{"type":"market","name":"Richland Farmers' Market","website":"http://www.richlandfarmersmarket.weebly.com","facebook":"https://www.facebook.com/groups/330724707721/","twitter":"","street":"9550 East M-89","city":"Richland","state":"mi","zip":"49083","x":"-85.444267","y":"42.375539","tags":"baked goods cheese crafts flowers eggs herbs vegetables honey jams maple meat plants poultry prepared-foods soap trees coffee fruits"},{"type":"market","name":"Rockford Farm Market","website":"","facebook":"","twitter":"","street":"59 S. Main St ","city":"Rockford ","state":"mi","zip":"","x":"-85.560550","y":"43.118401","tags":"organic baked goods cheese flowers eggs seafood herbs vegetables honey jams meat plants wine coffee fruits"},{"type":"market","name":"Rogers City Farmers Market","website":"","facebook":"","twitter":"","street":"next to board harbor","city":"Rogers City","state":"mi","zip":"49779","x":"-83.816","y":"45.4229","tags":""},{"type":"market","name":"Romulus Farmers Market","website":"http://www.romulusfarmersmarket.com","facebook":"https://www.facebook.com/RomulusFarmersMarket","twitter":"","street":"11147 Hunt","city":"Romulus","state":"mi","zip":"48174","x":"-83.393887","y":"42.222588","tags":"baked goods crafts flowers eggs herbs vegetables jams plants prepared-foods"},{"type":"market","name":"Roscommon Village Market","website":"","facebook":"https://www.facebook.com/RoscommonVillageMarket","twitter":"","street":"AuSable River Center, 211 South Main","city":"Roscommon","state":"mi","zip":"48653","x":"-84.592886","y":"44.499952","tags":""},{"type":"market","name":"Rose city farmers market","website":"","facebook":"","twitter":"","street":"City hall","city":"Rose city","state":"mi","zip":"","x":"-84.1162","y":"44.4244","tags":""},{"type":"market","name":"Royal Oak Farmers Market","website":"http://www.ci.royal-oak.mi.us/farmersmkt","facebook":"https://www.facebook.com/pages/Royal-Oak-Farmers-Market/61634046945","twitter":"","street":"316 East 11 Mile Road","city":"Royal Oak","state":"mi","zip":"48067","x":"-83.141151","y":"42.489743","tags":"organic baked goods cheese crafts flowers eggs seafood herbs vegetables honey jams maple meat nuts plants poultry prepared-foods soap trees wine coffee beans fruits grains juices mushrooms pet food tofu wild"},{"type":"market","name":"Royal Town Farmer's Market","website":"http://www.royaltownmarket.org","facebook":"https://www.facebook.com/pages/Royal-Town-Farmers-Market/182392751827673","twitter":"","street":"20955 Wyoming","city":"Ferndale","state":"mi","zip":"48220","x":"-83.162105","y":"42.447940","tags":"baked goods vegetables fruits"},{"type":"market","name":"Saline Farmers Market","website":"http://www.cityofsaline.org/farmersmarket","facebook":"https://www.facebook.com/pages/Saline-Farmers-Market/199592293395735","twitter":"","street":"S. Ann Arbor Street","city":"Saline","state":"mi","zip":"48176","x":"-83.782090","y":"42.165686","tags":"baked goods cheese crafts flowers eggs herbs vegetables honey jams maple meat plants poultry soap trees coffee fruits"},{"type":"market","name":"Saline Farmers Market","website":"http://www.cityofsaline.org/farmersmarket","facebook":"https://www.facebook.com/pages/Saline-Farmers-Market/199592293395735","twitter":"","street":"7265 Saline Ann Arbor Road","city":"Saline","state":"mi","zip":"48176","x":"-83.782090","y":"42.165686","tags":"baked goods cheese crafts flowers eggs herbs vegetables honey jams maple meat nuts plants poultry prepared-foods soap coffee fruits"},{"type":"market","name":"Saline Farmers Market","website":"http://www.cityofsaline.org/farmersmarket","facebook":"https://www.facebook.com/pages/Saline-Farmers-Market/199592293395735","twitter":"","street":"555 N Maple Road","city":"Saline","state":"mi","zip":"48176","x":"-83.774869","y":"42.178003","tags":"baked goods cheese crafts flowers eggs herbs vegetables honey jams maple plants soap fruits"},{"type":"market","name":"Sanford Farmers Market","website":"","facebook":"","twitter":"","street":"Long Branch Saloon parking lot","city":"Sanford","state":"mi","zip":"48657","x":"-84.3706","y":"43.6796","tags":""},{"type":"market","name":"Sara Hardy Downtown Farmers Market","website":"http://www.downtowntc.com","facebook":"https://www.facebook.com/SaraHardyFarmersMarket","twitter":"https://twitter.com/downtowntc","street":"152 East Grandview Parkway","city":"Traverse City","state":"mi","zip":"49684","x":"-85.621764","y":"44.765173","tags":"organic baked goods cheese flowers eggs seafood herbs vegetables honey jams maple meat nuts plants poultry prepared-foods soap trees coffee fruits grains juices mushrooms pet food wild"},{"type":"market","name":"Saugatuck Center for the Arts Farmers and Artisans Market","website":"http://sc4a.org","facebook":"","twitter":"","street":"400 CULVER STREET","city":"Saugatuck ","state":"mi","zip":"49453","x":"-86.2014418","y":"42.6548323","tags":"baked goods cheese crafts flowers herbs vegetables honey jams maple soap trees coffee fruits"},{"type":"market","name":"Sawyer Farmers Market","website":"","facebook":"","twitter":"","street":"","city":"Sawyer","state":"mi","zip":"49125","x":"-87.3681","y":"46.3329","tags":""},{"type":"market","name":"Schoolcraft Farmers Market","website":"http://www.schoolcraftumc.org","facebook":"","twitter":"","street":"342 N. Grand","city":"Schoolcraft","state":"mi","zip":"49087","x":"-85.6371431","y":"42.1167863","tags":"vegetables honey jams meat poultry coffee fruits"},{"type":"market","name":"Scottville Farmers Market at Miller's Marketplace","website":"http://www.millersmarketplace.com","facebook":"www.facebook.com/mrsmillersmarketplace","twitter":"","street":"202 North Main Street","city":"Scottville","state":"mi","zip":"49454","x":"-86.2794785","y":"43.9560271","tags":"baked goods crafts flowers eggs vegetables honey maple soap fruits grains mushrooms"},{"type":"market","name":"Shelby Twp Farmers Market","website":"http://www.ShelbyFarmersMarket.com","facebook":"http://www.Facebook.com/ShelbyFarmersMarket","twitter":"","street":"49965 Van Dyke Ave","city":"Shelby Twp","state":"mi","zip":"48317","x":"-83.035823","y":"42.661812","tags":"organic baked goods cheese crafts flowers eggs herbs vegetables honey jams maple meat nuts plants poultry prepared-foods soap trees coffee beans fruits grains juices mushrooms pet food"},{"type":"market","name":"Shelton's Farm Market & Garden Center","website":"http://sheltonfarms.com/","facebook":"https://www.facebook.com/SheltonFarms","twitter":"","street":"1832 S. 11th St","city":"Niles","state":"mi","zip":"49120","x":"-86.248443","y":"41.798574","tags":"organic baked goods cheese eggs seafood herbs vegetables honey jams maple meat nuts plants poultry prepared-foods soap trees fruits"},{"type":"market","name":"Sheridan Farmers Market","website":"","facebook":"","twitter":"","street":"115 E. Evergreen St. ","city":"Sheridan","state":"mi","zip":"48884","x":"-85.073542","y":"43.212605","tags":"baked goods flowers vegetables honey jams maple plants fruits"},{"type":"market","name":"Solon  Market","website":"","facebook":"https://www.facebook.com/pages/Solon-Market/112305385471360?ref=br_tf","twitter":"","street":"15185 Algoma Road (at Wiersma Rd.)","city":"Cedar Springs","state":"mi","zip":"49319","x":"-85.611628","y":"43.240603","tags":"baked goods crafts flowers eggs herbs vegetables honey jams maple nuts plants poultry prepared-foods soap trees coffee beans fruits mushrooms wild"},{"type":"market","name":"South East Area Farmers' Market","website":"http://www.oktjustice.org/farmers-market/","facebook":"https://www.facebook.com/seafmfarmermarket","twitter":"","street":"851 Madison, SE  ","city":"Grand Rapids","state":"mi","zip":"49507","x":"-85.6591793","y":"42.9471993","tags":"crafts herbs vegetables honey plants fruits"},{"type":"market","name":"South East Area Farmers' Market","website":"https://oktjustice.org/resources/","facebook":"https://www.facebook.com/seafmfarmermarket/","twitter":"","street":"900 Fuller Ave SE","city":"Grand Rapids","state":"mi","zip":"49506","x":"-85.6394126","y":"42.9464659","tags":"baked goods crafts herbs vegetables honey jams maple nuts prepared-foods soap beans fruits grains juices wild"},{"type":"market","name":"South Haven Farm Market","website":"http://Southhavenfarmmarket.com","facebook":"","twitter":"","street":"539 Phoenix Street","city":"South Haven","state":"mi","zip":"49090","x":"-86.2722896","y":"42.4036392","tags":"organic baked goods cheese crafts flowers eggs herbs vegetables honey jams maple meat plants poultry prepared-foods soap trees coffee beans fruits juices mushrooms pet food wild"},{"type":"market","name":"South Lansing Farmers Market","website":"http://southlansing.org","facebook":"South Lansing Farmers Market","twitter":"","street":"800 west Barnes Avenue","city":"Lansing","state":"mi","zip":"48910","x":"-84.5630870","y":"42.7148921","tags":"organic baked goods crafts flowers eggs herbs vegetables honey jams meat poultry prepared-foods soap coffee fruits juices"},{"type":"market","name":"South Lyon Farmers and Artisans Market","website":"http://www.southlyonfarmersmarket.org","facebook":"South Lyon Farmers and Artisans Market ","twitter":"","street":"110 W. Liberty","city":"South Lyon ","state":"mi","zip":"48178","x":"-83.653169","y":"42.461015","tags":"baked goods cheese crafts flowers eggs herbs vegetables honey jams meat plants poultry prepared-foods soap coffee fruits"},{"type":"market","name":"Sowing Seeds Growing Futures Farmers Market","website":"https://www.joysouthfield.org/","facebook":"","twitter":"","street":"18917 Joy Road","city":"Detroit","state":"mi","zip":"48228","x":"-83.130895","y":"42.362216","tags":"baked goods crafts flowers vegetables honey jams prepared-foods fruits"},{"type":"market","name":"Spectrum Health Medical Center Farmer's Market","website":"http://www.spectrumhealth.org/farmers-market-4322","facebook":"","twitter":"","street":"100 Michigan Street NE","city":"Grand Rapids ","state":"mi","zip":"49503","x":"-85.666489","y":"42.968813","tags":""},{"type":"market","name":"Spring Lake Farm & Garden Market","website":"http://grandhavenchamber.org/farmers-markets/","facebook":"https://www.facebook.com/GHSL.FarmersMarkets","twitter":"","street":"225 E. Exchange ","city":"Spring Lake","state":"mi","zip":"49456","x":"-86.194304","y":"43.076031","tags":"baked goods cheese flowers eggs herbs vegetables honey jams maple plants prepared-foods fruits"},{"type":"market","name":"Springfield Farmers Market","website":"http://www.springfieldmich.com","facebook":"https://www.facebook.com/pages/Springfield-Farmers-Market/321933009554?fref=ts","twitter":"https://twitter.com/SpringfieldFM","street":"503 Military Avenue","city":"Springfield","state":"mi","zip":"49037","x":"-85.26684","y":"42.32493","tags":"baked goods cheese crafts flowers eggs herbs vegetables honey jams maple meat nuts plants poultry prepared-foods fruits"},{"type":"market","name":"Springfield Farmers' Market","website":"http://www.springfieldfarmersmarket.wordpress.com ","facebook":"www.facebook.com/springfieldfarmsmarket","twitter":"","street":"1200 Davisburg Road ","city":"Davisburg","state":"mi","zip":"48350","x":"-83.552387","y":"42.751582","tags":"baked goods crafts eggs herbs vegetables honey jams maple meat plants poultry prepared-foods trees coffee fruits juices pet food"},{"type":"market","name":"Springfield Recreation Area Farmers Market","website":"","facebook":"","twitter":"","street":"3983 Lund Road","city":"Fife Lake","state":"mi","zip":"49633","x":"-85.2538","y":"44.5409","tags":""},{"type":"market","name":"Sprout's Fresh on Wheels Veggie Van","website":"http://www. sprouturbanfarms.org","facebook":"Sprout BC","twitter":"@SproutUrbanFarm","street":"Various mobile locations on website","city":"Battle Creek ","state":"mi","zip":"49016","x":"-85.196537","y":"42.334065","tags":"baked goods eggs herbs vegetables honey jams fruits juices wild"},{"type":"market","name":"St. Charles Farmers' Marketplace","website":"http://stcmi.com","facebook":"stcmarketplace","twitter":"","street":"110 W. Spruce","city":"St. Charles","state":"mi","zip":"48655","x":"-84.147648","y":"43.298335","tags":"baked goods crafts flowers eggs herbs vegetables honey jams maple nuts plants prepared-foods soap fruits"},{"type":"market","name":"St. Clair Shores Farmers Market","website":"http://www.scsfarmersmarket.com","facebook":"https://www.facebook.com/pg/scsfarmersmarket/about/?ref=page_internal","twitter":"","street":"24800 Jefferson Avenue","city":"St. Clair Shores","state":"mi","zip":"48081","x":"-82.890901","y":"42.493043","tags":"baked goods cheese crafts flowers eggs seafood vegetables honey jams maple meat nuts plants poultry prepared-foods soap trees coffee beans fruits grains juices mushrooms pet food wild"},{"type":"market","name":"St. Johns Farmers Market","website":"","facebook":"","twitter":"","street":"Maple Street","city":"St. Johns","state":"mi","zip":"48879","x":"-84.5591","y":"43.0014","tags":""},{"type":"market","name":"St. Joseph Farmers Market","website":"http://www.sjtoday.com","facebook":"","twitter":"","street":"Corner of Broad Street & Lake Blvd.","city":"St. Joseph","state":"mi","zip":"49085","x":"-86.4835","y":"42.1092","tags":""},{"type":"market","name":"St. Louis Farmers Market","website":"https://www.gratiotfarmersmarkets.com/","facebook":"https://www.facebook.com/stlouisfm/","twitter":"https://www.twitter.com/stlouisfm","street":"300 North. Mill Street","city":"St. Louis","state":"mi","zip":"48880","x":"-84.608215","y":"43.411116","tags":"organic baked goods crafts flowers eggs herbs vegetables honey jams maple meat plants poultry prepared-foods soap coffee beans fruits"},{"type":"market","name":"Stephenson Farmers' Market","website":"","facebook":"","twitter":"","street":" MSU Extension Bldg. parking lot","city":"Stephenson","state":"mi","zip":"49887","x":"-87.6195","y":"45.4208","tags":""},{"type":"market","name":"Superior Farm Market","website":"http://www.msue.msu.edu/ontonagon","facebook":"","twitter":"","street":"900 River Street","city":"Ontonagon","state":"mi","zip":"49953","x":"-89.32159","y":"46.87435","tags":"flowers eggs vegetables jams plants fruits"},{"type":"market","name":"Suttons Bay Farmers Market","website":"http://www.leelanaufarmersmarkets.com","facebook":"https://www.facebook.com/leelanaufarmersmarkets/","twitter":"","street":"Intersection of M22 & M204","city":"Suttons Bay","state":"mi","zip":"49682","x":"-85.647075","y":"44.980186","tags":"baked goods cheese crafts flowers eggs herbs vegetables honey jams maple meat plants prepared-foods soap trees wine fruits"},{"type":"market","name":"Sweetwater Local Foods Market","website":"http://sweetwaterlocalfoodsmarket.wordpress.com/","facebook":"https://www.facebook.com/pages/Sweetwater-Local-Foods-Market/111077177535?ref=ts","twitter":"","street":"6401 Harvey St.","city":"Muskegon","state":"mi","zip":"49444","x":"-86.2060290","y":"43.1358971","tags":"organic baked goods cheese crafts flowers eggs herbs vegetables honey jams maple meat plants poultry soap coffee beans fruits mushrooms wild"},{"type":"market","name":"Tecumseh Farmers Market","website":"http://www.downstowntecumseh.com","facebook":"https://www.facebook.com/TecumsehFarmersMarket","twitter":"","street":"W Chicago Blvd. west of Evans St","city":"Tecumseh ","state":"mi","zip":"49286","x":"-83.945712","y":"42.003872","tags":"organic baked goods cheese flowers eggs vegetables honey jams plants soap fruits"},{"type":"market","name":"Tecumseh's Thursday Evening Market","website":"","facebook":"","twitter":"","street":"Corner of Evans St. & Chicago Blvd","city":"Tecumseh","state":"mi","zip":"49286","x":"-83.9451","y":"42.004","tags":""},{"type":"market","name":"Terra Square Farmers Market","website":"","facebook":"","twitter":"","street":"3380 Chicago Dr.","city":"Hudsonville","state":"mi","zip":"49426","x":"-85.8654557","y":"42.8677383","tags":"baked goods crafts flowers eggs seafood vegetables honey meat poultry prepared-foods soap trees wine coffee fruits"},{"type":"market","name":"Texas Township Farmers' Market","website":"http://www.texastownship.org/farmers-market/","facebook":"https://www.facebook.com/TexasTownshipFarmersMarket/","twitter":"https://twitter.com/freshonQ","street":"7110 West Q Ave","city":"Kalamazoo","state":"mi","zip":"49009","x":"-85.687996","y":"42.201444","tags":"organic baked goods cheese crafts flowers eggs seafood herbs vegetables honey jams maple meat nuts plants poultry prepared-foods soap trees wine coffee beans fruits grains juices pet food"},{"type":"market","name":"The ARA Farm Market","website":"","facebook":"","twitter":"","street":"854 N Barlow Rd","city":"Lincoln","state":"mi","zip":"48742","x":"-83.403188","y":"44.680782","tags":"baked goods crafts flowers eggs herbs vegetables honey maple meat plants soap beans fruits mushrooms"},{"type":"market","name":"The Bushel Basket Market: The Farmers Market at Chelsea Community Hospital","website":"http://www.chelseafarmersmkt.org/bushel-basket/","facebook":"https://www.facebook.com/pages/The-Bushel-Basket-Market-The-Farmers-Market-at-Chelsea-Community-Hospital/536225753067953?ref=hl","twitter":"","street":"222 S. Main St, Chelsea, MI 48118 (Palmer Lot)","city":"Chelsea","state":"mi","zip":"48118","x":"-84.0207920","y":"42.3165147","tags":"baked goods cheese crafts flowers eggs herbs vegetables honey jams maple meat nuts plants poultry soap trees fruits tofu"},{"type":"market","name":"The City of Gladstone Farmers Market & Street Fair","website":"http://www.gladstonemi.org/streetfair","facebook":"https://www.facebook.com/gladstonespecialevents?ref=hl","twitter":"","street":"911 Delta Avenue","city":"Gladstone","state":"mi","zip":"49837","x":"-87.0208306","y":"45.8475073","tags":"organic baked goods cheese crafts seafood herbs vegetables honey jams maple meat plants soap coffee fruits wild"},{"type":"market","name":"The Green Market at Allegiance Health","website":"http://www.localharvest.org/","facebook":"","twitter":"","street":"1201 East Michigan Avenue","city":"Jackson","state":"mi","zip":"49201","x":"-84.38926","y":"42.24996","tags":"baked goods cheese crafts flowers eggs herbs vegetables honey jams maple meat plants poultry prepared-foods soap"},{"type":"market","name":"The Novi All Seasons Market - Saturday South","website":"","facebook":"https://www.facebook.com/NoviFarmersMarket","twitter":"","street":"45175 Ten Mile Road","city":"Novi ","state":"mi","zip":"48375","x":"-83.487333","y":"42.465857","tags":"baked goods cheese crafts flowers eggs herbs vegetables honey jams maple plants poultry soap trees coffee fruits mushrooms"},{"type":"market","name":"The Novi All Seasons Market - Wednesday North","website":"","facebook":"https://www.facebook.com/NoviFarmersMarket","twitter":"","street":"28115 Meadowbrook Road","city":"Novi","state":"mi","zip":"48377","x":"-83.457597","y":"42.498883","tags":"baked goods cheese flowers eggs herbs vegetables honey jams maple plants soap fruits"},{"type":"market","name":"The Old Winery Farmers Market ","website":"http://www.theoldwinerymarket.com/","facebook":"https://www.facebook.com/oldwinerymarket","twitter":"","street":"31505 Grand River at Orchard Lk Rd. ","city":"Farmington","state":"mi","zip":"48336","x":"-83.3573","y":"42.4561","tags":""},{"type":"market","name":"The Village Farmers Market","website":"","facebook":"","twitter":"","street":"Cottageview Drive","city":"Traverse City","state":"mi","zip":"49684","x":"-85.6448","y":"44.758","tags":"organic baked goods cheese flowers eggs seafood herbs vegetables honey jams maple meat nuts plants poultry prepared-foods soap coffee fruits grains juices mushrooms pet food wild"},{"type":"market","name":"Three Oaks Farmers Market","website":"http://www.3oaksfarmersmarket.com","facebook":"","twitter":"","street":"15 S Central","city":"Three Oaks","state":"mi","zip":"49128","x":"-86.614993","y":"41.800475","tags":"baked goods flowers eggs vegetables jams plants prepared-foods soap fruits"},{"type":"market","name":"Three Rivers Farmers Market","website":"http://www.threeriversmi.org","facebook":"","twitter":"","street":"West Michigan Avenue and Spring Street","city":"Three Rivers","state":"mi","zip":"49093","x":"-85.6358056","y":"41.9427664","tags":"eggs herbs vegetables fruits"},{"type":"market","name":"Traverse Bay Farms Farmers Market","website":"http://www.traversebayfarms.com","facebook":"https://www.facebook.com/TraverseBayFarms","twitter":"","street":"7053 M-88 South","city":"Bellaire","state":"mi","zip":"49615","x":"-85.1923350","y":"44.9316330","tags":"honey jams maple fruits"},{"type":"market","name":"Urban Roots Daily Market","website":"http://www.urbanrootsgr.org","facebook":"","twitter":"","street":"1316 Madison Ave. SE","city":"Grand Rapids ","state":"mi","zip":"49507","x":"-85.658736","y":"42.938747","tags":"cheese flowers eggs herbs vegetables honey fruits"},{"type":"market","name":"Vantage Point Farmers Market","website":"http://www.porthuronmarket.com/Main/Home.aspx","facebook":"http://www.facebook.com/pages/Vantage-Point-Farmers-Market/147816461982?ref=hl","twitter":"","street":"51 Water Street","city":"Port Huron","state":"mi","zip":"48060","x":"-82.419763","y":"42.971745","tags":"baked goods crafts flowers eggs herbs vegetables honey jams maple meat plants poultry prepared-foods soap trees wine beans fruits juices mushrooms pet food"},{"type":"market","name":"Vassar Farmers Market","website":"http://www.vassarfarmersmarket.yolasite.com/","facebook":"","twitter":"","street":"205 S. Cass Ave.","city":"Vassar","state":"mi","zip":"48768","x":"-83.5804","y":"43.3726","tags":""},{"type":"market","name":"Vernon Farmers Market","website":"http://www.villageofvernon.org","facebook":"","twitter":"","street":"On Church Street","city":"Vernon","state":"mi","zip":"48476","x":"-84.0308","y":"42.9412","tags":""},{"type":"market","name":"Vicksburg Farmers' Market","website":"","facebook":"Vicksburg Farmers' Market","twitter":"","street":"300 N. Richardson ","city":"Vicksburg","state":"mi","zip":"49097","x":"-85.528345","y":"42.126553","tags":"meat poultry prepared-foods soap wine"},{"type":"market","name":"Village of Constantine Farmers' Market","website":"","facebook":"Constantine Farmers' Market","twitter":"","street":"165 N Washington St","city":"Constantine","state":"mi","zip":"49042","x":"-85.670007","y":"41.843957","tags":"baked goods cheese crafts flowers eggs vegetables honey jams maple plants fruits"},{"type":"market","name":"Village of LeRoy Farmers Market","website":"","facebook":"","twitter":"","street":"Village Park","city":"LeRoy","state":"mi","zip":"49655","x":"-85.4976","y":"44.0764","tags":""},{"type":"market","name":"Village of Otter Lake","website":"http://www.villageofotterlake.com","facebook":"","twitter":"","street":"Intersection of Detroit and Genessee Streets","city":"Otter Lake","state":"mi","zip":"48464","x":"-83.4582","y":"43.2138","tags":""},{"type":"market","name":"Wacousta Community Farmers Market ","website":"http://www.wacoustaumc.org/FARMERSMARKET","facebook":"","twitter":"","street":"9180 Herbison Rd","city":"Eagle","state":"mi","zip":"48822","x":"-84.704","y":"42.8284","tags":""},{"type":"market","name":"Wayland Farmers Market on Main Street ","website":"","facebook":"https://www.facebook.com/groups/marketonmainstreet/","twitter":"","street":"149 South Main Street","city":"Wayland","state":"mi","zip":"49348","x":"-85.642864","y":"42.672620","tags":"baked goods crafts eggs herbs vegetables honey jams maple plants soap fruits"},{"type":"market","name":"Wayne Farmers Market","website":"","facebook":"https://www.facebook.com/waynefarmersmarket","twitter":"","street":"3355 S. Wayne Rd","city":"Wayne","state":"mi","zip":"48184","x":"-83.382219","y":"42.284294","tags":"baked goods cheese crafts flowers eggs herbs vegetables honey jams maple plants prepared-foods soap fruits"},{"type":"market","name":"Wayne State University Farmers Market","website":"http://coe.wayne.edu/centerforhealthandcommunityimpact/farmersmarket.php","facebook":"https://facebook.com/WSUFarmersMarket/","twitter":"@wsufarmersmkt","street":"Warren and Woodward Ave","city":"Detroit ","state":"mi","zip":"48202","x":"-83.064645","y":"42.356528","tags":"baked goods flowers herbs vegetables honey jams plants prepared-foods coffee fruits juices"},{"type":"market","name":"West Bloomfield Farmers Market","website":"","facebook":"","twitter":"","street":"","city":"West Bloomfield","state":"mi","zip":"48323","x":"-83.3736","y":"42.5572","tags":""},{"type":"market","name":"West Branch Farmers Market","website":"http://www.westbranch.com","facebook":"","twitter":"","street":"S 3rd Street - Downtown at the light","city":"West Branch","state":"mi","zip":"48661","x":"-84.2385","y":"44.276","tags":"baked goods crafts flowers eggs herbs vegetables honey jams maple plants soap fruits"},{"type":"market","name":"West Park Farmers Market","website":"http://www.grosspointpark.org","facebook":"","twitter":"","street":"Kercheval","city":"Grosse Point Park","state":"mi","zip":"48230","x":"-82.942236","y":"42.380937","tags":"organic baked goods cheese crafts flowers eggs seafood herbs honey jams poultry prepared-foods soap coffee fruits"},{"type":"market","name":"Westland Farmers Market","website":"http://www.westlandfarmersmarket.com","facebook":"https://www.facebook.com/westlandfarmersmarket","twitter":"","street":"36601 Ford Rd ","city":"Westland ","state":"mi","zip":"48185","x":"-83.402194","y":"42.323637","tags":"baked goods crafts herbs vegetables honey jams plants prepared-foods soap fruits"},{"type":"market","name":"Westside Farmers Market","website":"","facebook":"","twitter":"","street":"2501 Jackson Ave.","city":"Westgate","state":"mi","zip":"48103","x":"-83.7816","y":"42.2808","tags":""},{"type":"market","name":"Westside Farmers Market","website":"http://www.nwlansing.org","facebook":"https://www.facebook.com/nwlansing","twitter":"https://twitter.com/NWIlansing","street":"510 W. Ottawa St.","city":"Lansing","state":"mi","zip":"48933","x":"-84.559858","y":"42.734770","tags":"baked goods eggs herbs vegetables honey jams maple beans fruits"},{"type":"market","name":"Westward Market","website":"http://www.farming.com","facebook":"","twitter":"","street":"18138 Lane ave.","city":"North Muskegon","state":"mi","zip":"49445","x":"-86.1037","y":"43.2475","tags":""},{"type":"market","name":"Whitmore Lake Farm & Artisan Market","website":"","facebook":"","twitter":"","street":"75 Barker Road","city":"Whitmore Lake","state":"mi","zip":"48189","x":"-83.7638","y":"42.4231","tags":""},{"type":"market","name":"Williamston Farmers' Market","website":"http://new.williamston-mi.us/OurCommunity/FarmersMarket.aspx","facebook":"https://www.facebook.com/WilliamstonFarmersMarket/","twitter":"","street":"228 N. Putnam Street","city":"Williamston","state":"mi","zip":"48895","x":"-84.283149","y":"42.690102","tags":"organic baked goods cheese crafts flowers eggs vegetables honey jams meat plants prepared-foods soap trees fruits pet food"},{"type":"market","name":"Windmill Farmers Market","website":"http://www.windmill-market.comwww.windmill-market.org","facebook":"","twitter":"","street":"Livernois  between Lodge Freeway and Fenkell","city":"Detroit","state":"mi","zip":"48235","x":"-83.141","y":"42.4041","tags":"organic baked goods herbs honey plants prepared-foods"},{"type":"market","name":"Wixom Farmers Market","website":"http://www.wixomparksandrec.com","facebook":"","twitter":"","street":"48900 Pontiac Trail","city":"Wixom","state":"mi","zip":"48393","x":"-83.5321","y":"42.5246","tags":"baked goods crafts flowers herbs vegetables honey jams maple plants prepared-foods soap"},{"type":"market","name":"Wyandotte Farmers Market","website":"http://wyandottefarmersmarket.com","facebook":"wyandotte farmers market","twitter":"","street":"corner of First Street and Elm Street","city":"Wyandotte ","state":"mi","zip":"48192","x":"-83.1500042","y":"42.2031602","tags":"baked goods cheese flowers eggs herbs vegetables honey jams maple meat poultry prepared-foods trees coffee fruits juices"},{"type":"market","name":"YMCA Farmers Market","website":"http://www.grymca.org/outreach","facebook":"https://www.facebook.com/pages/YMCA-Farmers-Market/145014825569789?ref=hl","twitter":"","street":"475 Lake Michigan Dr. NW","city":"Grand Rapids","state":"mi","zip":"49504","x":"-85.680506","y":"42.967077","tags":"organic baked goods cheese flowers eggs herbs vegetables honey jams maple meat plants poultry prepared-foods soap fruits"},{"type":"market","name":"YMCA Farmers Market and Veggie Van","website":"http://mi.marketmaker.uiuc.edu/business/1627668-ymca-farmers-market-and-veggie-van","facebook":"https://www.facebook.com/pages/YMCA-Farmers-Market/145014825569789","twitter":"","street":"","city":"","state":"mi","zip":"","x":"","y":"","tags":""},{"type":"market","name":"Ypsilanti Farmers Market- Downtown","website":"http://growinghope.net/farmers-markets/ypsilanti/","facebook":"https://www.facebook.com/YpsilantiFarmersMarkets/","twitter":"","street":"16 S Washington","city":"Ypsilanti","state":"mi","zip":"48197","x":"-83.614751","y":"42.240285","tags":"organic baked goods cheese crafts flowers eggs seafood herbs vegetables honey jams maple meat poultry prepared-foods soap coffee fruits"},{"type":"market","name":"Zeeland Main Place Market","website":"","facebook":"","twitter":"","street":"Heritage Square, Corner of Elm St. & Main Ave.","city":"Zeeland","state":"mi","zip":"49464","x":"-86.0165","y":"42.8123","tags":""}]
