BizEntityId,Control Number,line1,line2,City,State,Zip,Country,Office Type
1,1,310 SHORTER AVE NW,,ROME,GA,30165-4268,,Principal Office
2,2,4426 Hugh Howell Rd.,Suite B-422,Tucker,GA,30084,,Principal Office
3,3,3014 N PATTERSON ST,,VALDOSTA,GA,31602-1711,,Principal Office
4,4,PO BOX 1309,,HARTWELL,GA,30643-6309,USA,Principal Office
5,5,36 VIEW DR SE,,ROME,GA,30161-7545,USA,Principal Office
6,6,767 FLAT SHOALS AVE SE,,ATLANTA,GA,30316-3833,USA,Principal Office
7,7,PO BOX 672,,WAYCROSS,GA,31502-0672,,Principal Office
8,8,"1042 Oakdale Road, NE",,ATLANTA,GA,30307,,Principal Office
9,9,3900 Brunswick Hwy,,Waycross,GA,31503,,Principal Office
10,10,60 BEVERLY RD NE,,ATLANTA,GA,30309-2646,USA,Principal Office
11,11,2050 WARM SPRINGS RD,,COLUMBUS,GA,31904,,Principal Office
12,12,3869 SMOKEMIST TRCE,,LAWRENCEVILLE,GA,30044-2963,USA,Principal Office
13,13,PO BOX 936,,FITZGERALD,GA,31750-0936,,Principal Office
14,14,3059 RAMSEY PL,,MARIETTA,GA,30062-8715,USA,Principal Office
15,15,1608 Stanford Drive,,Statesboro,GA,30461,,Principal Office
16,16,1113 MONROE DR NE,,ATLANTA,GA,30306-3649,USA,Principal Office
17,17,217 The Esplanade South,,Venice,FL,34285,,Principal Office
18,18,5874 HIGHWAY 9 NORTH,,ALPHARETTA,GA,30004,,Principal Office
19,19,5854 CAMPGROUND RD,,CUMMING,GA,30040-6211,,Principal Office
20,20,1425 E JACKSON ST,,THOMASVILLE,GA,31792-7976,USA,Principal Office
21,21,3461 TUXEDO RD NW,,ATLANTA,GA,30305-1050,USA,Principal Office
22,22,5672 FAWN DR,,POWDER SPRINGS,GA,30127-3517,,Principal Office
23,23,PO BOX 1432,,PERRY,GA,31069-1432,USA,Principal Office
24,24,4131 BROADWAY,P O Box 1503,MACON,GA,31202,,Principal Office
