[{"type":"farm","street":"6585 Highway 431 North","city":"Eufaula ","state":"al","zip":"36027","x":"-85.140352","y":"32.073484","name":"Backyard Orchards","website":"www. Backyardorchards.com","facebook":"","twitter":"","tags":"baked-goods canned preserved coffee tea cut-flowers dairy products fresh-fruits fresh-vegetables honey juices ciders nuts prepared foods soap body-care"},{"type":"farm","street":"228 county road 721","city":"Cullman ","state":"al","zip":"35055","x":"-86.773041","y":"34.160014","name":"Bagwell Blueberry farm","website":"","facebook":"bagwell blueberry farm","twitter":"","tags":"fresh-fruits fresh-vegetables"},{"type":"farm","street":"2362 Alabama River Parkway","city":"Millbrook","state":"al","zip":"36054","x":"-86.324675","y":"32.435541","name":"Barber Berry Farm, LLC","website":"http://www.barberberryfarm.com","facebook":"http://www.facebook.com/barberberryfarmupick","twitter":"","tags":"fresh-fruits fresh-vegetables honey"},{"type":"farm","street":"358 County Road 204","city":"Dawson","state":"al","zip":"35963","x":"-85.917537","y":"34.33139","name":"Bixler Farms","website":"","facebook":"","twitter":"","tags":""},{"type":"farm","street":"212 Dogwood Drive","city":"Gallant","state":"al","zip":"35972","x":"-86.260981","y":"33.983689","name":"Dayspring Dairy, LLC","website":"www.dayspringdairy.com","facebook":"www.facebook.com/dayspringdairy","twitter":"","tags":"dairy products eggs"},{"type":"farm","street":"21909 COUNTY ROAD 68 NORTH","city":"ROBERTSDALE","state":"al","zip":"36567","x":"-87.6497090","y":"30.6497850","name":"GARDNER'S BERRY FARM","website":"www.gardnersberryfarm.com","facebook":"Gardners Berry Farm","twitter":"","tags":"fresh-fruits juices ciders"},{"type":"farm","street":"949 Phillips Rd","city":"Cleveland","state":"al","zip":"35049","x":"-86.608803","y":"33.965800","name":"Hill View Farms","website":"","facebook":"","twitter":"","tags":"eggs herbs"},{"type":"farm","street":"12562 Mary Ann Beach Road","city":"Fairhope","state":"al","zip":"36532","x":"-87.8505969","y":"30.4070580","name":"LA Berry Farms Inc","website":"www.weeksbayplantation.com","facebook":"https://www.facebook.com/laberryfarms","twitter":"","tags":"cut-flowers fresh-fruits honey"},{"type":"farm","street":"21985 Koier Rd","city":"Robertsdale","state":"al","zip":"36567","x":"-87.564760","y":"30.545974","name":"Meme's Poultry and Quail Sales","website":"www.memespoultry.com","facebook":"https://www.facebook.com/memespoultryandquailsales","twitter":"","tags":"eggs poultry fowl"},{"type":"farm","street":"311 Ellen Street","city":"Oneonta","state":"al","zip":"35121","x":"-86.452663","y":"33.962313","name":"Moody Family Farm","website":"","facebook":"","twitter":"","tags":""},{"type":"farm","street":"16045 County Road 29","city":"Jemison","state":"al","zip":"35085","x":"-86.684533","y":"32.966311","name":"Mountain View Orchards","website":"www.mountainvieworchards.com","facebook":"","twitter":"","tags":""},{"type":"farm","street":"173 Fowler Road","city":"Empire","state":"al","zip":"35063","x":"-86.999158","y":"33.792266","name":"Northern Lights Farm","website":"http://sites.google.com/site/Nlightsfarm","facebook":"https://www.facebook.com/northern.farm","twitter":"","tags":""},{"type":"farm","street":"363 Coosa County Road 98","city":"Equality","state":"al","zip":"36026","x":"-86.108406","y":"32.761773","name":"Oakachoy Nursery and Blueberry Farm","website":"www.facebook.com/OakachoyBlueberryFarm?fref=ts","facebook":"","twitter":"","tags":"bedding plants fresh-fruits fresh-vegetables"},{"type":"farm","street":"3142 State Highway 132","city":"Oneonta","state":"al","zip":"35121","x":"-86.4208527","y":"33.9669593","name":"Old Field Farm General Store","website":"www.suzysfarm.com","facebook":"https://www.facebook.com/pages/Old-Field-Farm-General-Store/115315242053","twitter":"","tags":""},{"type":"farm","street":"367 County Road 327","city":"Flat Rock","state":"al","zip":"35966","x":"-85.6753472","y":"34.7662994","name":"SheerLark Farm","website":"http://sheerlarkfarm.com/","facebook":"https://www.facebook.com/pages/SheerLark-Farm/341548307271","twitter":"","tags":"crafts woodworking eggs herbs fresh-fruits fresh-vegetables red-meat non-poultry-meat"},{"type":"farm","street":"27608 County Road 65","city":"Loxley","state":"al","zip":"36551","x":"-87.7082425","y":"30.6289090","name":"Suberis Blueberry Farm","website":"","facebook":"","twitter":"","tags":""},{"type":"market","name":"84 west farmers market (Dothan)","website":"","facebook":"","twitter":"","street":"","city":"Dothan","state":"al","zip":"","x":"-85.449944","y":"31.232252","tags":"baked goods crafts vegetables honey jams prepared soap fruits"},{"type":"market","name":"ABBEVILLE FARMERS MARKET","website":"","facebook":"https://www.facebook.com/pages/Abbeville-Farmers-Market/234180039938887","twitter":"","street":"Kirkland Street","city":"Abbeville ","state":"al","zip":"","x":"-85.250365","y":"31.571271","tags":""},{"type":"market","name":"Alabama Gulf Coast Market","website":"","facebook":"","twitter":"","street":"22250 Perdido Beach Boulevard","city":"Gulf Shores","state":"al","zip":"36542","x":"-87.655850","y":"30.250746","tags":"baked goods eggs vegetables honey jams soap fruits grains"},{"type":"market","name":"ALBERTA FARMERS MARKET","website":"","facebook":"","twitter":"","street":"21724 Highway 5Â ","city":"ALBERTA","state":"al","zip":"36720","x":"-87.4101","y":"32.2319","tags":""},{"type":"market","name":"Athens Saturday Market","website":"http://www.athenssaturdaymarket.com","facebook":"athenssaturdaymarket","twitter":"@AthensMarket","street":"409 W Green Street","city":"Athens","state":"al","zip":"35611","x":"-86.9735003","y":"34.8013039","tags":"baked goods crafts flowers herbs vegetables honey jams meat prepared soap fruits"},{"type":"market","name":"Attalla City Farmers Market","website":"","facebook":"https://www.facebook.com/pages/City-of-Attalla/123797897678490","twitter":"","street":"3rd St N (Hwy 11) beside Jack's Restaurant","city":"Attalla","state":"al","zip":"39554","x":"-86.0885852","y":"34.0217639","tags":"baked goods flowers eggs herbs vegetables jams soap"},{"type":"market","name":"Barbour County Farmers Market","website":"","facebook":"","twitter":"","street":"241 Broad Street","city":"Eufaula","state":"al","zip":"36072","x":"-85.1431","y":"31.8929","tags":""},{"type":"market","name":"BESSEMER FARMERS MARKET","website":"","facebook":"https://www.facebook.com/BessemerFarmersMarket/","twitter":"","street":"1st Avenue N and 19th Street","city":"Bessemer","state":"al","zip":"35020","x":"-86.951370","y":"33.401130","tags":"flowers eggs vegetables honey jams plants prepared fruits juices"},{"type":"market","name":"Bessemer Farmers Market at Medical West","website":"","facebook":"","twitter":"","street":"995 9th Ave SW","city":"Bessemer","state":"al","zip":"35022","x":"-86.990644","y":"33.373082","tags":"vegetables honey jams plants fruits"},{"type":"market","name":"Bibb County Farmers Market","website":"","facebook":"","twitter":"","street":"155 Birmingham Highway","city":"Centreville","state":"al","zip":"35042","x":"-87.1386","y":"32.9446","tags":""},{"type":"market","name":"Blount County Farmers Market","website":"http://www.bcoabc.com","facebook":"","twitter":"","street":"500 New Street","city":"Oneonta","state":"al","zip":"35121","x":"-86.4702404290438","y":"33.9443186670542","tags":"baked goods eggs herbs vegetables honey jams nuts plants prepared fruits tofu"},{"type":"market","name":"Boaz Farmers Market","website":"","facebook":"","twitter":"","street":"108 Line Street","city":"Boaz","state":"al","zip":"35957","x":"-86.1621","y":"34.196","tags":""},{"type":"market","name":"Brewton Farmers Market","website":"","facebook":"","twitter":"","street":"Between Mildred & Lee Streets","city":"Brewton","state":"al","zip":"36427","x":"-87.0275","y":"31.1499","tags":""},{"type":"market","name":"Bridge Street Farmers Market","website":"","facebook":"","twitter":"","street":"340 The Bridge Street, #206","city":"Huntsville","state":"al","zip":"35804","x":"-86.6745","y":"34.7174","tags":""},{"type":"market","name":"Butler County Farmers Market, Greenville, AL","website":"","facebook":"","twitter":"","street":"701 Cedar","city":"Greenville","state":"al","zip":"36037","x":"-86.617709","y":"31.830281","tags":"organic baked goods crafts flowers eggs herbs vegetables honey jams nuts plants soap beans fruits"},{"type":"market","name":"Butler Walkabout Farmers Market","website":"","facebook":"","twitter":"","street":"400 West Pushmatha Street","city":"Butler","state":"al","zip":"36904","x":"-88.2376","y":"32.0938","tags":""},{"type":"market","name":"Calera Farmers Market","website":"http://www.calerafarmersmarket.com","facebook":"","twitter":"","street":"9758 Hwy 25, Calera, Al 35040","city":"Calera","state":"al","zip":"35040","x":"-86.76804","y":"33.096","tags":"baked goods cheese flowers eggs herbs vegetables honey jams plants prepared soap"},{"type":"market","name":"Calhoun County Farmers Market","website":"http://www.aces.edu/calhoun","facebook":"","twitter":"","street":"1702 Noble Street","city":"Anniston","state":"al","zip":"36202","x":"-85.831171","y":"33.666702","tags":"baked goods cheese vegetables honey jams coffee fruits"},{"type":"market","name":"Camden Farmers Market","website":"","facebook":"","twitter":"","street":"Highway 10 Bypass","city":"Camden","state":"al","zip":"36726","x":"-87.3034","y":"32.0051","tags":""},{"type":"market","name":"Center Point Farmer's Market","website":"","facebook":"","twitter":"","street":"2209 Center Point Parkway","city":"Center Point","state":"al","zip":"35215","x":"-86.6837","y":"33.6425","tags":""},{"type":"market","name":"CENTER POINT PARKWAY MARKET","website":"","facebook":"","twitter":"","street":"335 Polly Reed Road","city":"CENTER POINT","state":"al","zip":"35215","x":"-86.6746","y":"33.63","tags":""},{"type":"market","name":"Cherokee County Farmers Market","website":"","facebook":"","twitter":"","street":"","city":"Centre ","state":"al","zip":"","x":"-85.670173","y":"34.156258","tags":"crafts herbs vegetables honey jams nuts fruits wild"},{"type":"market","name":"Chicago Street Farmers Market","website":"http://www.visitfoley.org","facebook":"https://www.facebook.com/VisitFoley","twitter":"","street":"125 East Laurel Ave.","city":"Foley","state":"al","zip":"36535","x":"-87.683301","y":"30.407081","tags":"baked goods crafts flowers eggs seafood herbs vegetables honey jams plants prepared soap trees fruits"},{"type":"market","name":"City Market","website":"https://www.auburnalabama.org/parks/programs/city-market/","facebook":"https://www.facebook.com/CityMarketAuburnAL/","twitter":"","street":"1150 South Gay Street","city":"Auburn","state":"al","zip":"36830","x":"-85.475592","y":"32.584813","tags":"organic baked goods cheese crafts flowers eggs herbs vegetables honey jams maple meat nuts poultry soap coffee fruits grains juices mushrooms tofu wild"},{"type":"market","name":"City of Albertville Farmers Market","website":"http://www.cityofalbertville.com","facebook":"","twitter":"","street":"Main Street- downtown","city":"Albertville","state":"al","zip":"35950","x":"-86.206775","y":"34.267096","tags":"baked goods herbs vegetables honey jams meat plants prepared fruits"},{"type":"market","name":"Clay County Farmers Market","website":"http://www.weast@aces.edu","facebook":"","twitter":"","street":"Highway 9","city":"Ashland","state":"al","zip":"36251","x":"-85.8491","y":"33.2472","tags":""},{"type":"market","name":"Cleburne County Farmers Market","website":"","facebook":"","twitter":"","street":"1401 Ross street","city":"Heflin","state":"al","zip":"36264","x":"-85.596408","y":"33.502928","tags":"baked goods crafts eggs vegetables jams plants fruits"},{"type":"market","name":"Clio Market","website":"","facebook":"","twitter":"","street":"21 College Street","city":"Clio","state":"al","zip":"36311","x":"-85.6190650","y":"31.7078144","tags":"organic baked goods crafts flowers herbs vegetables honey jams nuts plants soap"},{"type":"market","name":"Colbert County Farmers Market","website":"","facebook":"","twitter":"","street":"South Raleigh Avenue","city":"Sheffield","state":"al","zip":"35660","x":"-87.6946","y":"34.7597","tags":""},{"type":"market","name":"College Street Farmers Market","website":"https://www.collegestreetmarket.org/","facebook":"https://www.facebook.com/CollegeStreetMarket/","twitter":"https://twitter.com/CollegeStreetAL","street":"526 E College St","city":"Florence","state":"al","zip":"35630","x":"-87.668745","y":"34.801805","tags":"baked goods crafts flowers eggs herbs vegetables honey jams meat plants poultry prepared soap trees coffee fruits"},{"type":"market","name":"Columbinana Farmers Market","website":"","facebook":"","twitter":"","street":"West College Street","city":"Columbiana","state":"al","zip":"35051","x":"-86.62","y":"33.1795","tags":""},{"type":"market","name":"CONECUH COUNTY FARMERS MARKET","website":"","facebook":"","twitter":"","street":"W Front Street","city":"EVERGREEN","state":"al","zip":"36401","x":"-86.956701","y":"31.433057","tags":"baked goods flowers eggs herbs vegetables honey jams nursery nuts plants prepared trees"},{"type":"market","name":"Cottage House Youth Market","website":"","facebook":"","twitter":"","street":"47 Doster Road","city":"Ariton","state":"al","zip":"36311","x":"-85.674054","y":"31.647050","tags":"organic eggs vegetables honey nuts plants soap fruits"},{"type":"market","name":"Crenshaw County Farmers Market","website":"","facebook":"","twitter":"","street":"Highway 331 in Midtown","city":"Luverne","state":"al","zip":"36049","x":"-86.2846","y":"31.7433","tags":""},{"type":"market","name":"CUMC FARMERS MARKET","website":"","facebook":"","twitter":"","street":"6101 GRELOT RD","city":"MOBILE","state":"al","zip":"36609","x":"-88.186","y":"30.661","tags":""},{"type":"market","name":"Daleville Farmer's Market","website":"","facebook":"","twitter":"","street":"Corner of Daleville Avenue and Hwy 134","city":"Daleville","state":"al","zip":"36322","x":"-85.714656","y":"31.307349","tags":"organic baked goods eggs vegetables honey jams meat soap fruits"},{"type":"market","name":"Dauphin Island Market","website":"","facebook":"","twitter":"","street":"East Bienville Blvd at Cadillac Square Park","city":"Dauphin Island","state":"al","zip":"36528","x":"-88.1594","y":"30.2507","tags":""},{"type":"market","name":"Dekalb County Farmers Market","website":"","facebook":"","twitter":"","street":"VFW Fairgrounds","city":"Fort Payne","state":"al","zip":"35967","x":"-85.7107","y":"34.4256","tags":""},{"type":"market","name":"Demopolis Farmers Market","website":"","facebook":"","twitter":"","street":"Hwy 80 East","city":"Dempolis","state":"al","zip":"36732","x":"-87.8346","y":"32.5148","tags":""},{"type":"market","name":"East Lake Farmers Market","website":"http://www.eastlakemarket.org","facebook":"https://www.facebook.com/EastLakeMarket","twitter":"https://twitter.com/GSOFarmersMkt","street":"7753 First Avenue, South","city":"Birmingham","state":"al","zip":"35206","x":"-86.7246","y":"33.5615","tags":"baked goods crafts flowers eggs vegetables honey jams prepared soap coffee fruits"},{"type":"market","name":"EASTCHASE FARMERS MARKET","website":"","facebook":"","twitter":"","street":"7274 EASTCHASE PARKWAY","city":"MONTGOMERY","state":"al","zip":"36117","x":"-86.164634","y":"32.359808","tags":"baked goods cheese crafts flowers eggs herbs vegetables honey jams meat nuts plants prepared soap trees fruits grains"},{"type":"market","name":"Elberta Farmer's Market","website":"","facebook":"","twitter":"","street":"Highway 98","city":"Elberta","state":"al","zip":"36530","x":"-87.59908","y":"30.41395","tags":"eggs"},{"type":"market","name":"Enterprise Farmers Market","website":"http://cityofenterprise.net","facebook":"","twitter":"","street":"101 South Conner Street","city":"Enterprise","state":"al","zip":"36330","x":"-85.8550515","y":"31.3137726","tags":"baked goods flowers eggs herbs vegetables honey jams nuts plants trees fruits"},{"type":"market","name":"Fairhope Outdoor Farm Market","website":"","facebook":"","twitter":"","street":"Corner of Bancroft Street and Magnolia Avenue","city":"Fairhope","state":"al","zip":"36532","x":"-87.9019749","y":"30.5244349","tags":"baked goods flowers eggs herbs vegetables honey jams nursery nuts plants prepared soap trees"},{"type":"market","name":"Fairview Farmers Market","website":"","facebook":"","twitter":"","street":"Fairview Avenue","city":"Montgomery","state":"al","zip":"36108","x":"-86.363","y":"32.3465","tags":""},{"type":"market","name":"Fayette County Farmers Market","website":"","facebook":"","twitter":"","street":"650 McConnell Loop","city":"Fayette","state":"al","zip":"35555","x":"-87.8079","y":"33.7322","tags":""},{"type":"market","name":"Festhalle Farmers Market","website":"http://www.cullmanrecreation.org","facebook":"Cullman Farmers Market - Festhalle","twitter":"","street":"209 1st Ave NE","city":"Cullman ","state":"al","zip":"35056","x":"-86.8442816","y":"34.1794034","tags":"baked goods crafts flowers eggs herbs vegetables honey jams meat plants fruits"},{"type":"market","name":"Flomaton Farmers Market","website":"","facebook":"","twitter":"","street":"435 Palafox Street","city":"Flomaton","state":"al","zip":"36441","x":"-87.26","y":"31.0015","tags":""},{"type":"market","name":"Florala Farmers Market","website":"","facebook":"","twitter":"","street":"Behind Train Depot","city":"Florala","state":"al","zip":"36442","x":"-86.3252","y":"31.0063","tags":""},{"type":"market","name":"Franklin County Farmers Market","website":"","facebook":"","twitter":"","street":"202 Green Avenue SW","city":"Russellville","state":"al","zip":"35653","x":"-87.7328","y":"34.5045","tags":""},{"type":"market","name":"Fresh Market at Ross Bridge","website":"","facebook":"","twitter":"","street":"4000 Grand Avenue","city":"Hoover","state":"al","zip":"35226","x":"-86.881","y":"33.3927","tags":""},{"type":"market","name":"Frisco City Farmers Market","website":"","facebook":"","twitter":"","street":"Highway 21","city":"Frisco City","state":"al","zip":"36445","x":"-87.4002","y":"31.435","tags":""},{"type":"market","name":"Gadsden Farmers Market","website":"","facebook":"","twitter":"","street":"100 Moragne Ave.  Moragne Park","city":"Gadsden","state":"al","zip":"35902","x":"-86.004","y":"34.0029","tags":""},{"type":"market","name":"Gardendale Farmers Market","website":"http://www.gardendalefarmersmarket.com","facebook":"https://www.facebook.com/GardendaleFarmersMarket","twitter":"","street":"857 Main Street","city":"Gardendale","state":"al","zip":"35071","x":"-86.810407","y":"33.647452","tags":"baked goods vegetables honey jams fruits"},{"type":"market","name":"GEORGIANA FARMERS MARKET","website":"","facebook":"","twitter":"","street":"127 ROSE STREET","city":"GEORGIANA","state":"al","zip":"36033","x":"-86.7428","y":"31.6396","tags":""},{"type":"market","name":"GLENCOE","website":"","facebook":"","twitter":"","street":"201  W CHASTAIN BLVD. WEST","city":"GLENCOE","state":"al","zip":"35905","x":"-85.9347140","y":"33.9578280","tags":"vegetables nursery plants"},{"type":"market","name":"Gordo Farmers Market","website":"","facebook":"","twitter":"","street":"201 Main Street","city":"Gordo","state":"al","zip":"35466","x":"-87.9028","y":"33.3185","tags":"baked goods vegetables jams plants fruits"},{"type":"market","name":"Greene/Sumter County Farmers' Market Cooperative","website":"","facebook":"https://www.facebook.com/gscfmcoop","twitter":"","street":"137 Furse Ave","city":"Eutaw","state":"al","zip":"35462","x":"-87.8816179","y":"32.8340744","tags":""},{"type":"market","name":"GROVE HILL FARMERS MARKET","website":"","facebook":"","twitter":"","street":"117 COBB ST.","city":"GROVE HILL","state":"al","zip":"36451","x":"-87.7767264","y":"31.7098338","tags":"organic baked goods eggs vegetables honey jams trees fruits"},{"type":"market","name":"Guntersville Farmers Market","website":"","facebook":"https://www.facebook.com/guntersvillefarmersmarket/","twitter":"","street":"880 Sunset Dr.","city":"Guntersville ","state":"al","zip":"35976","x":"-86.3107369","y":"34.3602029","tags":"baked goods crafts flowers eggs herbs vegetables honey jams plants coffee beans fruits grains juices"},{"type":"market","name":"Haleyville Farmers Market","website":"","facebook":"https://www.facebook.com/HaleyvilleFarmersMarket?ref=tn_tnmn","twitter":"","street":"Hwy 195 and 20th Ave.","city":"Haleyville","state":"al","zip":"35553","x":"-87.608253","y":"34.231733","tags":"herbs vegetables honey plants fruits"},{"type":"market","name":"Halls Mill Road Farmers Market","website":"","facebook":"","twitter":"","street":"2245 Halls Mill Road","city":"Mobile","state":"al","zip":"36606","x":"-88.0961","y":"30.6609","tags":"vegetables fruits"},{"type":"market","name":"Hamilton Farmers Market","website":"","facebook":"","twitter":"","street":"2151 Bexar Avenue West","city":"Hamilton","state":"al","zip":"35570","x":"-88.0161","y":"34.1554","tags":""},{"type":"market","name":"Hartselle Farmers Market","website":"","facebook":"","twitter":"","street":"Sparkman Street Southwest","city":"Hartselle","state":"al","zip":"35640","x":"-86.9333","y":"34.4339","tags":""},{"type":"market","name":"HEADLAND FARMERS MARKET","website":"","facebook":"","twitter":"","street":"9 PARK ST.","city":"HEADLAND","state":"al","zip":"36345","x":"-85.3418","y":"31.3522","tags":""},{"type":"market","name":"Helena Market Days","website":"","facebook":"","twitter":"","street":"4151 Helena Road","city":"Helena","state":"al","zip":"35080","x":"-86.8436","y":"33.2947","tags":""},{"type":"market","name":"HERITAGE PARK MARKET","website":"","facebook":"","twitter":"","street":"107 COMER HALL","city":"AUBURN UNIVERSITY","state":"al","zip":"36849","x":"-85.4826","y":"32.6004","tags":""},{"type":"market","name":"Irondale Farmers Market","website":"","facebook":"","twitter":"","street":"1906 1st Ave N","city":"Irondale","state":"al","zip":"35210","x":"-86.7083","y":"33.5388","tags":""},{"type":"market","name":"Jack oO lantern farm","website":"http://www.jackolanternfarm.com","facebook":"jackolanternfarm","twitter":"https://twitter.com/jolfarm","street":"430 garage rd.","city":"Muscle Shoals ","state":"al","zip":"","x":"-87.665605","y":"34.760154","tags":"baked goods cheese eggs vegetables honey jams meat poultry prepared soap fruits"},{"type":"market","name":"Jackson Senior Center","website":"","facebook":"","twitter":"","street":"1701 College Avenue","city":"Jackson","state":"al","zip":"36545","x":"-87.893672","y":"31.526751","tags":"organic vegetables fruits"},{"type":"market","name":"JACKSONVILLE ALABAMA FARMERS MARKET","website":"http://www.jacksonvillealfarmersmarket.com","facebook":"https://www.facebook.com/jacksonvillealfarmersmarket","twitter":"","street":"206 Ladiga St ","city":"JACKSONVILLE","state":"al","zip":"36265","x":"-85.760351","y":"33.813512","tags":"baked goods cheese crafts flowers eggs herbs vegetables honey jams plants prepared soap trees fruits"},{"type":"market","name":"Jefferson County Truck Growers Association","website":"http://www.alabamafarmersmarket.org","facebook":"","twitter":"","street":"344 Finley Ave., West","city":"Birmingham","state":"al","zip":"35204","x":"-86.83628","y":"33.54057","tags":"herbs vegetables honey jams nursery plants trees"},{"type":"market","name":"Lamar County Farmers Market","website":"","facebook":"","twitter":"","street":"Large Pavilion at Vernon City Park","city":"Vernon","state":"al","zip":"33592","x":"-88.1059","y":"33.7568","tags":""},{"type":"market","name":"Latham Farmers Market","website":"http://Lathamfarmersmarket.org","facebook":"Latham Farmers Market","twitter":"","street":"109 Weatherly Road","city":"Huntsville ","state":"al","zip":"35803","x":"-86.564530","y":"34.647522","tags":"organic baked goods cheese flowers eggs herbs vegetables honey jams meat plants poultry prepared soap coffee fruits juices"},{"type":"market","name":"Lawrence County Farmers Market","website":"","facebook":"","twitter":"","street":"Al Hwy 157 north","city":"Moulton","state":"al","zip":"35650","x":"-87.285562","y":"34.504965","tags":"baked goods eggs vegetables honey jams nuts plants poultry trees fruits"},{"type":"market","name":"Leeds Farmer's Market","website":"http://www.leedsareachamber.com","facebook":"","twitter":"","street":"6th Street","city":"Leeds","state":"al","zip":"35094","x":"-86.54514","y":"33.54512","tags":"baked goods cheese herbs vegetables honey jams maple plants soap"},{"type":"market","name":"LINN PLACE MARKET","website":"","facebook":"","twitter":"","street":"20TH STREET and PARK PLACE","city":"BIRMINGHAM","state":"al","zip":"35203","x":"-86.808933","y":"33.524519","tags":"baked goods vegetables fruits"},{"type":"market","name":"Livingston Farmers Market","website":"","facebook":"","twitter":"","street":"115 Franklin Street","city":"Livingston","state":"al","zip":"35470","x":"-88.1884","y":"32.5833","tags":""},{"type":"market","name":"Lowndes County Farmers Market","website":"","facebook":"","twitter":"","street":"Highway 21 South","city":"Hayneville","state":"al","zip":"36040","x":"-86.6811","y":"32.1887","tags":""},{"type":"market","name":"Macon County Farmers Market","website":"","facebook":"","twitter":"","street":"Intersection of Elm & Spring Streets","city":"Tuskegee","state":"al","zip":"36083","x":"-85.693445","y":"32.425706","tags":"crafts eggs herbs vegetables honey jams fruits"},{"type":"market","name":"Madison City Farmers Market","website":"http://www.madisoncityfarmersmarket.com","facebook":"https://www.facebook.com/madisoncityfarmersmarket","twitter":"","street":"1088 Hughes Road","city":"Madison","state":"al","zip":"35758","x":"-86.741778","y":"34.733955","tags":"baked goods cheese crafts flowers eggs herbs vegetables honey jams meat nuts plants poultry prepared soap coffee beans fruits grains pet food"},{"type":"market","name":"Madison County Farmers Market","website":"http://www.madisoncountyal.gov/about/org/CoDepts/FarmersMkt.shtml","facebook":"","twitter":"","street":"1022 Cook Avenue","city":"Huntsville","state":"al","zip":"35804","x":"-86.598946","y":"34.743321","tags":"baked goods flowers eggs herbs vegetables honey jams plants fruits"},{"type":"market","name":"MainStreet's Dowtown Farmers Market","website":"","facebook":"","twitter":"","street":"8 Broad Street","city":"Alexander City","state":"al","zip":"35010","x":"-85.9547","y":"32.9446","tags":"baked goods cheese crafts flowers eggs herbs vegetables honey jams nuts plants soap trees"},{"type":"market","name":"Marion County Farmers Market","website":"","facebook":"https://www.facebook.com/MarionCountyAlabamaExtensionOffice","twitter":"","street":"2151 Bexar Avenue West","city":"Hamilton","state":"al","zip":"35570","x":"-88.0195734","y":"34.1562757","tags":"baked goods crafts herbs vegetables honey nuts plants soap fruits"},{"type":"market","name":"Market on the Hill","website":"","facebook":"","twitter":"","street":"Old Shell Road and University Boulevard","city":"Mobile","state":"al","zip":"36606","x":" -88.174004","y":"30.689057","tags":""},{"type":"market","name":"Market on the Square","website":"","facebook":"","twitter":"","street":"Cathedral Square","city":"Mobile","state":"al","zip":"36633","x":"-88.1933","y":"30.6494","tags":""},{"type":"market","name":"MENTONE FARMERS MARKET","website":"","facebook":"","twitter":"","street":"6139 Alabama 117","city":"MENTONE","state":"al","zip":"35984","x":"-85.589","y":"34.5791","tags":""},{"type":"market","name":"MOCKINGBIRD FARMERS MARKET","website":"","facebook":"","twitter":"","street":"","city":"MONROEVILLE","state":"al","zip":"36461","x":"-87.3244","y":"31.5269","tags":""},{"type":"market","name":"MONTEVALLO FARMERS MARKET","website":"","facebook":"https://www.facebook.com/montevallofarmersmarket","twitter":"","street":"Main St. and Middle Street","city":"MONTEVALLO","state":"al","zip":"35115","x":"-86.862893","y":"33.099545","tags":"baked goods flowers eggs herbs vegetables honey jams prepared soap fruits mushrooms"},{"type":"market","name":"Montgomery Curb Market","website":"","facebook":"","twitter":"","street":"1004 Madison Avenue","city":"Montgomery","state":"al","zip":"36104","x":"-86.2952","y":"32.3803","tags":""},{"type":"market","name":"Morgan County-Decatur Farmers Market","website":"","facebook":"https://www.facebook.com/Morgan-CountyDecatur-Farmers-Market-174610319238067","twitter":"","street":"211 1st Ave SE","city":"Decatur","state":"al","zip":"35601","x":"-86.986876","y":"34.600893","tags":"baked goods cheese crafts flowers eggs herbs vegetables honey jams meat plants poultry prepared soap trees coffee beans fruits juices pet food"},{"type":"market","name":"MOUNT LAUREL FARMERS MARKET","website":"","facebook":"","twitter":"","street":"38 MANNING PLACE","city":"BIRMINGHAM","state":"al","zip":"35242","x":"-86.6302","y":"33.4075","tags":""},{"type":"market","name":"Mt Laurel Farmers Market","website":"http://www.mtlaurel.com","facebook":"","twitter":"","street":"5 Mt Laurel Avenue","city":"Birmingham","state":"al","zip":"35242","x":"-86.6303","y":"33.4077","tags":"organic baked goods crafts flowers vegetables honey jams plants fruits"},{"type":"market","name":"O Grows Farmers Market","website":"http://www.opelikamainstreet.org","facebook":"https://www.facebook.com/OpelikaGrowsFarmersMarket/","twitter":"","street":"1103 Glenn Street","city":"Opelika","state":"al","zip":"36801","x":"-85.3735540","y":"32.6417780","tags":"baked goods vegetables honey jams plants fruits"},{"type":"market","name":"Opp Farmers Market","website":"","facebook":"","twitter":"","street":"Highway 331","city":"Opp","state":"al","zip":"36467","x":"-86.2571","y":"31.2807","tags":""},{"type":"market","name":"Ozark Farmers Market","website":"","facebook":"","twitter":"","street":"Downtown Ozark  on North Union","city":"Ozark","state":"al","zip":"36360","x":"-85.6402","y":"31.4587","tags":""},{"type":"market","name":"Perry County Farmer's Market- Marion","website":"","facebook":"","twitter":"","street":"","city":"Marion","state":"al","zip":"36756","x":"-87.301183","y":"32.638327","tags":"vegetables"},{"type":"market","name":"Pickens County Farmers Market","website":"","facebook":"","twitter":"","street":"25661 Highway 17 N","city":"Carollton","state":"al","zip":"35447","x":"-88.093797","y":"33.275534","tags":"herbs vegetables jams fruits"},{"type":"market","name":"Pineapple Farmers Market","website":"","facebook":"","twitter":"","street":"12 Waters Street","city":"Pineapple","state":"al","zip":"36726","x":"-87.0229","y":"31.9312","tags":""},{"type":"market","name":"Pioneer Farmers Market","website":"","facebook":"","twitter":"","street":"Corner of Oak and Academy Street","city":"Troy","state":"al","zip":"","x":"-85.9713834","y":"31.8091916","tags":"herbs vegetables beans fruits"},{"type":"market","name":"Poplar Head Farmers Market","website":"http://www.poplarheadfarmersmarket.com","facebook":"https://www.facebook.com/Poplar.Head.Farmers.Market","twitter":"","street":"126 North St Andrews Street","city":"Dothan","state":"al","zip":"36301","x":"-85.390463","y":"31.223592","tags":"baked goods crafts flowers eggs herbs vegetables honey jams meat plants prepared soap trees fruits juices"},{"type":"market","name":"Prattville  Autauga Farmers Market","website":"http://www.aces.edu/counties/Autauga/","facebook":"","twitter":"","street":"157 North Memorial Drive","city":"Prattville","state":"al","zip":"36067","x":"-86.4523","y":"32.4693","tags":"baked goods vegetables honey jams plants prepared"},{"type":"market","name":"Randolph County Farmers Market","website":"","facebook":"https://www.facebook.com/randolphcountymarket/","twitter":"","street":"2959 County Road 333","city":"Wedowee ","state":"al","zip":"36278","x":"-85.451892","y":"33.255362","tags":"organic baked goods flowers eggs vegetables honey jams plants fruits"},{"type":"market","name":"RED BAY FARMERS MARKET","website":"","facebook":"","twitter":"","street":"652 2ND STREET.","city":"RED BAY","state":"al","zip":"35582","x":"-88.1436471641064","y":"34.439522176981","tags":"baked goods eggs vegetables honey jams fruits"},{"type":"market","name":"RiverchaseUMC Farmer's Market","website":"http://www.Riverchaseumc.org","facebook":"","twitter":"","street":"1953 Old Hwy 31","city":"Hoover","state":"al","zip":"35244","x":"-86.808493","y":"33.357255","tags":"baked goods crafts flowers eggs herbs vegetables honey jams prepared soap fruits"},{"type":"market","name":"Russell County Farmers Market","website":"","facebook":"","twitter":"","street":"1700 14th Street","city":"Phenix City","state":"al","zip":"36867","x":"-85.0164","y":"32.4733","tags":""},{"type":"market","name":"S & W Produce","website":"","facebook":"","twitter":"","street":"4807 Highway 51, South","city":"Ariton","state":"al","zip":"36311","x":"-85.6823","y":"31.628","tags":""},{"type":"market","name":"Scottsboro Farmers Market","website":"","facebook":"","twitter":"","street":"Bob Jones Road","city":"Scottsboro","state":"al","zip":"35768","x":"-86.0641","y":"34.6932","tags":""},{"type":"market","name":"Selma/Dallas County Farmers Market","website":"","facebook":"","twitter":"","street":"108 West Dallas Avenue","city":"Selma","state":"al","zip":"36701","x":"-87.039345","y":"32.404223","tags":"baked goods eggs vegetables honey jams plants trees fruits"},{"type":"market","name":"Slow Food Elba","website":"http://www.slowfoodelba.com","facebook":"Slow Food Elba","twitter":"","street":" 332 Simmons St ","city":"Elba","state":"al","zip":"36323","x":"-86.065699","y":"31.414706","tags":"cheese crafts vegetables honey jams nuts soap fruits mushrooms pet food wild"},{"type":"market","name":"St. Clair County Farmers Market","website":"","facebook":"","twitter":"","street":"2404 Forrest Lane @ Hwy 231 North","city":"Pell City","state":"al","zip":"35125","x":"-86.2727405","y":"33.5753209","tags":"vegetables fruits"},{"type":"market","name":"Sylacauga Farmers Market","website":"http://www.SYLACAUGAFARMERSMARKET.ORG","facebook":"","twitter":"","street":"423 North Norton Ave, Blue Bell Park","city":"Sylacauga","state":"al","zip":"35150","x":"-86.251829","y":"33.173631","tags":"baked goods herbs vegetables jams soap trees fruits"},{"type":"market","name":"Talladega Square FM","website":"","facebook":"","twitter":"","street":"on the square","city":"Talladega","state":"al","zip":"","x":"-85.7761","y":"33.3077","tags":""},{"type":"market","name":"Tallassee Farmers' Market","website":"http://www.tallasseefarmersmarket.com","facebook":"https://www.facebook.com/TFMkt/","twitter":"","street":"321 Barnett Blvd","city":"Tallassee","state":"al","zip":"36078","x":"-85.894695","y":"32.535992","tags":"baked goods crafts herbs vegetables honey jams prepared soap trees wild"},{"type":"market","name":"THE GREENE STREET MARKET AT NATIVITY","website":"http://www.greenestreetmarket.com","facebook":"https://www.facebook.com/pages/The-Greene-Street-Market-at-Nativity/199822090052758","twitter":"","street":"208 EUSTIS AVE. & GREENE STREET","city":"HUNTSVILLE","state":"al","zip":"35801","x":"-86.5832260","y":"34.7306400","tags":"organic baked goods cheese crafts flowers eggs herbs vegetables honey jams meat plants poultry prepared soap trees coffee fruits pet food"},{"type":"market","name":"The Greensboro Farmers Market","website":"http://www.thegreensborofarmersmarket.com","facebook":"","twitter":"","street":"Intersection of HWY 14 & 61","city":"Greensboro","state":"al","zip":"36744","x":"-87.579575","y":"32.699164","tags":"organic baked goods vegetables jams fruits"},{"type":"market","name":"The Historic Langdale Mill Farmers Market","website":"","facebook":"","twitter":"","street":"6000 20th Avenue (Hwy 29)","city":"Valley","state":"al","zip":"36854","x":"-85.16991","y":"32.80821","tags":"organic baked goods vegetables honey jams"},{"type":"market","name":"The Market at Ag Heritage Park","website":"http://www.ag.auburn.edu/themarket/","facebook":"","twitter":"","street":"Lem Morrison and Donahue drives,","city":"Auburn","state":"al","zip":"36849","x":"-85.4903","y":"32.5923","tags":""},{"type":"market","name":"THE MARKET AT ARTISANS COVE","website":"","facebook":"The Market at Artisans Cove","twitter":"Artisans Cove","street":"220 Old Highway 431s","city":"Hampton Cove","state":"al","zip":"35763","x":"-86.478038","y":"34.659544","tags":"organic baked goods eggs herbs vegetables honey jams meat plants poultry prepared soap fruits"},{"type":"market","name":"The Market at Good Shepherd","website":"","facebook":"The Market at Good Shepherd, Decatur, AL","twitter":"","street":"3809 Spring Ave, SW","city":"Decatur","state":"al","zip":"35603","x":"-87.001579","y":"34.535562","tags":"baked goods cheese crafts eggs vegetables honey jams poultry soap fruits"},{"type":"market","name":"The Market at Pepper Place","website":"http://www.pepperplacemarket.com","facebook":"@pepperplacemarket","twitter":"@pepperplacemkt","street":"2829 2nd Avenue South","city":"Birmingham ","state":"al","zip":"35233","x":"-86.791298","y":"33.516223","tags":"organic baked goods cheese crafts flowers eggs seafood herbs vegetables honey jams nuts plants poultry prepared soap trees coffee beans fruits grains juices mushrooms pet food wild"},{"type":"market","name":"Thomaston Farmers Market","website":"","facebook":"","twitter":"","street":"Intersection of Highways 25 & 28","city":"Thomaston","state":"al","zip":"36783","x":"-87.6255","y":"32.2666","tags":""},{"type":"market","name":"Town of Wadley Farmers Market","website":"","facebook":"https://www.facebook.com/wadleyfarmersmarket/","twitter":"","street":"Main Street","city":"Wadley","state":"al","zip":"36276","x":"-85.573055","y":"33.123400","tags":"baked goods crafts eggs vegetables honey jams plants poultry soap fruits"},{"type":"market","name":"Trussville Fresh  Market","website":"","facebook":"","twitter":"","street":"North Mall in Trussville","city":"Trussville","state":"al","zip":"35173","x":"-86.6077","y":"33.6297","tags":""},{"type":"market","name":"Trussville Springs Farmers Market","website":"","facebook":"","twitter":"","street":"200 Spring St","city":"Trussville","state":"al","zip":"35173","x":"-86.5708","y":"33.6024","tags":""},{"type":"market","name":"Tuesday Farmers Market at Meridianville","website":"http://tuesdayfarmersmarket.com","facebook":"Tuesday Farmers Market at Meridianville","twitter":"Mville Farmers Market","street":"175 Monroe Road","city":"Meridianville","state":"al","zip":"35759","x":"-86.575130","y":"34.859086","tags":"baked goods crafts flowers eggs herbs vegetables jams meat plants poultry soap beans fruits pet food"},{"type":"market","name":"Tuscaloosa  County Truck Growers Association","website":"http://www.tuscaloosafarmersmarket.com","facebook":"","twitter":"","street":"4150 5th Street","city":"Northport","state":"al","zip":"35476","x":"-87.591044","y":"33.219446","tags":"baked goods flowers eggs herbs vegetables honey jams meat nursery nuts plants soap trees"},{"type":"market","name":"Tuscaloosa River Market","website":"http://www.tuscaloosarivermarket.com/","facebook":"https://www.facebook.com/TuscaloosaFarmersMarket/","twitter":"https://twitter.com/TuscRiverMarket","street":"1900 Jack Warner Pkwy","city":"Tuscaloosa","state":"al","zip":"35401","x":"-87.562834","y":"33.216479","tags":"organic baked goods crafts flowers eggs seafood herbs vegetables honey jams meat nuts plants poultry prepared soap trees coffee fruits juices mushrooms pet food wild"},{"type":"market","name":"UAB Farmers Market","website":"","facebook":"","twitter":"","street":"18th Street South and 6th Ave. South","city":"BIRMINGHAM","state":"al","zip":"35233","x":"-86.8035","y":"33.5057","tags":"baked goods vegetables honey jams fruits"},{"type":"market","name":"Uniontown Farmers Market","website":"","facebook":"","twitter":"","street":"Next to City Hall","city":"Uniontown","state":"al","zip":"36786","x":"-87.5299","y":"32.4235","tags":""},{"type":"market","name":"United Farmers Market","website":"","facebook":"","twitter":"","street":"Intersection of County Roads 41 & 18","city":"Forkland","state":"al","zip":"36740","x":"-87.8294","y":"32.6128","tags":""},{"type":"market","name":"URBAN COOKHOUSE FARMER'S MARKET - HOMEWOOD","website":"http://urbancookhouse.com/farmers-markets","facebook":"https://www.facebook.com/uchomewoodrestaurant","twitter":"","street":"2850 19th Street South","city":"Homewood","state":"al","zip":"35209","x":"-86.790909","y":"33.480175","tags":"baked goods cheese crafts herbs vegetables honey jams meat plants poultry prepared soap trees coffee fruits grains juices pet food wild"},{"type":"market","name":"URBAN COOKHOUSE FARMER'S MARKET - THE SUMMIT","website":"http://urbancookhouse.com/farmers-markets","facebook":"https://www.facebook.com/ucsummitrestaurant","twitter":"","street":"250 Summit Boulevard","city":"Birmingham ","state":"al","zip":"35243","x":"-86.730085","y":"33.450034","tags":"baked goods cheese crafts herbs vegetables honey jams meat poultry prepared soap trees coffee fruits grains juices pet food wild"},{"type":"market","name":"Valleydale Farmers Market","website":"http://www.valleydalefarmersmarket.com","facebook":"https://www.facebook.com/pages/Valleydale-Farmers-Market","twitter":"https://twitter.com/ValleydaleFM","street":"4601 Valleydale Rd.","city":"Birmingham","state":"al","zip":"35242","x":"-86.733778","y":"33.383472","tags":"organic baked goods crafts eggs seafood herbs vegetables honey jams plants poultry prepared soap coffee fruits mushrooms"},{"type":"market","name":"Walker County Farmer's Market ","website":"","facebook":"https://m.facebook.com/pages/Walker-County-Farmers-Market/121903267889346","twitter":"","street":"1501 Airport Road ","city":"Jasper ","state":"al","zip":"35001","x":"-87.266542","y":"33.867565","tags":"baked goods eggs herbs vegetables honey jams nuts plants fruits wild"},{"type":"market","name":"Washington County Farmers Market","website":"","facebook":"","twitter":"","street":"Corner of Central St. & Pelham Ave.","city":"Chatom","state":"al","zip":"36518","x":"-88.2596","y":"31.4649","tags":""},{"type":"market","name":"Westside Tailgate Farmers Market","website":"https://www.facebook.com/pages/Westside-Tailgate-Farmers-Market/369260759751874","facebook":"https://www.facebook.com/pages/Westside-Tailgate-Farmers-Market/369260759751874","twitter":"","street":"","city":"","state":"al","zip":"","x":"","y":"","tags":""},{"type":"market","name":"WETUMPKA","website":"","facebook":"","twitter":"","street":"355 QUEEN ANN ROAD","city":"WETUMPKA","state":"al","zip":"36092","x":"-86.2328","y":"32.5367","tags":""},{"type":"market","name":"Winchester Road Farmers Market","website":"http://www.tvwomeninag.com","facebook":"@winchesterrdfarmersmarket","twitter":"","street":"1262 Winchester Rd","city":"Huntsville","state":"al","zip":"35811","x":"-86.5264710","y":"34.8010920","tags":"baked goods cheese crafts flowers eggs herbs vegetables honey jams meat prepared soap coffee fruits"},{"type":"market","name":"Wiregrass Farmers Market","website":"","facebook":"","twitter":"","street":"Farm Center","city":"Dothan","state":"al","zip":"36302","x":"-85.374928","y":"31.194503","tags":"vegetables honey jams nuts fruits"}]
