[{"type":"farm","street":"158 N 4544 E","city":"Rigby","state":"id","zip":"83442","x":"-111.7958160","y":"43.6501639","name":"Ashland Produce","website":"","facebook":"","twitter":"","tags":"fresh-fruits fresh-vegetables"},{"type":"farm","street":"14623 Galloway Rd","city":"Caldwell","state":"id","zip":"83607","x":"-116.683530","y":"43.749677","name":"Black Dog Berry Farm and Market Garden","website":"","facebook":"","twitter":"","tags":"cut-flowers eggs herbs fresh-fruits fresh-vegetables"},{"type":"farm","street":"3525 E. Virginia Road","city":"Downey","state":"id","zip":"83234","x":"-112.1586133","y":"42.5034199","name":"Bradys Plant Ranch","website":"www.bradysplantranch.com","facebook":"","twitter":"","tags":"baked-goods bedding plants canned preserved crafts woodworking dairy products eggs herbs fresh-fruits fresh-vegetables honey juices ciders nursery-stock prepared-foods red-meat non-poultry-meat"},{"type":"farm","street":"2087 West King Rd","city":"Kuna","state":"id","zip":"83634","x":"-116.439328","y":"43.473453","name":"Cabalo's Orchard & Gardens","website":"cabalosorchard.com","facebook":"https://www.facebook.com/Aplles4uall","twitter":"","tags":"eggs fresh-fruits fresh-vegetables honey juices ciders poultry fowl"},{"type":"farm","street":"147 ELLSWORTH RD","city":"POCATELLO","state":"id","zip":"83202","x":"-112.462140","y":"43.022498","name":"Giving Ground Farm","website":"www.givinggroundseeds.com","facebook":"","twitter":"","tags":"cut-flowers dry beans herbs fresh-vegetables nursery-stock"},{"type":"farm","street":"Kuna Rd/cloverdale Area","city":"Kuna","state":"id","zip":"83634","x":"-116.4201223","y":"43.4918307","name":"Goshen Farm, LLC","website":"www.goshenfarm.weebly.com","facebook":"https://www.facebook.com/goshenfarm","twitter":"","tags":"dairy products"},{"type":"farm","street":"246 Wet 200 North","city":"Blackfoot","state":"id","zip":"83221","x":"-112.345567","y":"43.225728","name":"Grove City Gardens, LLC","website":"","facebook":"https://www.facebook.com/GroveCityGardens?ref_type=bookmark","twitter":"https://twitter.com/grovecitygarden","tags":""},{"type":"farm","street":"2190 W Burns Street","city":"Eagle","state":"id","zip":"83616","x":"-116.3805630","y":"43.7092380","name":"July Blueberries LLC.","website":"","facebook":"","twitter":"","tags":"fresh-fruits"},{"type":"farm","street":"53 Hill Road","city":"Weiser","state":"id","zip":"83672","x":"-116.877558","y":"44.159926","name":"Kelley Orchards","website":"www.kelleyorchards.com","facebook":"https://www.facebook.com/KelleyOrchards","twitter":"https://www.twitter.com/KelleyOrchards","tags":"canned preserved fresh-fruits fresh-vegetables honey"},{"type":"farm","street":"675 east highway 30","city":"Soda Springs","state":"id","zip":"83276","x":"-111.579731","y":"42.651939","name":"Lau Family Farm, llc","website":"www.laufamilyfarm.com","facebook":"https://www.facebook.com/laufamilyfarm/","twitter":"","tags":"red-meat non-poultry-meat"},{"type":"farm","street":"7 Mac Nab Lane","city":"Carmen","state":"id","zip":"83462","x":"-113.892029","y":"45.258484","name":"Mountain Valley Farmstead","website":"MountainValleyFarmstead.com","facebook":"https://www.facebook.com/mountainvalleyfarmstead/","twitter":"","tags":"dairy products"},{"type":"farm","street":"2 Scott Lane","city":"Salmon","state":"id","zip":"83467","x":"-113.798368","y":"45.130416","name":"Mundy Farms","website":"","facebook":"","twitter":"","tags":"crafts woodworking fresh-vegetables"},{"type":"farm","street":"1826 E  4500 N","city":"Buhl ","state":"id","zip":"83316","x":"-114.6870020","y":"42.6568320","name":"NORTHVIEW ORCHARD","website":"","facebook":"NORTHVIEW ORCHARD","twitter":"","tags":"fresh-fruits nuts"},{"type":"farm","street":"660 South State Street","city":"Preston","state":"id","zip":"83263","x":"-111.8766600","y":"42.0842998","name":"Preston Berry Farms","website":"Prestonberryfarms@live.com","facebook":"https://www.facebook.com/pages/Preston-Berry-Farms/282551275111518","twitter":"","tags":"canned preserved fresh-fruits fresh-vegetables juices ciders"},{"type":"farm","street":"28405 W. Highway 53","city":"Hauser","state":"id","zip":"83854","x":"-117.036141","y":"47.739601","name":"Red Canoe Farms","website":"","facebook":"https://www.facebook.com/Redcanoefarms","twitter":"","tags":""},{"type":"farm","street":"4250 Valley View Road","city":"Emmett","state":"id","zip":"83617","x":"-116.677997","y":"43.870432","name":"Richardson Farm","website":"http://www.idahoberry.wordpress.com/","facebook":"https://www.facebook.com/idahoberry","twitter":"","tags":"fresh-fruits fresh-vegetables wine spirits beer hard-cider"},{"type":"farm","street":"2955 West South Slope Road","city":"Emmett","state":"id","zip":"83617","x":"-116.5663479","y":"43.8350104","name":"Wee Kings Orchard","website":"","facebook":"","twitter":"","tags":"eggs fresh-fruits"},{"type":"market","name":"Alpha Nursery Farmers' Market","website":"http://www.alpha-nursery.com","facebook":"","twitter":"","street":"12 Alpha Lane,","city":"Cascade","state":"id","zip":"83611","x":"-115.998","y":"44.4251","tags":"eggs herbs vegetables honey jams plants trees fruits"},{"type":"market","name":"Ashotn Farmers Market","website":"http://www.gardenshelper.blogspot.com","facebook":"","twitter":"","street":"Off Main Street","city":"Ashton","state":"id","zip":"83420","x":"-111.446","y":"44.0714","tags":""},{"type":"market","name":"Bitner Vineyards Farmers Market","website":"http://www.bitnervineyards.com","facebook":"","twitter":"","street":"Bitner Vineyards, 16645 Plum Rd.","city":"Caldwell","state":"id","zip":"83607","x":"-116.815","y":"43.6107","tags":""},{"type":"market","name":"Boise Farmers Market","website":"http://WWW.THEBOISEFARMERSMARKET.COM","facebook":"BOISE FARMERS MARKET","twitter":"BOISE FARMERS MARKET","street":"10TH & GROVE  - SUMMER MARKET","city":"Boise City","state":"id","zip":"83702","x":"-116.444084","y":"43.532957","tags":"organic baked goods cheese flowers eggs seafood herbs vegetables honey jams meat nuts plants poultry prepared-foods soap wine coffee fruits grains juices mushrooms wild"},{"type":"market","name":"BOISE FARMERS MARKET","website":"http://www.theboisefarmersmarket.com","facebook":"BOISE FARMERS MARKET","twitter":"BOISE FARMERS MARKET","street":"516 S. 8th Street","city":"Boise City","state":"id","zip":"83702","x":"-116.191930","y":"43.607980","tags":"organic baked goods cheese crafts eggs seafood herbs vegetables honey jams maple meat nuts poultry prepared-foods soap coffee beans fruits grains juices mushrooms wild"},{"type":"market","name":"Bonners Ferry Farmers Market","website":"http://www.bonnersferryfarmersmarket.org","facebook":"https://www.facebook.com/BonnersFerryFarmersMarket","twitter":"","street":"6400 Kootenai St","city":"Bonners Ferry","state":"id","zip":"83805","x":"-116.314","y":"48.6961","tags":"organic baked goods crafts flowers herbs vegetables honey jams plants prepared-foods soap"},{"type":"market","name":"Bovill Farmers Market","website":"","facebook":"","twitter":"","street":"Follow signs through Bovill","city":"Kendrick","state":"id","zip":"83537","x":"-116.615","y":"46.6771","tags":""},{"type":"market","name":"Caldwell Farmers Market","website":"http://www.caldwellidfarmersmarket.com","facebook":"https://www.facebook.com/pages/Caldwell-Farmers-Market/78644466683","twitter":"","street":"7th Street and Blaine","city":"Caldwell","state":"id","zip":"83605","x":"-116.6892","y":"43.66542","tags":"baked goods cheese crafts flowers eggs herbs vegetables honey jams nuts plants prepared-foods soap trees wine coffee fruits"},{"type":"market","name":"Cambridge Farmers Market","website":"http://www.cambridgeidaho.com","facebook":"","twitter":"","street":"Tower Park HWY 71","city":"Cambridge","state":"id","zip":"83610","x":"-116.678753","y":"44.572846","tags":"crafts flowers eggs herbs vegetables jams plants prepared-foods soap fruits"},{"type":"market","name":"Challis Community Farmers Market","website":"","facebook":"ChallisCommunityFarmersMarket","twitter":"","street":"City Park","city":"Challis","state":"id","zip":"83226","x":"-114.281864","y":"44.241110","tags":"baked goods crafts flowers eggs herbs vegetables honey jams plants prepared-foods soap trees coffee fruits grains"},{"type":"market","name":"Challis Community Farmers Market","website":"","facebook":"","twitter":"","street":"Challis City Park","city":"Challis ","state":"id","zip":"83226","x":"-114.227231","y":"44.505154","tags":"baked goods cheese crafts flowers eggs seafood herbs vegetables honey plants prepared-foods soap trees coffee fruits grains wild"},{"type":"market","name":"Chubbuck Farmers Market","website":"http://www.chubbuckfarmersmarket.com","facebook":"","twitter":"","street":"4166 Yellowstone Ave #1212","city":"Chubbuck","state":"id","zip":"83202","x":"-112.462","y":"42.9202","tags":""},{"type":"market","name":"Crossroads Farmers Market","website":"http://crossroadsfarmersmarket@gmail.com","facebook":"CrossroadsFarmersMarket","twitter":"","street":"111 West C Street","city":"Shoshone ","state":"id","zip":"83352","x":"-114.4085896","y":"42.9329363","tags":"baked goods crafts eggs vegetables honey jams prepared-foods soap fruits"},{"type":"market","name":"Crouch Farmers Market","website":"","facebook":"","twitter":"","street":"The Merc Parking Lot","city":"Crouch","state":"id","zip":"83602","x":"-115.97","y":"44.1135","tags":"baked goods crafts flowers herbs vegetables honey jams meat plants prepared-foods soap"},{"type":"market","name":"Dale's Saturday Market","website":"","facebook":"","twitter":"","street":"1296 Kennedy-Ford Road","city":"Potlatch","state":"id","zip":"","x":"-116.965","y":"46.9223","tags":""},{"type":"market","name":"East End Market at Bown Crossing","website":"","facebook":"www.facebook.com/eastendmarketatbowncrossing","twitter":"","street":"South Bown Way","city":"Boise","state":"id","zip":"83706","x":"-116.1549","y":"43.57426","tags":"organic baked goods cheese crafts flowers eggs herbs vegetables honey jams meat nursery plants poultry prepared-foods soap wine"},{"type":"market","name":"Emmett Farmers Market","website":"http://www.EmmettFarmersMarket.com","facebook":"","twitter":"","street":"Blaser Park at  Washington Ave (Hwy 52)","city":"Emmett","state":"id","zip":"83617","x":"-116.500558","y":"43.876265","tags":"baked goods cheese crafts flowers eggs herbs vegetables honey jams maple nursery nuts plants prepared-foods soap trees wine"},{"type":"market","name":"Farmer's Market at Sandpoint","website":"http://farmersmarketatsandpoint.com","facebook":"Farmers Market at Sandpoint","twitter":"","street":"Farmin Park, Oak & 3rd & 4th St.","city":"Sandpoint","state":"id","zip":"83864","x":"-116.6066410","y":"48.2501658","tags":"organic baked goods cheese crafts flowers eggs seafood honey jams meat plants poultry prepared-foods soap coffee fruits mushrooms pet food wild"},{"type":"market","name":"Gooding Farmers Market","website":"","facebook":"","twitter":"","street":"Idaho School for Deaf & Blind parking lot","city":"Gooding","state":"id","zip":"83330","x":"-114.755","y":"42.8653","tags":""},{"type":"market","name":"Grangeville Farmers Market","website":"","facebook":"https://m.facebook.com/groups/128365537173880?ref=bookmarks","twitter":"","street":"Main Street","city":"Grangeville ","state":"id","zip":"83530","x":"-116.1146234","y":"45.9245613","tags":"baked goods cheese crafts eggs herbs vegetables jams soap fruits"},{"type":"market","name":"Hailey Farmers' Market","website":"http://www.wrfarmersmarket.org","facebook":"","twitter":"","street":"Main Street between Sturtevants and Bank of America","city":"Hailey","state":"id","zip":"83333","x":"-114.3167","y":"43.52089","tags":"organic baked goods cheese crafts flowers eggs herbs vegetables honey jams meat nursery nuts plants poultry prepared-foods soap wine"},{"type":"market","name":"Harrison Grange","website":"","facebook":"","twitter":"","street":"Harrison Grange Park in Harrison","city":"Harrison","state":"id","zip":"83833","x":"-116.785","y":"47.4587","tags":""},{"type":"market","name":"Hope Community Market","website":"","facebook":"","twitter":"","street":"415 Wellington Place","city":"HOpe","state":"id","zip":"83836","x":"-116.297","y":"48.2417","tags":"baked goods flowers herbs vegetables jams plants prepared-foods soap"},{"type":"market","name":"Idaho Falls Farmers' Market","website":"http://www.idahofallsfarmersmarket.org/","facebook":"https://www.facebook.com/pages/Idaho-Falls-Farmers-Market/83193557893","twitter":"","street":"A - D St. Memorial Drive","city":"Idaho Falls","state":"id","zip":"83402","x":"-112.042508","y":"43.494592","tags":"baked goods cheese crafts flowers eggs herbs vegetables honey jams maple meat plants prepared-foods soap trees coffee fruits grains juices"},{"type":"market","name":"Kendrick-Juliaetta Farmers Market","website":"","facebook":"","twitter":"","street":"Kendrick City Park","city":"Kendrick","state":"id","zip":"83537","x":"-116.647","y":"46.6141","tags":""},{"type":"market","name":"Ketchum Farmers' Market","website":"http://www.wrfarmersmarket.org","facebook":"","twitter":"","street":"4th St Heritage Corridor Btwn. Walnut & East Ave.","city":"Ketchum","state":"id","zip":"83340","x":"-114.3637219","y":"43.6825762","tags":"organic baked goods cheese crafts flowers eggs herbs vegetables honey jams meat nursery nuts plants poultry prepared-foods soap trees wine"},{"type":"market","name":"Kooskia/Kamiah Farmers Market","website":"","facebook":"","twitter":"","street":"Longcamp RV Park, Mile Post 68 on Hwy. 12","city":"Kamiah","state":"id","zip":"83536","x":"-116.029","y":"46.2271","tags":""},{"type":"market","name":"Kootenai County Farmers Market I","website":"http://www.kootenaicountyfarmersmarket.com","facebook":"","twitter":"","street":"Corner of Hwy. 95 & Prairie Ave.","city":"Hayden","state":"id","zip":"83835","x":"-116.792","y":"47.7444","tags":""},{"type":"market","name":"Kootenai County Farmers Market II","website":"http://www.kootenaicountyfarmersmarket.com","facebook":"","twitter":"","street":"5th between Sherman and Front St.","city":"Hayden","state":"id","zip":"83835","x":"-116.787","y":"47.766","tags":""},{"type":"market","name":"Kuna Farmers Market","website":"http://www.kunafarmersmarket.com","facebook":"https://www.facebook.com/pages/Kuna-Farmers-Market/104827502889837","twitter":"","street":"Main Street and Linder","city":"Kuna","state":"id","zip":"83634","x":"-116.415209","y":"43.490515","tags":"baked goods crafts eggs herbs vegetables honey jams plants prepared-foods soap trees beans fruits"},{"type":"market","name":"Laughing Daisy Neighborhood Market","website":"","facebook":"","twitter":"","street":"217 Main Street","city":"Kimberly","state":"id","zip":"83341","x":"-114.365","y":"42.5348","tags":""},{"type":"market","name":"Lemhi County Farmers' Market","website":"http://www.lemhicountyfarmersmarket.wordpress.com","facebook":"www.facebook.com/lemhicountyfarmersmarket","twitter":"","street":"103 Main St","city":"Salmon","state":"id","zip":"83467","x":"-113.897794","y":"45.176588","tags":"baked goods crafts flowers eggs herbs vegetables honey jams meat plants prepared-foods soap coffee fruits pet food wild"},{"type":"market","name":"Lewiston Farmers Market","website":"http://www.beautifuldowntownlewiston.com/lfm/","facebook":"https://www.facebook.com/LewistonFM","twitter":"","street":"","city":"Lewiston","state":"id","zip":"83501","x":"-117.024921","y":"46.422068","tags":"baked goods crafts flowers eggs herbs honey jams prepared-foods soap wine fruits"},{"type":"market","name":"Mackay Community Farmers Market","website":"","facebook":"","twitter":"","street":"Pine and Elm","city":"Mackay","state":"id","zip":"83251","x":"-114.282","y":"44.2412","tags":"baked goods crafts herbs jams plants prepared-foods soap"},{"type":"market","name":"Marsing Farmers Market","website":"http://www.marsingfarmersmarket.com","facebook":"","twitter":"","street":"Hwy 55 & Snake River","city":"Marsing","state":"id","zip":"83639","x":"-116.801","y":"43.5473","tags":"organic baked goods crafts flowers herbs vegetables honey jams meat plants prepared-foods soap"},{"type":"market","name":"McCall Farmers Market","website":"","facebook":"https://www.Facebook.com/McCallFarmersMarket","twitter":"","street":"Pine St., Between Razzle Dazzle & AmeriTitle","city":"McCall","state":"id","zip":"83638","x":"-116.095","y":"44.9121","tags":"organic baked goods flowers seafood herbs vegetables honey jams meat plants prepared-foods soap"},{"type":"market","name":"Meridian Farmers' Market - Thursday's \"Arrive After Five\"","website":"http://www.meridianfarmersmarket.com","facebook":"","twitter":"","street":"1626 Wells Avenue - Gramercy District","city":"Boise","state":"id","zip":"83709","x":"-116.299","y":"43.5517","tags":""},{"type":"market","name":"Meridian Farmers' Market and Bazaar","website":"http://www.MeridianFarmersMarket.com","facebook":"","twitter":"","street":"1200 N. Eagle Rd. (Meridian Crossroads Parking Lot)","city":"Meridian","state":"id","zip":"83642","x":"-116.354","y":"43.6158","tags":"organic baked goods cheese crafts flowers seafood herbs vegetables honey jams maple meat nuts plants prepared-foods soap"},{"type":"market","name":"Meridian Main Street Market","website":"http://www.meridianmainstreetmarket.com","facebook":"https://www.facebook.com/MeridianMainStreetMarket/","twitter":"","street":"33 E. Broadway Ave.","city":"Meridian","state":"id","zip":"83642","x":"-116.392301","y":"43.609999","tags":"baked goods crafts flowers eggs vegetables honey jams meat poultry prepared-foods soap wine coffee grains pet food"},{"type":"market","name":"Middleton Farmers Market","website":"http://www.middletonfarmersmarket.webs.com","facebook":"","twitter":"","street":"hwy 44 and S Middleton Road","city":"Middleton Idaho","state":"id","zip":"83644","x":"-116.618","y":"43.7057","tags":"baked goods crafts flowers herbs vegetables honey meat nuts plants prepared-foods soap"},{"type":"market","name":"Mini-Cassia Farmers' Market","website":"","facebook":"https://www.facebook.com/YouthBuildRfd","twitter":"","street":"Gossner Cheese Outlet Store","city":"Burley","state":"id","zip":"83318","x":"-113.761","y":"42.5476","tags":""},{"type":"market","name":"Moscow Farmers Market","website":"http://www.ci.moscow.id.us/197/Farmers-Market","facebook":"https://www.facebook.com/MoscowFarmersMarket/","twitter":"https://twitter.com/mosfarmersmkt","street":"400 South Main, Moscow, Idaho 83843","city":"Moscow","state":"id","zip":"83843","x":"-117.0014061","y":"46.7317086","tags":"organic baked goods cheese crafts flowers eggs herbs vegetables honey jams meat nuts plants poultry prepared-foods soap trees wine fruits grains juices mushrooms pet food wild"},{"type":"market","name":"Moscow Food Co-op Tuesday Growers Market","website":"","facebook":"https://www.facebook.com/pages/Moscow-Food-Coop-Tuesday-Growers-Market/107124975993233?ref=hl","twitter":"","street":"5th and Washington Streets","city":"Moscow","state":"id","zip":"83843","x":"-117.0005","y":"46.73074","tags":"cheese flowers eggs herbs vegetables honey jams meat plants prepared-foods trees fruits"},{"type":"market","name":"Mountain Home Farmers Market","website":"","facebook":"","twitter":"","street":"Railroad Park","city":"Mountain Home","state":"id","zip":"","x":"-115.696","y":"43.1316","tags":"baked goods crafts herbs vegetables honey jams meat plants soap"},{"type":"market","name":"Nampa Farmers' Market","website":"http://www.nampafarmersmarket.com","facebook":"https://www.facebook.com/nampa.farmersmarket","twitter":"","street":"13th Avenue South and Front Street","city":"Nampa","state":"id","zip":"83687","x":"-116.5578006","y":"43.5787840","tags":"baked goods crafts flowers eggs herbs vegetables honey jams meat plants poultry prepared-foods soap trees coffee fruits"},{"type":"market","name":"Orofino Farmers Market","website":"http://www.orofinofarmersmarket.com/","facebook":"https://www.facebook.com/Orofino-Farmers-Market-139500116131731/","twitter":"","street":"101 Michigan Ave.","city":"Orofino","state":"id","zip":"83544","x":"-116.255806","y":"46.477929","tags":"baked goods cheese crafts flowers eggs herbs vegetables honey jams meat nuts plants prepared-foods soap fruits"},{"type":"market","name":"Payette Farmers Market","website":"http://www.payettevalleyfoodconnection.com","facebook":"www.facebook.com/payettefarmersmarket/","twitter":"","street":"Kiwanis Park","city":"Payette ","state":"id","zip":"83661","x":"-116.935907","y":"44.069117","tags":"baked goods crafts vegetables fruits"},{"type":"market","name":"Portneuf Valley Farmers Market ","website":"http://www.portneufvalleyfarmersmarket.com/","facebook":"","twitter":"","street":"420 N. Main St.","city":"Pocatello","state":"id","zip":"83204","x":"-112.453","y":"42.8647","tags":""},{"type":"market","name":"Priest River Farmer's and Flea Market","website":"","facebook":"","twitter":"","street":"1015 Aleni Hwy","city":"Priest River","state":"id","zip":"83856","x":"-116.908","y":"48.1844","tags":""},{"type":"market","name":"Public Market at The Village at Meridian","website":"http://adrianandsabine.com/events/","facebook":"https://www.facebook.com/PublicMarketVillageAtMeridian","twitter":"","street":"3600 Fairview","city":"Meridian ","state":"id","zip":"83646","x":"-116.353092","y":"43.622299","tags":"organic baked goods crafts herbs vegetables honey meat plants poultry prepared-foods soap fruits"},{"type":"market","name":"Rathdrum Farmers Market","website":"http://www.rathdrumfarmersmarket.org","facebook":"","twitter":"","street":"City Park off Hwy 53","city":"Rathdrum","state":"id","zip":"83858","x":"-116.889","y":"47.8159","tags":""},{"type":"market","name":"Rexburg Farmers Market","website":"http://www.rexburgfarmersmarket.org/","facebook":"https://www.facebook.com/rexburgfarmersmarket/","twitter":"https://twitter.com/RexburgMarket","street":"118 College Ave.","city":"Rexburg","state":"id","zip":"83440","x":"-111.782405","y":"43.823218","tags":"baked goods crafts flowers eggs herbs vegetables honey jams plants prepared-foods soap fruits grains"},{"type":"market","name":"Salmon Tract Farmers Market","website":"","facebook":"","twitter":"","street":"Behind Boda's Bar & Grill, Hwy. 93","city":"Hollister","state":"id","zip":"83301","x":"-114.575","y":"42.3532","tags":""},{"type":"market","name":"Silver Valley Farmers Market","website":"http://www.silvervalleychamber.com/farmers-market.htm","facebook":"https://business.facebook.com/silvervalleymarket/?business_id=522814814564925","twitter":"","street":"10 Station Ave","city":"Kellogg","state":"id","zip":"83837","x":"-116.120504","y":"47.536412","tags":"baked goods cheese crafts flowers eggs vegetables prepared-foods soap wine coffee fruits juices"},{"type":"market","name":"Six Rivers Market","website":"http://www.sixriversmarket.org","facebook":"","twitter":"","street":"524 Church St.","city":"Sandpoint","state":"id","zip":"83864","x":"-116.555","y":"48.274","tags":"organic baked goods cheese crafts flowers herbs vegetables honey jams meat plants soap"},{"type":"market","name":"Soda Springs Farmers Market","website":"","facebook":"","twitter":"","street":"City Park","city":"Soda Springs","state":"id","zip":"83276","x":"-111.605","y":"42.6546","tags":"baked goods cheese crafts flowers herbs vegetables honey jams plants prepared-foods"},{"type":"market","name":"Southeast Idaho Farmers Market","website":"http://www.pocatellofarmersmarket.com","facebook":"","twitter":"","street":"400 Block of Union Pacific Ave.","city":"Pocatello","state":"id","zip":"83205","x":"-112.453","y":"42.8648","tags":""},{"type":"market","name":"St. Anthony Farmers Market","website":"http://www.gardenshelper.blogspot.com","facebook":"","twitter":"","street":"","city":"St. Anthony","state":"id","zip":"","x":"-116.895","y":"47.809","tags":""},{"type":"market","name":"St. Maries Farmers Market","website":"","facebook":"https://www.facebook.com/stmariesfarmersmarkets/","twitter":"","street":"","city":"St. Maries","state":"id","zip":"83861","x":"-116.586445","y":"47.318286","tags":"baked goods crafts flowers eggs vegetables honey jams plants soap coffee fruits wild"},{"type":"market","name":"Sunday Market","website":"","facebook":"","twitter":"","street":"Downtown on 6th and Sherman","city":"Couer d'Alene","state":"id","zip":"83814","x":"-116.778","y":"47.6735","tags":""},{"type":"market","name":"Teton Valley Farmers Market","website":"","facebook":"https://www.facebook.com/TetonValleyFarmersMarket","twitter":"","street":"60 So. Main St.","city":"Driggs","state":"id","zip":"83422","x":"-111.1110771","y":"43.7232239","tags":"organic baked goods cheese crafts flowers eggs herbs vegetables honey jams maple meat plants poultry prepared-foods soap trees coffee fruits grains mushrooms pet food wild"},{"type":"market","name":"Troy Community Market","website":"http://www.troyhorizons.org","facebook":"","twitter":"","street":"418 s main","city":"Troy","state":"id","zip":"83871","x":"-116.769","y":"46.7357","tags":""},{"type":"market","name":"Twin Falls Farmers Market","website":"http://www.kmvt.com/news/local/Twin-Falls-Farmers-Market-Doing-Better-Than-Expected-214483731.html","facebook":"","twitter":"","street":"North College Road","city":"Twin Falls","state":"id","zip":"83303","x":"-114.467","y":"42.5849","tags":""},{"type":"market","name":"Victor Idaho Farmers Market ","website":"http://www.victorfarmersmarket.webs.com","facebook":"","twitter":"","street":"58 N. Main St.","city":" Victor","state":"id","zip":"83455","x":"-111.111","y":"43.6039","tags":""},{"type":"market","name":"Weiser Farmer's Market","website":"","facebook":"Weiser Farmers Market","twitter":"","street":"1 State Street","city":"Weiser ","state":"id","zip":"83672","x":"-116.971130","y":"44.244083","tags":"baked goods crafts eggs herbs vegetables honey jams prepared-foods soap fruits"},{"type":"market","name":"West End Senior Center Wednesday Farmer's Market","website":"http://www.buhlseniors.org","facebook":"","twitter":"","street":"1010 Main Street","city":"Buhl","state":"id","zip":"83316","x":"-114.760161","y":"42.598752","tags":"organic baked goods cheese crafts flowers eggs herbs vegetables honey jams plants prepared-foods soap fruits grains"}]
