"city","facebook","name","state","street","tags","twitter","type","website","x","y","zip"
"Rigby","","Ashland Produce","id","158 N 4544 E","fresh-fruits fresh-vegetables","","farm","","-111.7958160","43.6501639","83442"
"Caldwell","","Black Dog Berry Farm and Market Garden","id","14623 Galloway Rd","cut-flowers eggs herbs fresh-fruits fresh-vegetables","","farm","","-116.683530","43.749677","83607"
"Downey","","Bradys Plant Ranch","id","3525 E. Virginia Road","baked-goods bedding plants canned preserved crafts woodworking dairy products eggs herbs fresh-fruits fresh-vegetables honey juices ciders nursery-stock prepared-foods red-meat non-poultry-meat","","farm","www.bradysplantranch.com","-112.1586133","42.5034199","83234"
"Kuna","https://www.facebook.com/Aplles4uall","Cabalo's Orchard & Gardens","id","2087 West King Rd","eggs fresh-fruits fresh-vegetables honey juices ciders poultry fowl","","farm","cabalosorchard.com","-116.439328","43.473453","83634"
"POCATELLO","","Giving Ground Farm","id","147 ELLSWORTH RD","cut-flowers dry beans herbs fresh-vegetables nursery-stock","","farm","www.givinggroundseeds.com","-112.462140","43.022498","83202"
"Kuna","https://www.facebook.com/goshenfarm","Goshen Farm, LLC","id","Kuna Rd/cloverdale Area","dairy products","","farm","www.goshenfarm.weebly.com","-116.4201223","43.4918307","83634"
"Blackfoot","https://www.facebook.com/GroveCityGardens?ref_type=bookmark","Grove City Gardens, LLC","id","246 Wet 200 North","","https://twitter.com/grovecitygarden","farm","","-112.345567","43.225728","83221"
"Eagle","","July Blueberries LLC.","id","2190 W Burns Street","fresh-fruits","","farm","","-116.3805630","43.7092380","83616"
"Weiser","https://www.facebook.com/KelleyOrchards","Kelley Orchards","id","53 Hill Road","canned preserved fresh-fruits fresh-vegetables honey","https://www.twitter.com/KelleyOrchards","farm","www.kelleyorchards.com","-116.877558","44.159926","83672"
"Soda Springs","https://www.facebook.com/laufamilyfarm/","Lau Family Farm, llc","id","675 east highway 30","red-meat non-poultry-meat","","farm","www.laufamilyfarm.com","-111.579731","42.651939","83276"
"Carmen","https://www.facebook.com/mountainvalleyfarmstead/","Mountain Valley Farmstead","id","7 Mac Nab Lane","dairy products","","farm","MountainValleyFarmstead.com","-113.892029","45.258484","83462"
"Salmon","","Mundy Farms","id","2 Scott Lane","crafts woodworking fresh-vegetables","","farm","","-113.798368","45.130416","83467"
"Buhl ","NORTHVIEW ORCHARD","NORTHVIEW ORCHARD","id","1826 E  4500 N","fresh-fruits nuts","","farm","","-114.6870020","42.6568320","83316"
"Preston","https://www.facebook.com/pages/Preston-Berry-Farms/282551275111518","Preston Berry Farms","id","660 South State Street","canned preserved fresh-fruits fresh-vegetables juices ciders","","farm","Prestonberryfarms@live.com","-111.8766600","42.0842998","83263"
"Hauser","https://www.facebook.com/Redcanoefarms","Red Canoe Farms","id","28405 W. Highway 53","","","farm","","-117.036141","47.739601","83854"
"Emmett","https://www.facebook.com/idahoberry","Richardson Farm","id","4250 Valley View Road","fresh-fruits fresh-vegetables wine spirits beer hard-cider","","farm","http://www.idahoberry.wordpress.com/","-116.677997","43.870432","83617"
"Emmett","","Wee Kings Orchard","id","2955 West South Slope Road","eggs fresh-fruits","","farm","","-116.5663479","43.8350104","83617"
"Cascade","","Alpha Nursery Farmers' Market","id","12 Alpha Lane,","eggs herbs vegetables honey jams plants trees fruits","","market","http://www.alpha-nursery.com","-115.998","44.4251","83611"
"Ashton","","Ashotn Farmers Market","id","Off Main Street","","","market","http://www.gardenshelper.blogspot.com","-111.446","44.0714","83420"
"Caldwell","","Bitner Vineyards Farmers Market","id","Bitner Vineyards, 16645 Plum Rd.","","","market","http://www.bitnervineyards.com","-116.815","43.6107","83607"
"Boise City","BOISE FARMERS MARKET","Boise Farmers Market","id","10TH & GROVE  - SUMMER MARKET","organic baked goods cheese flowers eggs seafood herbs vegetables honey jams meat nuts plants poultry prepared-foods soap wine coffee fruits grains juices mushrooms wild","BOISE FARMERS MARKET","market","http://WWW.THEBOISEFARMERSMARKET.COM","-116.444084","43.532957","83702"
"Boise City","BOISE FARMERS MARKET","BOISE FARMERS MARKET","id","516 S. 8th Street","organic baked goods cheese crafts eggs seafood herbs vegetables honey jams maple meat nuts poultry prepared-foods soap coffee beans fruits grains juices mushrooms wild","BOISE FARMERS MARKET","market","http://www.theboisefarmersmarket.com","-116.191930","43.607980","83702"
"Bonners Ferry","https://www.facebook.com/BonnersFerryFarmersMarket","Bonners Ferry Farmers Market","id","6400 Kootenai St","organic baked goods crafts flowers herbs vegetables honey jams plants prepared-foods soap","","market","http://www.bonnersferryfarmersmarket.org","-116.314","48.6961","83805"
"Kendrick","","Bovill Farmers Market","id","Follow signs through Bovill","","","market","","-116.615","46.6771","83537"
"Caldwell","https://www.facebook.com/pages/Caldwell-Farmers-Market/78644466683","Caldwell Farmers Market","id","7th Street and Blaine","baked goods cheese crafts flowers eggs herbs vegetables honey jams nuts plants prepared-foods soap trees wine coffee fruits","","market","http://www.caldwellidfarmersmarket.com","-116.6892","43.66542","83605"
"Cambridge","","Cambridge Farmers Market","id","Tower Park HWY 71","crafts flowers eggs herbs vegetables jams plants prepared-foods soap fruits","","market","http://www.cambridgeidaho.com","-116.678753","44.572846","83610"
"Challis","ChallisCommunityFarmersMarket","Challis Community Farmers Market","id","City Park","baked goods crafts flowers eggs herbs vegetables honey jams plants prepared-foods soap trees coffee fruits grains","","market","","-114.281864","44.241110","83226"
"Challis ","","Challis Community Farmers Market","id","Challis City Park","baked goods cheese crafts flowers eggs seafood herbs vegetables honey plants prepared-foods soap trees coffee fruits grains wild","","market","","-114.227231","44.505154","83226"
"Chubbuck","","Chubbuck Farmers Market","id","4166 Yellowstone Ave #1212","","","market","http://www.chubbuckfarmersmarket.com","-112.462","42.9202","83202"
"Shoshone ","CrossroadsFarmersMarket","Crossroads Farmers Market","id","111 West C Street","baked goods crafts eggs vegetables honey jams prepared-foods soap fruits","","market","http://crossroadsfarmersmarket@gmail.com","-114.4085896","42.9329363","83352"
"Crouch","","Crouch Farmers Market","id","The Merc Parking Lot","baked goods crafts flowers herbs vegetables honey jams meat plants prepared-foods soap","","market","","-115.97","44.1135","83602"
"Potlatch","","Dale's Saturday Market","id","1296 Kennedy-Ford Road","","","market","","-116.965","46.9223",""
"Boise","www.facebook.com/eastendmarketatbowncrossing","East End Market at Bown Crossing","id","South Bown Way","organic baked goods cheese crafts flowers eggs herbs vegetables honey jams meat nursery plants poultry prepared-foods soap wine","","market","","-116.1549","43.57426","83706"
"Emmett","","Emmett Farmers Market","id","Blaser Park at  Washington Ave (Hwy 52)","baked goods cheese crafts flowers eggs herbs vegetables honey jams maple nursery nuts plants prepared-foods soap trees wine","","market","http://www.EmmettFarmersMarket.com","-116.500558","43.876265","83617"
"Sandpoint","Farmers Market at Sandpoint","Farmer's Market at Sandpoint","id","Farmin Park, Oak & 3rd & 4th St.","organic baked goods cheese crafts flowers eggs seafood honey jams meat plants poultry prepared-foods soap coffee fruits mushrooms pet food wild","","market","http://farmersmarketatsandpoint.com","-116.6066410","48.2501658","83864"
"Gooding","","Gooding Farmers Market","id","Idaho School for Deaf & Blind parking lot","","","market","","-114.755","42.8653","83330"
"Grangeville ","https://m.facebook.com/groups/128365537173880?ref=bookmarks","Grangeville Farmers Market","id","Main Street","baked goods cheese crafts eggs herbs vegetables jams soap fruits","","market","","-116.1146234","45.9245613","83530"
"Hailey","","Hailey Farmers' Market","id","Main Street between Sturtevants and Bank of America","organic baked goods cheese crafts flowers eggs herbs vegetables honey jams meat nursery nuts plants poultry prepared-foods soap wine","","market","http://www.wrfarmersmarket.org","-114.3167","43.52089","83333"
"Harrison","","Harrison Grange","id","Harrison Grange Park in Harrison","","","market","","-116.785","47.4587","83833"
"HOpe","","Hope Community Market","id","415 Wellington Place","baked goods flowers herbs vegetables jams plants prepared-foods soap","","market","","-116.297","48.2417","83836"
"Idaho Falls","https://www.facebook.com/pages/Idaho-Falls-Farmers-Market/83193557893","Idaho Falls Farmers' Market","id","A - D St. Memorial Drive","baked goods cheese crafts flowers eggs herbs vegetables honey jams maple meat plants prepared-foods soap trees coffee fruits grains juices","","market","http://www.idahofallsfarmersmarket.org/","-112.042508","43.494592","83402"
"Kendrick","","Kendrick-Juliaetta Farmers Market","id","Kendrick City Park","","","market","","-116.647","46.6141","83537"
"Ketchum","","Ketchum Farmers' Market","id","4th St Heritage Corridor Btwn. Walnut & East Ave.","organic baked goods cheese crafts flowers eggs herbs vegetables honey jams meat nursery nuts plants poultry prepared-foods soap trees wine","","market","http://www.wrfarmersmarket.org","-114.3637219","43.6825762","83340"
"Kamiah","","Kooskia/Kamiah Farmers Market","id","Longcamp RV Park, Mile Post 68 on Hwy. 12","","","market","","-116.029","46.2271","83536"
"Hayden","","Kootenai County Farmers Market I","id","Corner of Hwy. 95 & Prairie Ave.","","","market","http://www.kootenaicountyfarmersmarket.com","-116.792","47.7444","83835"
"Hayden","","Kootenai County Farmers Market II","id","5th between Sherman and Front St.","","","market","http://www.kootenaicountyfarmersmarket.com","-116.787","47.766","83835"
"Kuna","https://www.facebook.com/pages/Kuna-Farmers-Market/104827502889837","Kuna Farmers Market","id","Main Street and Linder","baked goods crafts eggs herbs vegetables honey jams plants prepared-foods soap trees beans fruits","","market","http://www.kunafarmersmarket.com","-116.415209","43.490515","83634"
"Kimberly","","Laughing Daisy Neighborhood Market","id","217 Main Street","","","market","","-114.365","42.5348","83341"
"Salmon","www.facebook.com/lemhicountyfarmersmarket","Lemhi County Farmers' Market","id","103 Main St","baked goods crafts flowers eggs herbs vegetables honey jams meat plants prepared-foods soap coffee fruits pet food wild","","market","http://www.lemhicountyfarmersmarket.wordpress.com","-113.897794","45.176588","83467"
"Lewiston","https://www.facebook.com/LewistonFM","Lewiston Farmers Market","id","","baked goods crafts flowers eggs herbs honey jams prepared-foods soap wine fruits","","market","http://www.beautifuldowntownlewiston.com/lfm/","-117.024921","46.422068","83501"
"Mackay","","Mackay Community Farmers Market","id","Pine and Elm","baked goods crafts herbs jams plants prepared-foods soap","","market","","-114.282","44.2412","83251"
"Marsing","","Marsing Farmers Market","id","Hwy 55 & Snake River","organic baked goods crafts flowers herbs vegetables honey jams meat plants prepared-foods soap","","market","http://www.marsingfarmersmarket.com","-116.801","43.5473","83639"
"McCall","https://www.Facebook.com/McCallFarmersMarket","McCall Farmers Market","id","Pine St., Between Razzle Dazzle & AmeriTitle","organic baked goods flowers seafood herbs vegetables honey jams meat plants prepared-foods soap","","market","","-116.095","44.9121","83638"
"Boise","","Meridian Farmers' Market - Thursday's ""Arrive After Five""","id","1626 Wells Avenue - Gramercy District","","","market","http://www.meridianfarmersmarket.com","-116.299","43.5517","83709"
"Meridian","","Meridian Farmers' Market and Bazaar","id","1200 N. Eagle Rd. (Meridian Crossroads Parking Lot)","organic baked goods cheese crafts flowers seafood herbs vegetables honey jams maple meat nuts plants prepared-foods soap","","market","http://www.MeridianFarmersMarket.com","-116.354","43.6158","83642"
"Meridian","https://www.facebook.com/MeridianMainStreetMarket/","Meridian Main Street Market","id","33 E. Broadway Ave.","baked goods crafts flowers eggs vegetables honey jams meat poultry prepared-foods soap wine coffee grains pet food","","market","http://www.meridianmainstreetmarket.com","-116.392301","43.609999","83642"
"Middleton Idaho","","Middleton Farmers Market","id","hwy 44 and S Middleton Road","baked goods crafts flowers herbs vegetables honey meat nuts plants prepared-foods soap","","market","http://www.middletonfarmersmarket.webs.com","-116.618","43.7057","83644"
"Burley","https://www.facebook.com/YouthBuildRfd","Mini-Cassia Farmers' Market","id","Gossner Cheese Outlet Store","","","market","","-113.761","42.5476","83318"
"Moscow","https://www.facebook.com/MoscowFarmersMarket/","Moscow Farmers Market","id","400 South Main, Moscow, Idaho 83843","organic baked goods cheese crafts flowers eggs herbs vegetables honey jams meat nuts plants poultry prepared-foods soap trees wine fruits grains juices mushrooms pet food wild","https://twitter.com/mosfarmersmkt","market","http://www.ci.moscow.id.us/197/Farmers-Market","-117.0014061","46.7317086","83843"
"Moscow","https://www.facebook.com/pages/Moscow-Food-Coop-Tuesday-Growers-Market/107124975993233?ref=hl","Moscow Food Co-op Tuesday Growers Market","id","5th and Washington Streets","cheese flowers eggs herbs vegetables honey jams meat plants prepared-foods trees fruits","","market","","-117.0005","46.73074","83843"
"Mountain Home","","Mountain Home Farmers Market","id","Railroad Park","baked goods crafts herbs vegetables honey jams meat plants soap","","market","","-115.696","43.1316",""
"Nampa","https://www.facebook.com/nampa.farmersmarket","Nampa Farmers' Market","id","13th Avenue South and Front Street","baked goods crafts flowers eggs herbs vegetables honey jams meat plants poultry prepared-foods soap trees coffee fruits","","market","http://www.nampafarmersmarket.com","-116.5578006","43.5787840","83687"
"Orofino","https://www.facebook.com/Orofino-Farmers-Market-139500116131731/","Orofino Farmers Market","id","101 Michigan Ave.","baked goods cheese crafts flowers eggs herbs vegetables honey jams meat nuts plants prepared-foods soap fruits","","market","http://www.orofinofarmersmarket.com/","-116.255806","46.477929","83544"
"Payette ","www.facebook.com/payettefarmersmarket/","Payette Farmers Market","id","Kiwanis Park","baked goods crafts vegetables fruits","","market","http://www.payettevalleyfoodconnection.com","-116.935907","44.069117","83661"
"Pocatello","","Portneuf Valley Farmers Market ","id","420 N. Main St.","","","market","http://www.portneufvalleyfarmersmarket.com/","-112.453","42.8647","83204"
"Priest River","","Priest River Farmer's and Flea Market","id","1015 Aleni Hwy","","","market","","-116.908","48.1844","83856"
"Meridian ","https://www.facebook.com/PublicMarketVillageAtMeridian","Public Market at The Village at Meridian","id","3600 Fairview","organic baked goods crafts herbs vegetables honey meat plants poultry prepared-foods soap fruits","","market","http://adrianandsabine.com/events/","-116.353092","43.622299","83646"
"Rathdrum","","Rathdrum Farmers Market","id","City Park off Hwy 53","","","market","http://www.rathdrumfarmersmarket.org","-116.889","47.8159","83858"
"Rexburg","https://www.facebook.com/rexburgfarmersmarket/","Rexburg Farmers Market","id","118 College Ave.","baked goods crafts flowers eggs herbs vegetables honey jams plants prepared-foods soap fruits grains","https://twitter.com/RexburgMarket","market","http://www.rexburgfarmersmarket.org/","-111.782405","43.823218","83440"
"Hollister","","Salmon Tract Farmers Market","id","Behind Boda's Bar & Grill, Hwy. 93","","","market","","-114.575","42.3532","83301"
"Kellogg","https://business.facebook.com/silvervalleymarket/?business_id=522814814564925","Silver Valley Farmers Market","id","10 Station Ave","baked goods cheese crafts flowers eggs vegetables prepared-foods soap wine coffee fruits juices","","market","http://www.silvervalleychamber.com/farmers-market.htm","-116.120504","47.536412","83837"
"Sandpoint","","Six Rivers Market","id","524 Church St.","organic baked goods cheese crafts flowers herbs vegetables honey jams meat plants soap","","market","http://www.sixriversmarket.org","-116.555","48.274","83864"
"Soda Springs","","Soda Springs Farmers Market","id","City Park","baked goods cheese crafts flowers herbs vegetables honey jams plants prepared-foods","","market","","-111.605","42.6546","83276"
"Pocatello","","Southeast Idaho Farmers Market","id","400 Block of Union Pacific Ave.","","","market","http://www.pocatellofarmersmarket.com","-112.453","42.8648","83205"
"St. Anthony","","St. Anthony Farmers Market","id","","","","market","http://www.gardenshelper.blogspot.com","-116.895","47.809",""
"St. Maries","https://www.facebook.com/stmariesfarmersmarkets/","St. Maries Farmers Market","id","","baked goods crafts flowers eggs vegetables honey jams plants soap coffee fruits wild","","market","","-116.586445","47.318286","83861"
"Couer d'Alene","","Sunday Market","id","Downtown on 6th and Sherman","","","market","","-116.778","47.6735","83814"
"Driggs","https://www.facebook.com/TetonValleyFarmersMarket","Teton Valley Farmers Market","id","60 So. Main St.","organic baked goods cheese crafts flowers eggs herbs vegetables honey jams maple meat plants poultry prepared-foods soap trees coffee fruits grains mushrooms pet food wild","","market","","-111.1110771","43.7232239","83422"
"Troy","","Troy Community Market","id","418 s main","","","market","http://www.troyhorizons.org","-116.769","46.7357","83871"
"Twin Falls","","Twin Falls Farmers Market","id","North College Road","","","market","http://www.kmvt.com/news/local/Twin-Falls-Farmers-Market-Doing-Better-Than-Expected-214483731.html","-114.467","42.5849","83303"
" Victor","","Victor Idaho Farmers Market ","id","58 N. Main St.","","","market","http://www.victorfarmersmarket.webs.com","-111.111","43.6039","83455"
"Weiser ","Weiser Farmers Market","Weiser Farmer's Market","id","1 State Street","baked goods crafts eggs herbs vegetables honey jams prepared-foods soap fruits","","market","","-116.971130","44.244083","83672"
"Buhl","","West End Senior Center Wednesday Farmer's Market","id","1010 Main Street","organic baked goods cheese crafts flowers eggs herbs vegetables honey jams plants prepared-foods soap fruits grains","","market","http://www.buhlseniors.org","-114.760161","42.598752","83316"
