"city","facebook","name","state","street","tags","twitter","type","website","x","y","zip"
"Palmer","","Arctic Organics","ak","1305 N. Smith Rd.","fresh-fruits fresh-vegetables","","farm","Arctic Organics.com","-149.025325","61.593207","99645"
"Eagle River","","Monastery Acres","ak","19045 Darby Road","bedding plants canned preserved herbs fresh-fruits fresh-vegetables juices ciders soap body-care","","farm","","-149.527083","61.360154","99577"
"Phenix City","https://www.facebook.com/AlabamaSerenityFarm/","Serenity Farm","ak","73 Brown Rd","","","farm","http://thinkserenity.com","-85.182649","32.447297","36869"
"Fairbanks","https://www.facebook.com/whitefireweedfarm","White Fireweed Farm","ak","6400 Baseline","","","farm","","-146.976997","64.867087","99712"
"Anchorage","","Anchorage Farmers Market","ak","1420 Cordova Street","baked goods flowers seafood herbs vegetables jams meat plants prepared trees fruits","","market","http://www.anchoragefarmersmarket.org","-149.880724","61.208059","99645"
"Anchorage","","Anchorage Market & Festival","ak","3rd Avenue and E Street","baked goods cheese crafts flowers seafood herbs vegetables honey jams meat nuts plants prepared soap","","market","http://www.anchoragemarkets.com","-149.891","61.2195","99501"
"Anchorage","","Center Market","ak","University Center (Old Seward Highway & 36 Avenue","","","market","http://www.anchoragemarkets.com","-149.868","61.1881",""
"Copper Valley","","Copper Valley Community Market","ak","MM 101 Richardson Hwy Loop Road","","","market","","-145.444","62.0879","99737"
"Anchorage","","Denali Farmers Market","ak","Intersection of the Parks Highway and Susitna River Road","","","market","","-150.234","62.3163",""
"Dillingham","","Dillingham Farmers Market","ak","by the Hockey Rink","","","market","","-158.458","59.0397","99576"
"Ester","","Ester Community Market","ak","Ester Community Park, Old Nenana Highway","organic vegetables","","market","http://www.esteralaska.com","-148.01","64.8459","99725"
"Fairbanks","https://www.facebook.com/downtownfairbanks","Fairbanks Downtown Market","ak","1st Avenue","organic baked goods flowers eggs herbs vegetables honey jams nuts plants prepared soap","https://twitter.com/DTFairbanksAK","market","http://www.downtownfairbanks.com","-147.719593","64.844414","99701"
"Soldotna","https://www.facebook.com/FarmersFreshMarketAK/","Farmers Fresh Market","ak","33955 Community College Dr.","baked goods flowers eggs vegetables honey jams plants trees coffee fruits mushrooms","","market","","-151.135361","60.472775","99669"
"Haines","","Haines Farmer Market","ak","Located in Payson's Pavilion in the Fair Grounds","","","market","","-135.466","59.2331","99827"
"Delta Junction","https://www.facebook.com/pages/Delta-Highways-End-Farmers-Market/116652311682896?id=116652311682896&sk=info","Highway's End Farmers' Market","ak","Corner of Alaska Highway and Richardson Highway","baked goods crafts eggs herbs vegetables honey jams plants prepared soap coffee fruits","","market","http://www.alaska-highway.org/farmersmarket/index.html","-145.7331153","64.0384622","99737"
"Homer","https://www.facebook.com/homerakfarmersmarket/","Homer Farmers Market","ak","Ocean Drive","baked goods crafts flowers eggs seafood herbs vegetables honey jams plants poultry prepared soap trees coffee fruits grains juices mushrooms pet food wild","","market","http://www.homerfarmersmarket.org","-151.512342","59.638109","99603"
"Houston ","Houston Farm And Art Market","Houston Farm & Art Market","ak","16966 W Parks Highway","baked goods crafts eggs vegetables honey jams plants soap trees","","market","","-149.807353","61.629821","99694"
"Juneau","facebook/juneau.arts","Juneau Farmers Market and Local Food Festival ","ak","350 Whittier","organic baked goods crafts flowers seafood herbs vegetables jams plants prepared soap trees coffee fruits mushrooms pet food wild","","market","https://jahc.org/food-festival/","-134.4136031","58.2998500","99801"
"Anchorage","","Kasilof Flea and Farmers Market","ak","Corner of Mile 111 1/2 Sterling Highway and North Cohoe Loop","","","market","","-149.9","61.2181",""
"Kenai","","Kenai's Saturday Market","ak","11471 Kenai Spur Hwy","","","market","http://www.visitkenai.com","-151.261","60.555","99611"
"Valdez","","Kenny Lake Harvest I","ak","Rogue's Garden parking lot","","","market","","-146.348","61.1308","99686"
"Valdez","","Kenny Lake Harvest II","ak","Corner of Glenn and Richardson Highways","","","market","","-145.476","62.1079","99686"
"Anchorage","http://facebook.com/mvakfarmersmarket","Mountain View Farmersâ€™ Market ","ak","3543 Mountain View Drive","baked goods crafts vegetables prepared trees fruits","","market","http://anchoragelandtrust.org/mountain-view-farmers-market/","-149.814174","61.224310","99508"
"Talkeetna","www.facebook.com/AKmountaintraders","MountainTraders","ak","13440 E Main Street","baked goods crafts flowers herbs vegetables honey jams soap coffee wild","","market","http://www.mountaintradersmarket.com","-150.118018","62.323110","99676"
"Anchorage","http://www.facebook.com/muldoonfarmersmarket","Muldoon Farmers Market","ak","1301 Muldoon Road","baked goods crafts flowers eggs seafood herbs vegetables honey jams plants prepared soap coffee fruits","http://twitter.com/MuldoonFarmers","market","http://muldoonfarmersmarket.org","-149.7311890","61.2089910","99504"
"Palmer","https://www.facebook.com/MyMatanuskaMarketplace/?ref=bookmarks","My Matanuska Marketplace","ak","610 S Valley Way","organic baked goods cheese crafts flowers eggs seafood herbs vegetables honey jams plants soap coffee fruits","","market","https://www.facebook.com/MyMatanuskaMarketplace/?ref=bookmarks","-149.113628","61.599930","99645"
"Nenana","","Nenana Open Air Market","ak","Corner of Parks Highway & Main Street","","","market","","-149.096","64.5566","99704"
"Anchorage","","Northway Mall Wednesday Farmers Market","ak","3101 Penland Parkway","organic baked goods cheese crafts flowers seafood herbs vegetables honey jams meat plants prepared soap","","market","http://www.anchoragemarkets.com","-149.112","61.1505","99508"
"Juneau","https://www.facebook.com/juneausecondsaturday","Second Saturday Farmers & Crafters Market","ak","9131 Glacier Highway","baked goods crafts herbs vegetables jams plants soap fruits","","market","http://www.juneausecondsaturday.com/","-134.583143","58.361941","99801"
"Sitka","www.facebook.com/SitkaLocalFoodsNetwork","Sitka Farmers Market","ak","235 Katlian Street","baked goods crafts flowers eggs seafood herbs vegetables jams plants poultry prepared soap coffee fruits grains wild","@SitkaLocalFoods","market","http://www.sitkalocalfoodsnetwork.org/","-135.340965","57.050853","99835"
"Soldotna ","Soldotna Saturday Market","Soldotna Saturday Farmers Market","ak","193 E. Corral Ave","organic baked goods crafts flowers eggs herbs vegetables honey jams meat plants poultry prepared soap fruits mushrooms","","market","","-151.067430","60.492954","99669"
"Anchorage","","South Anchorage Farmers' Market","ak","Behind the Dimond Center, in front of the Dimond Center Hotel","flowers eggs herbs vegetables honey jams meat plants soap fruits","","market","http://www.southanchoragefarmersmarket.com/","-149.865468","61.142479",""
"Anchorage","","South Anchorage Farmers' Market","ak","Subway/Cellular One Sports Centre at the corner of Old Seward and O'Malley","organic baked goods flowers eggs seafood herbs vegetables honey jams meat plants poultry prepared soap trees fruits","","market","http://www.southanchoragefarmersmarket.com/","-149.860532","61.119905",""
"Anchorage","https://www.facebook.com/spenardfarmersmarket","Spenard Farmers Market","ak","2590 Spenard Road","baked goods crafts flowers eggs seafood herbs vegetables honey jams plants prepared soap trees coffee fruits","https://twitter.com/SpenardFarmers","market","http://www.spenardfarmersmarket.org","-149.905042","61.197258","99503"
"Talkeetna","","Talkeetna Farmers Market","ak","13440 E Main Street","","","market","","-150.118158","62.322789","99676"
"Fairbanks","https://www.facebook.com/pages/Tanana-Valley-Farmers-Market/78795645885","Tanana Valley Farmers Market","ak","2600 College Road","organic baked goods crafts flowers eggs herbs vegetables honey jams plants prepared soap trees coffee mushrooms wild","","market","http://www.tvfmarket.com","-147.7811","64.86275","99709"
"Petersburg, AK","facebook.com/petersburgmarket","The Market in Petersburg, Alaska","ak","1st and Gjoa","baked goods flowers seafood vegetables jams prepared soap coffee wild","","market","","-132.955913","56.811930","99833"
"Trapper Creek","","Trapper Creek Farmers Market","ak","Post Office parking lot","","","market","","-166.54","53.8748","99683"
"Kasilof","","Tustumena Farmer's Market","ak","Mile 109 Sterling Hwy","baked goods vegetables","","market","","-151.266203","60.306929","99610"
"Wasilla","","Wasilla Farmers Market","ak","Behind Wasilla Public Library","baked goods crafts flowers herbs vegetables honey jams nursery plants soap trees","","market","","-149.440155","61.582613","99654"
"Willow","https://www.facebook.com/WillowFarmersMarket/","Willow Farmers Market","ak","Mile 68.8 Parks Highway","organic baked goods crafts eggs herbs vegetables honey jams plants prepared soap","","market","","-150.037717","61.731582","99688"
