[{"type":"farm","street":"","city":"Yoder","state":"Wyoming","zip":"82244","x":"-104.283729","y":"41.915028","name":"Case Custom Meats","website":"www.casecustommeats.com","facebook":"Www.facebook.com/casecustommeats","twitter":"","tags":"red-meat non-poultry-meat"},{"type":"market","name":"Basin Farmers Market","website":"","facebook":"","twitter":"","street":"","city":"Basin","state":"Wyoming","zip":"82410","x":"-108.0389895","y":"44.3799574","tags":""},{"type":"market","name":"Big Horn Basin Farmers Market Cody","website":"http://basinmarket.com","facebook":"https://www.facebook.com/BigHornBasinFarmerMarket/","twitter":"","street":" 720 Sheridan Ave","city":"Cody","state":"Wyoming","zip":"82414","x":"-109.0742033","y":"44.5242379","tags":"organic baked goods cheese crafts eggs herbs vegetables honey jams nuts prepared fruits"},{"type":"market","name":"Big Horn Basin Farmers Market Powell","website":"http://basinmarket.com","facebook":"https://www.facebook.com/BigHornBasinFarmerMarket/","twitter":"","street":"351 West 2nd Street ","city":"Powell","state":"Wyoming","zip":"82435","x":"-108.7626956","y":"44.7542031","tags":"organic baked goods cheese crafts eggs herbs vegetables honey jams meat prepared fruits"},{"type":"market","name":"Buffalo Main Street Market","website":"http://www.mainstreetbuffalo.org","facebook":"","twitter":"","street":"3 S. Main St.","city":"Buffalo","state":"Wyoming","zip":"82834","x":"-106.699","y":"44.3465","tags":"organic baked goods crafts eggs herbs vegetables honey jams nuts soap"},{"type":"market","name":"Cheyenne Farmers Market","website":"http://www.calc.net","facebook":"https://www.facebook.com/CheyenneFarmersMarket","twitter":"","street":"15th and Capitol","city":"Cheyenne","state":"Wyoming","zip":"82001","x":"-104.814433","y":"41.132217","tags":"organic baked goods cheese seafood herbs vegetables honey jams meat nuts plants prepared trees coffee fruits grains juices mushrooms"},{"type":"market","name":"Cheyenne Tuesday Farmers' Market","website":"http://www.tuesdaymarket.org","facebook":"https://www.facebook.com/cheyennetuesday.farmersmarket","twitter":"","street":"1400 Del Range Blvd","city":"Cheyenne","state":"Wyoming","zip":"82009","x":"-104.808570","y":"41.161612","tags":"baked goods crafts eggs herbs vegetables honey jams meat prepared soap trees coffee fruits"},{"type":"market","name":"Cheyenne Winter Farmers' Market","website":"","facebook":"https://www.facebook.com/Cheyennewintermarket","twitter":"","street":"121 W. 15th Street","city":"Cheyenne","state":"Wyoming","zip":"82001","x":"-104.814220","y":"41.131978","tags":"baked goods cheese crafts eggs seafood herbs vegetables honey jams meat poultry prepared soap coffee mushrooms"},{"type":"market","name":"Craft Market","website":"","facebook":"","twitter":"","street":"Decks Reserve Carpark, Wallace Street, Mouteka","city":"Wellington","state":"Wyoming","zip":"70105","x":"-109.58853","y":"44.5205554","tags":"organic fruits"},{"type":"market","name":"Downtown Laramie Farmer's market","website":"http://www.farmersmarketlaramie.com/","facebook":"","twitter":"","street":" 207 Grand Ave","city":"Laramie","state":"Wyoming","zip":"82070","x":"-105.5944156","y":"41.3110764","tags":"organic baked goods cheese crafts seafood herbs vegetables jams meat poultry prepared soap"},{"type":"market","name":"Dubois Farmers' Market","website":"http://www.stthomasdubois.diowy.org","facebook":"","twitter":"","street":"9 South 1st Street","city":"Dubois","state":"Wyoming","zip":"82513","x":"-109.630466","y":"43.533336","tags":"baked goods cheese crafts eggs herbs vegetables honey jams fruits mushrooms"},{"type":"market","name":"Evanston West End Ethnic Farmers Market","website":"","facebook":"https://www.facebook.com/EvanstonWestEndEthnicFarmersMarket","twitter":"","street":"Dodge Avenue & Church Street (ETHS lot),","city":"Evanston","state":"Wyoming","zip":"60202","x":"-110.964","y":"41.2675","tags":""},{"type":"market","name":"Evanston Wyoming Farmers Market","website":"","facebook":"https://www.facebook.com/EvanstonWyomingFarmersMarket?ref=br_tf","twitter":"","street":"Depot Square","city":"Evanston ","state":"Wyoming","zip":"60202","x":"-110.964","y":"41.2675","tags":""},{"type":"market","name":"Farmers Market on the Jackson Town Square","website":"http://www.jacksonholefarmersmarket.com","facebook":"https://www.facebook.com/JacksonHoleFarmersMarketOnTheTownSquare","twitter":"","street":"Jackson Hole Town Square","city":"Jackson","state":"Wyoming","zip":"83001","x":"-110.761305","y":"43.479633","tags":"baked goods cheese flowers eggs herbs vegetables honey meat nuts plants poultry prepared coffee fruits grains juices mushrooms"},{"type":"market","name":"Food for Thought Summer Market","website":"http://www.wyfftp.org/summermarket","facebook":"www.facebook.com/foodforthoughtmarkets","twitter":"","street":"200 S. David St.","city":"Casper","state":"Wyoming","zip":"82601","x":"-106.3269901","y":"42.8482536","tags":"baked goods cheese crafts eggs herbs vegetables honey jams maple meat poultry prepared soap wine coffee fruits juices mushrooms"},{"type":"market","name":"Gillette Farmers' Market","website":"","facebook":"https://www.facebook.com/pages/Gillette-Farmers-Market/223046610637","twitter":"","street":"412 S. Gillette Ave","city":"Gillette","state":"Wyoming","zip":"82718","x":"-105.5043993","y":"44.2906409","tags":"organic baked goods cheese crafts flowers eggs herbs vegetables honey jams meat nuts plants poultry prepared soap trees coffee grains pet food"},{"type":"market","name":"Green River Farmers Market","website":"","facebook":"","twitter":"","street":"N 1st Street E, Downtown in front of Tomahawk Bldg","city":"Green River","state":"Wyoming","zip":"82935","x":"-109.465","y":"41.5298","tags":""},{"type":"market","name":"Greybull Farmers Market","website":"","facebook":"","twitter":"","street":"Pamida North 6th Street","city":"Greybull","state":"Wyoming","zip":"82410","x":"-108.055","y":"44.497","tags":""},{"type":"market","name":"Guernsey Farmers Market","website":"","facebook":"Guernsey Farmers Market","twitter":"","street":"Davis Park","city":"Guernsey, Wyoming","state":"Wyoming","zip":"82214","x":"-104.745369","y":"42.269179","tags":"baked goods cheese crafts flowers eggs herbs vegetables honey jams prepared soap beans fruits juices"},{"type":"market","name":"Jackalope Square Farmers Market","website":"","facebook":"https://www.facebook.com/Jackalope-Square-Farmers-Market-1336784669703622","twitter":"","street":"130 S. 3rd","city":"Douglas","state":"Wyoming","zip":"82633","x":"-105.384457","y":"42.759014","tags":"baked goods crafts eggs vegetables honey jams prepared soap coffee fruits"},{"type":"market","name":"Jackson Hole Farmer's Market","website":"","facebook":"","twitter":"","street":"890 South Highway 89","city":"Jackson ","state":"Wyoming","zip":"83001","x":"-110.792249","y":"43.466381","tags":"organic baked goods vegetables fruits"},{"type":"market","name":"Jackson Hole People's Market","website":"http://www.jhpeoplesmarket.org","facebook":"https://www.facebook.com/jhpeoplesmarket","twitter":"","street":"Snow King Ave & King St.","city":"Jackson","state":"Wyoming","zip":"83001","x":"-110.760896","y":"43.472924","tags":"organic baked goods cheese crafts flowers eggs herbs vegetables jams maple meat plants poultry prepared soap wine fruits"},{"type":"market","name":"Kemmerer Farmers Market","website":"http://www.visitkemmerer.org","facebook":"","twitter":"https://twitter.com/kemmerermainst","street":"800 Pine Ave","city":"Kemmerer ","state":"Wyoming","zip":"83101","x":"-110.537704","y":"41.794574","tags":"baked goods cheese crafts flowers eggs vegetables honey jams maple soap trees coffee fruits grains wild"},{"type":"market","name":"Lander Valley Farmer's Market","website":"","facebook":"","twitter":"","street":"1445 Main Street","city":"Lander","state":"Wyoming","zip":"82520","x":"-108.745862","y":"42.841176","tags":"baked goods crafts flowers eggs herbs vegetables honey jams meat poultry soap fruits"},{"type":"market","name":"Lander Valley Farmer's Market","website":"","facebook":"","twitter":"","street":" 685 Main Street","city":"Lander","state":"Wyoming","zip":"82520","x":"-108.7392146","y":"42.8344887","tags":"baked goods flowers eggs herbs vegetables jams meat poultry soap fruits"},{"type":"market","name":"Landon's Greenhouse Farmers Market","website":"https://landonsgreenhouse.com/local-foods/","facebook":"Landon's Local Food Market","twitter":"","street":"505 College Meadows Drive","city":"Sheridan","state":"Wyoming","zip":"82801","x":"-106.960648","y":"44.794818","tags":"baked goods cheese eggs herbs vegetables honey jams meat poultry coffee fruits grains juices mushrooms"},{"type":"market","name":"Laramie Local Community Market","website":"http://www.laramieloco.org","facebook":"https://www.facebook.com/laramielocomarket","twitter":"","street":"7th and Ord","city":"Laramie","state":"Wyoming","zip":"82070","x":"-105.5890518","y":"41.3041486","tags":"baked goods cheese crafts flowers eggs seafood herbs vegetables honey jams meat plants poultry prepared soap coffee fruits juices"},{"type":"market","name":"Lovell Farmers Market","website":"http://www.lovellinc.org/farmersmarket.html","facebook":"","twitter":"","street":"262 E Main St","city":"Lovell","state":"Wyoming","zip":"82431","x":"-108.387905","y":"44.837210","tags":"baked goods eggs vegetables jams nursery plants"},{"type":"market","name":"Lusk Farmers Market","website":"http://www.lovellinc.org/farmersmarket.html","facebook":"","twitter":"","street":"327 S Main Street","city":"Lusk","state":"Wyoming","zip":"82225","x":"-104.453","y":"42.7619","tags":""},{"type":"market","name":"Natrona County Master Gardeners Farmers' Market","website":"","facebook":"","twitter":"","street":"2011 Fairgrounds Road","city":"Casper","state":"Wyoming","zip":"82604","x":"-106.363","y":"42.8287","tags":"baked goods flowers vegetables honey jams meat plants soap"},{"type":"market","name":"Pinedale Farmers Market","website":"http://www.pinedalefarmersmarket.org","facebook":"https://www.facebook.com/groups/PinedaleFarmersMarket","twitter":"","street":"Greenspace Park on Pine Street at S. Fremont","city":"Pinedale","state":"Wyoming","zip":"82941","x":"-109.860342","y":"42.866245","tags":"baked goods crafts flowers eggs herbs honey jams meat plants poultry soap fruits"},{"type":"market","name":"Platte County Farmers Market","website":"","facebook":"","twitter":"","street":"Main Street","city":"Wheatland","state":"Wyoming","zip":"","x":"-104.953798","y":"42.055953","tags":"baked goods cheese crafts eggs herbs vegetables plants soap"},{"type":"market","name":"Powell Farmers Market","website":"","facebook":"","twitter":"","street":"Road 14A, west side of town, Pamida parking lot","city":"Powell","state":"Wyoming","zip":"82435","x":"-108.757","y":"44.7538","tags":""},{"type":"market","name":"Ranchester Farmers Market","website":"","facebook":"","twitter":"","street":"Community Center","city":"Ranchester","state":"Wyoming","zip":"82839","x":"-107.166","y":"44.9096","tags":""},{"type":"market","name":"Rawlins Downtown Farmers Market","website":"http://www.rawlinsmainstreet.org","facebook":"","twitter":"","street":"400 W Front Street","city":"Rawlins","state":"Wyoming","zip":"82301","x":"-107.239","y":"41.787","tags":""},{"type":"market","name":"Rock Springs Farmers Market","website":"","facebook":"","twitter":"","street":"North Front Street, Depot Park","city":"Rock Springs","state":"Wyoming","zip":"82901","x":"-109.218","y":"41.5886","tags":""},{"type":"market","name":"Sheridan's Farmers Market","website":"http://www.sheridanfarmersmarket.org","facebook":"https://www.facebook.com/SheridanFarmersMarket?ref=hl","twitter":"","street":"Grinnell Plaza","city":"Sheridan","state":"Wyoming","zip":"82801","x":"-106.955193","y":"44.799485","tags":"baked goods cheese crafts flowers eggs seafood vegetables honey jams maple meat nuts poultry prepared soap coffee fruits grains pet food"},{"type":"market","name":"Star Valley Farmers' Market","website":"http://www.starvalleyfarmersmarket.org","facebook":"","twitter":"","street":"981 North Main Street (Highway 89)","city":"Thayne","state":"Wyoming","zip":"83127","x":"-111.004","y":"42.9258","tags":""},{"type":"market","name":"Thermopolis Farmers' Market","website":"","facebook":"https://www.facebook.com/Red-Dirt-Master-Gardeners-259103494110657/?fref=ts","twitter":"","street":"Broadway and 5th Street","city":"Thermopolis ","state":"Wyoming","zip":"82443","x":"-108.2102088","y":"43.6460390","tags":"baked goods cheese crafts eggs herbs vegetables jams meat poultry soap coffee fruits"},{"type":"market","name":"Thursday Afternoon Farmers Market","website":"","facebook":"","twitter":"","street":"Goshen Co. Extension Parking Lot, 4516 US Hwy 26/85","city":"Torrington","state":"Wyoming","zip":"82240","x":"-104.145","y":"42.0455","tags":""},{"type":"market","name":"Torrington Farmer's Market","website":"","facebook":"","twitter":"","street":"Main Street between 21st and 22nd","city":"Torrington","state":"Wyoming","zip":"82240","x":"-104.184394","y":"42.065370","tags":"baked goods crafts eggs herbs vegetables honey jams soap grains"},{"type":"market","name":"Torrington Farmers Market","website":"","facebook":"","twitter":"","street":"4516 US Hwy 26/85","city":"Torrington","state":"Wyoming","zip":"82240","x":"-104.223495","y":"42.079598","tags":"baked goods eggs herbs vegetables honey jams soap"},{"type":"market","name":"Upton Farmers Market","website":"","facebook":"","twitter":"","street":"Upton City Park","city":"Upton","state":"Wyoming","zip":"82730","x":"-104.624","y":"44.1085","tags":""},{"type":"market","name":"Washakie County Farmers Market Association","website":"","facebook":"","twitter":"","street":"9th and Big Horn Avenue/20th and Big Horn","city":"Worland","state":"Wyoming","zip":"82401","x":"-107.957132","y":"44.017704","tags":"baked goods crafts eggs vegetables jams soap coffee"},{"type":"market","name":"Weston County Farmers Market","website":"http://www.wcmarket.org","facebook":"","twitter":"","street":"First State Bank Parking Lot on Main Street","city":"Newcastle","state":"Wyoming","zip":"82701","x":"-104.205","y":"43.8547","tags":""},{"type":"market","name":"Wheatland Farmers' Market","website":"","facebook":"","twitter":"","street":"713 9th","city":"wheatland","state":"Wyoming","zip":"82201","x":"-104.9532569","y":"42.0545521","tags":"baked goods crafts eggs herbs vegetables honey jams meat plants soap"},{"type":"market","name":"Wind River Reservation Tribal Farmers Market","website":"","facebook":"","twitter":"","street":"14 North Fork Road","city":"Fort Washakie","state":"Wyoming","zip":"82514","x":"-108.882077","y":"43.003640","tags":"baked goods crafts eggs vegetables jams plants prepared soap fruits wild"},{"type":"market","name":"Wind River Reservation Tribal Farmers Market","website":"","facebook":"","twitter":"","street":"506 Ethete Rd.","city":"Ft. Washakie, WY","state":"Wyoming","zip":"82520","x":"-108.777196","y":"43.026816","tags":"baked goods crafts eggs herbs vegetables jams plants poultry prepared soap fruits wild"},{"type":"market","name":"Wind River Reservation Tribal Farmers Market","website":"","facebook":"","twitter":"","street":"4 Great Plains Road","city":"Arapahoe","state":"Wyoming","zip":"82510","x":"-108.484769","y":"42.983952","tags":"baked goods crafts eggs herbs vegetables honey jams plants prepared soap fruits wild"},{"type":"market","name":"Winter Makers Market","website":"http://www.wyfftp.org/wintermarket","facebook":"www.facebook.com/foodforthoughtmarkets","twitter":"","street":"420 W. 1st St.","city":"Casper","state":"Wyoming","zip":"82601","x":"-106.329524","y":"42.850412","tags":"baked goods cheese crafts eggs herbs vegetables honey jams poultry prepared soap coffee juices"},{"type":"market","name":"Worland - Ten Sleep Farmer's Market","website":"","facebook":"www.facebook.com/CrystalSpringsFarmersMarket","twitter":"","street":"Pioneer Square","city":"Worland","state":"Wyoming","zip":"82401","x":"-107.957175","y":"44.017046","tags":"baked goods cheese crafts herbs vegetables nursery prepared soap"}]
