"city","facebook","name","state","street","tags","twitter","type","website","x","y","zip"
"Barranquitas ","SweetWater Vertical Farm","SweetWater Vertical Farm","pr","Carretera 779 KM 8.9","herbs fresh-fruits fresh-vegetables honey juices ciders","","farm","","-66.269690","18.243352","00794"
"San Sebastian","","Centro Agropecuario de San Sebastian Puerto Rico (ADEA)","pr","Carr. 111 Km. 18 Bo. Bahomamey","cheese crafts seafood herbs vegetables honey plants poultry prepared soap trees coffee beans fruits juices pet food wild","","market","","-66.9706  ","18.32878  ","00685"
"San Juan","https://www.facebook.com/cooperativa.tierra?fref=ts","Cooperativa Orgánica Madre Tierra","pr","Placita Roosevelt, Calle Federico Calder","baked goods cheese crafts flowers eggs herbs vegetables honey plants prepared soap trees coffee beans fruits grains juices tofu wild","","market","http://www.coopmadretierra.org","-66.065280","18.416678","00919"
"Arroyo zona urbana","","El Maercado Familiar","pr","","cheese herbs vegetables honey beans fruits","","market","","-66.061721","17.96862","00714"
"Salinas zona urbana","","El Mercado Familiar","pr","Plaza Publica","cheese herbs vegetables honey coffee beans fruits grains","","market","","-66.295391","17.978217","00751"
"Santa Isabel","","El Mercado Familiar","pr","","cheese herbs vegetables honey coffee beans fruits","","market","http://agricultura.pr.gov","-66.418372","17.972338","00757"
"Cayey","","El Mercado Familiar","pr","","cheese herbs vegetables honey coffee beans fruits","","market","http://agricultura.pr.gov","-66.162877","18.115296","00736"
"Cidra","","EL MERCADO FAMILIAR","pr","","cheese herbs vegetables honey coffee fruits","","market","http://agricultura.pr.gov","-66.158486","18.177505","00739"
"Gurabo","","El Mercado Familiar","pr","","cheese herbs vegetables honey coffee fruits","","market","http://agricultura.pr.gov","-65.978641","18.252607","00778"
"San Lorenzo","","El Mercado Familiar","pr","","cheese herbs vegetables honey coffee beans fruits","","market","http://agricultura.pr.gov","-65.967404","18.187082","00754"
"Maricao","","El Mercado Familiar","pr","","cheese herbs vegetables honey coffee beans fruits","","market","http://agricultura.pr.gov","-66.991607","18.184534","00606"
"San German","","El Mercado Familiar","pr","","cheese herbs vegetables honey coffee beans fruits","","market","http://agricultura.pr.gov","-67.0402  ","18.11569  ","00683"
"Mayaguez","","El Mercado Familiar","pr","","cheese herbs vegetables honey coffee beans fruits","","market","http://agricultura.pr.gov","-67.1093  ","18.20732  ","00680"
"Aguadilla","","El Mercado Familiar","pr","","cheese herbs vegetables honey coffee beans fruits","","market","http://agricultura.pr.gov","-67.154818","18.438445","00603"
"Isabela","","El Mercado Familiar","pr","","cheese herbs vegetables honey coffee beans fruits","","market","http://agricultura.pr.gov","-67.023722","18.501749","00662"
"San Sebastian","","El Mercado Familiar","pr","","cheese herbs vegetables honey coffee beans fruits","","market","http://agricultura.pr.gov","-66.9706  ","18.32878  ","00685"
"aibonito","","El Mercado Familiar","pr","","cheese herbs vegetables honey coffee beans fruits","","market","http://agricultura.pr.gov","-66.265701","18.139723","00705"
"Coamo","","El Mercado Familiar","pr","","cheese herbs vegetables honey coffee beans fruits","","market","http://agricultura.pr.gov","-66.36982","18.058704","00769"
"Adjuntas","","El Mercado Familiar","pr","","herbs vegetables honey coffee beans fruits","","market","http://agricultura.pr.gov","-66.729934","18.166604","00601"
"Barranquitas","","El Mercado Familiar","pr","","cheese herbs vegetables honey coffee beans fruits","","market","http://agricultura.pr.gov","-66.310174","18.184765","00794"
"Comerio","","El Mercado Familiar","pr","","cheese herbs vegetables honey coffee beans fruits","","market","http://agricultura.pr.gov","-66.2207  ","18.22345  ","00782"
"Aguas Buenas","","El Mercado Familiar","pr","","cheese herbs vegetables honey coffee beans fruits","","market","http://agricultura.pr.gov","-66.106423","18.258154","00703"
"Guanica","","El Mercado Familiar","pr","","cheese herbs vegetables honey coffee beans fruits","","market","http://agricultura.pr.gov","-66.9205  ","17.98542  ","00653"
"Hormigueros","","El Mercado Familiar","pr","","cheese herbs vegetables honey coffee beans fruits","","market","http://agricultura.pr.gov","-67.120577","18.143559","00660"
"Aguada","","El Mercado Familiar","pr","","cheese herbs vegetables honey coffee beans fruits","","market","http://agricultura.pr.gov","-67.188389","18.380342","00601"
"Rincon","","El Mercado Familiar","pr","","cheese herbs vegetables honey coffee beans fruits","","market","http://agricultura.pr.gov","-67.2363  ","18.33636  ","00677"
"Guayama","","El Mercado Familiar","pr","","cheese herbs vegetables honey coffee beans fruits","","market","","-66.093809","17.979207",""
"Patillas","","El Mercado Familiar","pr","Estacionamiento del Parque Angelita Lind","cheese herbs vegetables honey beans fruits","","market","http://agricultura.pr.gov","-66.013453","18.006914","00723"
"Caguas zona urbana","","El Mercado Familiar","pr","","cheese herbs vegetables honey coffee fruits","","market","","-66.038951","18.232383","00725"
"Añasco","","El Mercado Familiar","pr","","cheese herbs vegetables honey coffee beans fruits","","market","http://agricultura.pr.gov","-67.141614","18.286112","00610"
"Lajas","","El Mercado Familiar","pr","","cheese herbs vegetables honey coffee beans fruits","","market","http://agricultura.pr.gov","-67.056238","18.046359","00667"
"Las Marias","","El Mercado Familiar","pr","","cheese herbs vegetables honey coffee beans fruits","","market","http://agricultura.pr.gov","-66.9829  ","18.23855  ","00670"
"Jayuya","","El Mercado Familiar","pr","","cheese herbs vegetables honey coffee beans fruits","","market","http://agricultura.pr.gov","-66.598512","18.203088","00664"
"Villalba","","El Mercado Familiar","pr","","cheese herbs vegetables honey coffee beans fruits","","market","http://agricultura.pr.gov","-66.481474","18.127892","00766"
"Peñuelas","","El Mercado Familiar","pr","","cheese herbs vegetables honey coffee beans fruits","","market","http://agricultura.pr.gov","-66.357225","18.008872","00624"
"Cabo rojo","","El Mercado Familiar","pr","","cheese herbs vegetables honey coffee beans fruits","","market","http://agricultura.pr.gov","-67.148266","18.086717","00623"
"Sabana Grande ","","El Mercado Familiar","pr","","cheese herbs vegetables honey coffee beans fruits","","market","http://agricultura.pr.gov","-66.967271","18.082122","00637"
"Moca","","El Mercado Familiar","pr","","cheese herbs vegetables honey coffee beans fruits","","market","http://agricultura.pr.gov","-67.115773","18.397162","00676"
"Luquillo","www.facebook.com/groups/feriaagricoladeluquillo/","Feria Agrícola de Luquillo","pr","Centro de Arte y Cultura de Luquillo","baked goods cheese crafts flowers eggs seafood herbs vegetables honey jams plants prepared soap trees coffee beans fruits juices","","market","http://www.luquillofarmersmarket.org","-65.720737","18.378202","00773"
"Ponce","","Mercado Agrícola Natural de Ponce","pr","34 Calle Aurora","organic baked goods cheese crafts flowers eggs herbs vegetables honey jams plants prepared soap trees coffee fruits juices","","market","http://manponce.com","-66.613138","18.009345",""
"Old San Juan","http://www.usdalocalfooddirectories.com/farmersmarketdirectoryupdate/FM_ContactInfo.aspx?source=pn&did=&cid","Mercado Agricola Natural Viejo San Juan","pr","150 Norzagaray St","organic baked goods cheese flowers eggs seafood vegetables honey plants prepared soap coffee fruits juices wild","","market","http://mercadoagricolanatural.com","-66.117209","18.468220","00901"
"Rincon","https://www.facebook.com/mercadoagroecologicode.rincon?fref=ts","Mercado Agroecologico de Rincon","pr","Munoz Rivera 11","organic baked goods cheese crafts flowers eggs herbs vegetables honey jams prepared soap trees coffee beans fruits juices wild","","market","http://maeri-rincon.blogspot.com/","-67.2363  ","18.33636  ","00677"
"Vega Alta zona urbana","","Narranjito farmers market group 787-544-3311","pr","","organic baked goods vegetables honey jams plants fruits","","market","","-66.321158","18.415176","00962"
