[{"type":"farm","street":"850 South Breeze","city":"St. Charles","state":"mo","zip":"63304","x":"-90.658483","y":"38.718752","name":"Benne's Best Meat","website":"www.bennesbest.com","facebook":"https://www.facebook.com/bennesbest","twitter":"","tags":"eggs fresh-vegetables poultry fowl red-meat non-poultry-meat"},{"type":"farm","street":"1804 Burmingham Rd","city":"Forsyth","state":"mo","zip":"65653","x":"-93.0777380","y":"36.6569689","name":"Beyond Eden","website":"vintagepoultry.com","facebook":"https://www.facebook.com/beyondeden","twitter":"","tags":"poultry fowl"},{"type":"farm","street":"120 E Fox Hollow Rd","city":"Ashland","state":"mo","zip":"65010","x":"-92.3456505","y":"38.7866936","name":"Blue Fox Farm","website":"http://www.bluefoxfood.com/","facebook":"https://www.facebook.com/pages/Blue-Fox-Farm/357267831061749","twitter":"","tags":"baked-goods canned preserved coffee tea cut-flowers dairy products eggs herbs fresh-fruits fresh-vegetables honey juices ciders maple-products mushrooms poultry fowl prepared foods red-meat non-poultry-meat soap body-care wild-harvested forest-products wine spirits beer hard-cider"},{"type":"farm","street":"7226 Highway O","city":"Ash Grove","state":"mo","zip":"65604","x":"-93.638307","y":"37.173422","name":"Blue Silo Beef","website":"https://bluesilobeef.com/","facebook":"https://www.facebook.com/bluesilobeef","twitter":"","tags":"red-meat non-poultry-meat"},{"type":"farm","street":"324 Velvet Antler Road","city":"Camdenton","state":"mo","zip":"65020","x":"-92.8551303","y":"38.0903328","name":"Canyon Goat Company, Inc.","website":"http://www.canyongoat.com/index.html","facebook":"https://www.facebook.com/pages/Canyon-Goat-Company/218608414896707?sk=info","twitter":"","tags":"red-meat non-poultry-meat"},{"type":"farm","street":"199 Jackson St.","city":"Augusta ","state":"mo","zip":"63332","x":"-90.8878600","y":"38.5742400","name":"Centennial Farms and Orchard","website":"CENTENNIAL FARMS.BIZ","facebook":"","twitter":"","tags":"baked-goods bedding plants canned preserved herbs fresh-fruits fresh-vegetables honey soap body-care"},{"type":"farm","street":"13948 Highway 15","city":"Paris","state":"mo","zip":"65275","x":"-91.997360","y":"39.394888","name":"Davis Farm","website":"","facebook":"","twitter":"","tags":"grains flour red-meat non-poultry-meat"},{"type":"farm","street":"30305 Thrush Drive","city":"Richland","state":"mo","zip":"65556","x":"-92.4438987","y":"37.7770030","name":"Farm Market","website":"","facebook":"","twitter":"","tags":"bedding plants fresh-fruits fresh-vegetables"},{"type":"farm","street":"13906 Osage Valley Rd","city":"Boonville","state":"mo","zip":"65233","x":"-92.7573691","y":"38.8851101","name":"Fed From The Farm","website":"https://fedfromthefarm.com/","facebook":"https://www.facebook.com/boatrightfarms/","twitter":"","tags":"dairy products eggs poultry fowl red-meat non-poultry-meat"},{"type":"farm","street":"2096 Farm Road 1130","city":"Verona","state":"mo","zip":"65769","x":"-93.827266","y":"36.896851","name":"G's Orchard","website":"","facebook":"","twitter":"","tags":"fresh-fruits fresh-vegetables"},{"type":"farm","street":"P.O. Box 74","city":"Weston","state":"mo","zip":"64098","x":"-94.9016298","y":"39.4111092","name":"Green Dirt Farm, LLC","website":"","facebook":"https://www.facebook.com/greendirtfarm","twitter":"","tags":"dairy products red-meat non-poultry-meat"},{"type":"farm","street":"RR 71 Box 1168","city":"Wheatland","state":"mo","zip":"65779","x":"-93.383060","y":"37.993085","name":"Green Gate Family Farm LLC","website":"","facebook":"","twitter":"","tags":"cut-flowers eggs fresh-fruits fresh-vegetables mushrooms poultry fowl"},{"type":"farm","street":"4905 highway 5","city":"Hartville","state":"mo","zip":"65667","x":"-92.555292","y":"37.286090","name":"Greenhill Vineyard and Farm.  We sell grapes.","website":"www.greenhillgrapes.com","facebook":"","twitter":"","tags":"fresh-fruits"},{"type":"farm","street":"41903 e. 144th","city":"richmond","state":"mo","zip":"64085","x":"-93.963643","y":"39.350219","name":"haines farms","website":"","facebook":"www.facebook.com/hainesfarms","twitter":"","tags":"bedding plants crafts woodworking cut-flowers eggs herbs fresh-fruits fresh-vegetables nursery-stock nuts wild-harvested forest-products"},{"type":"farm","street":"160 county road 831","city":"Sikeston","state":"mo","zip":"63801","x":"-89.676996","y":"36.828947","name":"Hamra Farms","website":"","facebook":"Hamra Farms","twitter":"https://www.twitter.com/HamraFarms","tags":"canned preserved fresh-vegetables"},{"type":"farm","street":"3738 Highway 47","city":"Lonedell","state":"mo","zip":"63060","x":"-90.868656","y":"38.238180","name":"Hart Apiaries","website":"www.hartapiaries.com","facebook":"","twitter":"","tags":"fresh-fruits honey"},{"type":"farm","street":"4738 W. State Hwy 86","city":"Lampe","state":"mo","zip":"65681","x":"-93.495140","y":"36.509845","name":"Heritage Farm and Ranch","website":"http://www.heritageranch.co/","facebook":"https://www.facebook.com/HeritageRanchBB","twitter":"","tags":"canned preserved eggs herbs fresh-fruits fresh-vegetables red-meat non-poultry-meat"},{"type":"farm","street":"3663 N. Highway 94","city":"St. Charles","state":"mo","zip":"63301","x":"-90.470826","y":"38.832144","name":"Hermans Farm Orchard","website":"www.hermansfarmorchard.com","facebook":"https://www.facebook.com/pages/Hermans-Farm-Orchard/159616344096544","twitter":"","tags":"bedding plants canned preserved eggs herbs fresh-fruits fresh-vegetables honey juices ciders nursery-stock"},{"type":"farm","street":"434 Whispering Wind Lane","city":"Cape Girardeau","state":"mo","zip":"63701","x":"-89.494019","y":"37.371078","name":"Hinkebein Hills Farm","website":"","facebook":"https://www.facebook.com/hinkebeins?rf=110698638992813","twitter":"","tags":"eggs poultry fowl red-meat non-poultry-meat"},{"type":"farm","street":"26 NE 80th Street","city":"Spickard","state":"mo","zip":"64679","x":"-93.588959","y":"40.189456","name":"Homestead Hill Farm & Nursery","website":"homesteadhillfarming.com","facebook":"https://www.facebook.com/HomesteadHillFarmandNursery/","twitter":"","tags":"baked-goods bedding plants canned preserved crafts woodworking cut-flowers eggs herbs fresh-fruits fresh-vegetables nursery-stock soap body-care wild-harvested forest-products"},{"type":"farm","street":"2428 Texas Prairie Rd","city":"Bates City","state":"mo","zip":"64011","x":"-94.066232","y":"39.025235","name":"John & Linda Fruit and Berry Farm","website":"","facebook":"","twitter":"","tags":"cut-flowers fresh-fruits fresh-vegetables"},{"type":"farm","street":"5550 County Road 1820","city":"West Plains","state":"mo","zip":"65775","x":"-91.8615530","y":"36.8335309","name":"Jolliff Farm","website":"http://jollifffarm.wordpress.com/","facebook":"","twitter":"","tags":"fresh-fruits fresh-vegetables"},{"type":"farm","street":"8001 Bode Ferry Rd","city":"Jefferson City","state":"mo","zip":"65101","x":"-92.089989","y":"38.469585","name":"Lage Farms LLC","website":"lagefarms.com","facebook":"lagefarms.com","twitter":"","tags":"red-meat non-poultry-meat"},{"type":"farm","street":"11529 HWY NN","city":"Louisiana","state":"mo","zip":"63353","x":"-91.076797","y":"39.427775","name":"Lil' Sprouts Farm","website":"www.EarthSprouts.com","facebook":"Www.facebook.com/lilsproutsfarm","twitter":"","tags":"cut-flowers dry beans eggs herbs fresh-fruits fresh-vegetables grains flour mushrooms soap body-care wild-harvested forest-products"},{"type":"farm","street":"21507 Lost Branch Way","city":"Brashear","state":"mo","zip":"63533","x":"-92.4550740","y":"40.1729085","name":"Lost Branch Blueberry Farm","website":"www.lostbranchblueberries.com","facebook":"www.facebook.com/lostbranchblueberryfarm","twitter":"@pricefamilylbbf","tags":""},{"type":"farm","street":"12465 ST RT JJ","city":"West Plains","state":"mo","zip":"65775","x":"-91.901681","y":"36.591597","name":"Lucky Falling Star Ranch LLC","website":"www.luckyfallingstarranch.com ","facebook":"","twitter":"","tags":"eggs red-meat non-poultry-meat"},{"type":"farm","street":"603 South Main Street","city":"Salem","state":"mo","zip":"65560","x":"-91.535215","y":"37.638961","name":"Meramec Bison Farm, LLC","website":"www.meramecbison.com","facebook":"https://www.facebook.com/pages/Meramec-Bison-Farm-LLC/195576180525013","twitter":"","tags":""},{"type":"farm","street":"17819 Hwy UU","city":"Louisiana","state":"mo","zip":"63353","x":"-91.143758","y":"39.411628","name":"Meyer farm","website":"","facebook":"Meyer farm","twitter":"","tags":"cut-flowers herbs fresh-fruits fresh-vegetables honey prepared foods"},{"type":"farm","street":"29286 State Highway C","city":"La Grange ","state":"mo","zip":"63448","x":"-91.591174","y":"40.048545","name":"Miles Farms","website":"","facebook":"www.facebook.com/MilesFarmsMarket","twitter":"https://twitter.com/Miles_Farms","tags":"baked-goods herbs fresh-fruits fresh-vegetables soap body-care"},{"type":"farm","street":"11425 Street Highway KK","city":"Marshfield","state":"mo","zip":"65706","x":"-92.927052","y":"37.294758","name":"Millers Berry Farm","website":"","facebook":"Millers Berry Farm","twitter":"","tags":"fresh-fruits"},{"type":"farm","street":"Rt. 81, Box 149","city":"Koshkonong","state":"mo","zip":"65692","x":"-91.6456994","y":"36.5958946","name":"Missouri's Best Beef Co-Op","website":"www.mobest beef.com","facebook":"","twitter":"","tags":""},{"type":"farm","street":"7470 Jakes Prairie Road","city":"Sullivan","state":"mo","zip":"63080","x":"-91.2978842","y":"38.2798417","name":"Northern Prairie Alpacas, LLC","website":"http://www.northernprairiealpacas.com/","facebook":"https://www.facebook.com/pages/Northern-Prairie-Alpacas-LLC/122810441106955?ref=bookmarks","twitter":"","tags":""},{"type":"farm","street":"1775 Old Hwy E","city":"Granby","state":"mo","zip":"64844","x":"-94.2634316","y":"36.9352568","name":"OakWoods Farm","website":"oakwoodsfarm.com","facebook":"https://www.facebook.com/pages/OakWoods-Farm/260088397378669","twitter":"https://twitter.com/oakwoodsfarm","tags":"bedding plants canned preserved eggs herbs fresh-fruits fresh-vegetables mushrooms"},{"type":"farm","street":"552 Lick Creek","city":"Leasburg","state":"mo","zip":"65535","x":"-91.308962","y":"38.090853","name":"Ozark Berry Farm","website":"Ozarkberryfarm.com","facebook":"https://www.facebook.com/Berries.Bugs.Blooms","twitter":"","tags":"fresh-fruits"},{"type":"farm","street":"30226 Holly Rd","city":"Pierce City","state":"mo","zip":"65723","x":"-94.0961713","y":"36.9292199","name":"Ozark Country Creations","website":"","facebook":"www.facebook.com/hatfieldtomatofarm","twitter":"","tags":"fresh-vegetables"},{"type":"farm","street":"12650 State Highway M","city":"Wright City","state":"mo","zip":"63390","x":"-91.012318","y":"38.785607","name":"Palme Acres Farms","website":"http://www.palmeacres.com","facebook":"","twitter":"","tags":"red-meat non-poultry-meat"},{"type":"farm","street":"8290 CR 1980","city":"West Plains","state":"mo","zip":"65775","x":"-91.738379","y":"36.846826","name":"Peace Valley Poultry","website":"www.freshchickenandturkey.com","facebook":"","twitter":"","tags":"pet-food poultry fowl soap body-care"},{"type":"farm","street":"3194 Oakwood Dr.","city":"Napoleon","state":"mo","zip":"64074","x":"-94.0485164","y":"39.0615522","name":"PlayHaven Farm LLC","website":"http://www.playhavenfarm.com/","facebook":"https://www.facebook.com/PlayHavenFarm","twitter":"","tags":"eggs poultry fowl red-meat non-poultry-meat"},{"type":"farm","street":"25717 FR 1168","city":"Eagle Rock ","state":"mo","zip":"65641","x":"-93.7812378","y":"36.5594726","name":"Prier Farms Grassfed #0389","website":"","facebook":"Prier Farms Grassfed #0389","twitter":"","tags":""},{"type":"farm","street":"416 Poplar Drive","city":"Highlandville","state":"mo","zip":"65669","x":"-93.317071","y":"36.901720","name":"Purple Gate Farm","website":"","facebook":"https://www.facebook.com/pages/Purple-Gate-Farm/566680560033305","twitter":"","tags":"eggs poultry fowl"},{"type":"farm","street":"624 Stringtown Rd","city":"Seymour","state":"mo","zip":"65746","x":"-92.7887619","y":"37.2556817","name":"Rachel's Goat & Chicken Farm","website":"http://www.rachelsgoatfarm.com/","facebook":"","twitter":"","tags":"eggs fresh-fruits fresh-vegetables poultry fowl red-meat non-poultry-meat soap body-care"},{"type":"farm","street":"21655 Hwy H","city":"Monett","state":"mo","zip":"65708","x":"-93.918396","y":"36.960386","name":"Rausch's Blueberries","website":"","facebook":"","twitter":"","tags":"fresh-fruits"},{"type":"farm","street":"37013 State Highway 25 South","city":"Malden ","state":"mo","zip":"63863","x":"-89.971274","y":"36.527500","name":"Sara's Produce","website":"","facebook":"https://www.facebook.com/SarasProduce","twitter":"","tags":"canned preserved eggs fresh-vegetables honey"},{"type":"farm","street":"1784 Doll Road","city":"Hermann","state":"mo","zip":"65041","x":"-91.4205244","y":"38.5912056","name":"Schneider Farms LLC","website":"www.schneiderfarmsllc.com","facebook":"https://www.facebook.com/Schneider-Farms-162860030399928","twitter":"","tags":"eggs poultry fowl red-meat non-poultry-meat"},{"type":"farm","street":"1068 S Metzletein Rd","city":"Clever","state":"mo","zip":"65631","x":"-93.4996849","y":"37.0244265","name":"Serendipity Acres, LLC","website":"","facebook":"https://www.facebook.com/Serendipityacresevans/","twitter":"","tags":"bedding plants canned preserved crafts woodworking cut-flowers eggs fresh-fruits fresh-vegetables honey maple-products mushrooms soap body-care"},{"type":"farm","street":"12780 Jantzen Ln","city":"Platte City","state":"mo","zip":"64079","x":"-94.845979","y":"39.321550","name":"Serendipity Farm & Orchard","website":"","facebook":"http://www.facebook.com/?ref=tn_tnmn#%21/SerendipityFarmOrchard","twitter":"","tags":"baked-goods canned preserved cut-flowers eggs fresh-fruits fresh-vegetables"},{"type":"farm","street":"4487 Elder Road Post Office Box 216","city":"Gray Summit","state":"mo","zip":"63089","x":"-90.862958","y":"38.492664","name":"Seven Gables Farm","website":"sevengablesfarm.com","facebook":"https://www.facebook.com/pages/Seven-Gables-Farm/618425231566963?sk=timeline","twitter":"","tags":"bedding plants canned preserved crafts woodworking cut-flowers dry beans eggs fresh-fruits fresh-vegetables mushrooms nursery-stock wine spirits beer hard-cider"},{"type":"farm","street":"8725 N Horseshoe Rd","city":"Dittmer","state":"mo","zip":"63023","x":"-90.7561350","y":"38.1978360","name":"Stone-Leady Farms","website":"www.stoneleadyfarms.com","facebook":"www.facebook.com/StoneLeadyFarms","twitter":"","tags":"dairy products fresh-vegetables red-meat non-poultry-meat soap body-care"},{"type":"farm","street":"19410 State Route O","city":"Rolla","state":"mo","zip":"65401","x":"-91.743907","y":"37.815275","name":"The Blue Hill Company, LLC","website":"www.thebluehillco.com","facebook":"https://www.facebook.com/TheBlueHillCo/","twitter":"","tags":"baked-goods canned preserved coffee tea honey nuts soap body-care"},{"type":"farm","street":"21505 Hwy OO","city":"Eolia","state":"mo","zip":"63344","x":"-96.690674","y":"36.544949","name":"Thistle Hill Plantation","website":"thistlehillplantation.com","facebook":"","twitter":"","tags":"crafts woodworking eggs juices ciders maple-products red-meat non-poultry-meat"},{"type":"farm","street":"15920 US highway 160","city":"Forsyth","state":"mo","zip":"65653","x":"-93.032275","y":"36.729878","name":"Tri-Lakes Orchards","website":"www.accounting-taxpros.com","facebook":"https://www.facebook.com/pages/Tri-Lakes-Orchards-LLC/279365858871273","twitter":"","tags":"fresh-vegetables"},{"type":"farm","street":"1002 Highway 19","city":"Hermann","state":"mo","zip":"65041","x":"-91.468241","y":"38.773117","name":"Wil farm","website":"wilfarm.org","facebook":"","twitter":"","tags":"bedding plants cut-flowers eggs fresh-fruits fresh-vegetables"},{"type":"farm","street":"3511 Hwy F","city":"New Melle","state":"mo","zip":"63365","x":"-90.878906","y":"38.708905","name":"Wind Ridge Farm","website":"Http://www.windridgefarm.net","facebook":"https://www.facebook.com/PickingUpdate?ref=ts","twitter":"HTTPS://www.twitter.com/Pickingupdate","tags":"fresh-vegetables"},{"type":"market","name":"10th Steet Community Farmers Market","website":"","facebook":"","twitter":"","street":"10th Street and Poplar","city":"Lamar ","state":"mo","zip":"64759","x":"-94.2746191","y":"37.4956280","tags":"baked goods crafts eggs herbs vegetables honey jams meat plants poultry prepared soap fruits"},{"type":"market","name":"Acme Ranch Truck Patch","website":"http://agrimissouri.com/mo-grown/grodetail.php?type=mo-grown&ID=1877","facebook":"","twitter":"","street":"RR1 Box 146","city":"Birch Tree","state":"mo","zip":"65438","x":"-91.492638","y":"36.991165","tags":"crafts flowers herbs vegetables plants trees fruits"},{"type":"market","name":"Arcadia Valley Farmers' Market","website":"","facebook":"","twitter":"","street":"250 South Main Street","city":"Ironton","state":"mo","zip":"63650","x":"-90.6278618","y":"37.5945109","tags":"baked goods crafts flowers eggs herbs vegetables honey jams plants soap trees fruits"},{"type":"market","name":"Arnold Farmers Market","website":"https://www.arnoldmo.org/government/departments/parks-recreation/arnold-farmers-market/","facebook":"https://www.facebook.com/arnoldfarmersmarket/?ref=settings","twitter":"ArnoldFarmMarket","street":"2400 Bradley Beach Road","city":"Arnold","state":"mo","zip":"63010","x":"-90.353093","y":"38.453275","tags":"organic baked goods crafts flowers eggs herbs vegetables honey jams meat nuts plants poultry prepared soap coffee beans fruits pet food wild"},{"type":"market","name":"Aurora Local Farmer's Market - Summer Market","website":"","facebook":"Aurora Local Farmers Market","twitter":"","street":"2031 S. Elliott Ave.","city":"Aurora","state":"mo","zip":"65605","x":"-93.7201867","y":"36.9489080","tags":"baked goods crafts flowers eggs herbs vegetables jams plants prepared soap fruits wild"},{"type":"market","name":"Aurora Local Farmers' Market","website":"","facebook":"Aurora Local Farmers Market","twitter":"","street":"2031 S. Elliott","city":"Aurora","state":"mo","zip":"65605","x":"-93.7201122","y":"36.9488694","tags":"baked goods crafts flowers eggs herbs vegetables honey jams meat plants prepared soap trees fruits"},{"type":"market","name":"Aurora Local Farmers' Market - Winter Market","website":"http://agrimissouri.com/mo-grown/grodetail.php?type=mo-grown&ID=1663","facebook":"","twitter":"","street":"Highway 60 and 39","city":"Aurora ","state":"mo","zip":"65605","x":"-93.717404","y":"36.970302","tags":"baked goods vegetables jams plants fruits grains"},{"type":"market","name":"Ava Growers' Market","website":"http://www.usdalocalfooddirectories.com/farmersmarketdirectoryupdate/FM_BasicInfo.aspx?source=en&did=Wr9I0nOZZPBL7IAEse8z5w%3d%3d&cid=TaSF3iA3jK80vXTmtxIL3A==","facebook":"","twitter":"","street":"Center of the Square","city":"Ava ","state":"mo","zip":"65608","x":"-92.6604457","y":"36.9519990","tags":"baked goods eggs vegetables jams plants fruits"},{"type":"market","name":"B2B (Back to Basics) Farmers' Maket - Pineville","website":"http://agrimissouri.com/mo-grown/grodetail.php?type=mo-grown&ID=2057","facebook":"","twitter":"","street":"600 Main Street","city":"Pineville ","state":"mo","zip":"64856","x":"-94.383498","y":"36.593521","tags":"baked goods cheese crafts flowers herbs vegetables jams fruits"},{"type":"market","name":"B2B (Back to Basics) Farmers' Market","website":"","facebook":"","twitter":"","street":"Business 71","city":"Anderson","state":"mo","zip":"64831","x":"-94.4265963","y":"36.6396152","tags":"baked goods crafts flowers eggs herbs vegetables honey jams nursery plants soap"},{"type":"market","name":"B2B Farmers' Market- Thursdays","website":"http://agrimissouri.com/mo-grown/grodetail.php?type=mo-grown&ID=273","facebook":"","twitter":"","street":"Hwy. 59 North","city":"Anderson ","state":"mo","zip":"64831","x":"-94.440808","y":"36.670130","tags":"herbs vegetables fruits"},{"type":"market","name":"Bagnell Dam Farmers' Market","website":"","facebook":"","twitter":"","street":"Bagnell Dam Strip","city":"Lake Ozark","state":"mo","zip":"65049","x":"-92.6417","y":"38.1973","tags":"baked goods crafts flowers eggs herbs vegetables honey jams nursery plants soap"},{"type":"market","name":"Barham Cattle Company & Family Farm","website":"http://www.barnhamcattleco.com","facebook":"https://www.facebook.com/pages/Barham-Cattle-Company-Family-Farm/253576221378846","twitter":"","street":"16600 NE 128th Street","city":"Kearney","state":"mo","zip":"64060","x":"-94.372250","y":"39.325678","tags":"eggs vegetables jams meat poultry"},{"type":"market","name":"Bee Hive Farmers' Market","website":"","facebook":"","twitter":"","street":"Hwy 67 North, Sycamore Plaza behind Orscheln Farm Store in Poplar Bluff","city":"Poplar Bluff","state":"mo","zip":"63764","x":"-90.3849","y":"36.7588","tags":""},{"type":"market","name":"Belton Farmers Market","website":"","facebook":"https://www.facebook.com/BeltonMoFarmersMarket/","twitter":"","street":"Memorial Park","city":"Belton ","state":"mo","zip":"64012","x":"-94.525252","y":"38.808556","tags":"baked goods crafts flowers eggs vegetables honey jams maple soap fruits"},{"type":"market","name":"Bethany Farmers' Market","website":"","facebook":"","twitter":"","street":"3606 Miller St.","city":"Bethany","state":"mo","zip":"64424","x":"-94.017747","y":"40.264977","tags":"baked goods crafts eggs vegetables jams plants prepared fruits mushrooms"},{"type":"market","name":"Better Lives Today Farmers' Market","website":"http://www.betterlivestoday.org","facebook":"","twitter":"","street":"222 S. Pine, Pine and McClurg","city":"Richland","state":"mo","zip":"65556","x":"-92.4043396","y":"37.8569838","tags":"baked goods crafts flowers eggs herbs vegetables honey jams nursery nuts plants prepared soap"},{"type":"market","name":"Bloomfield Farmers' Market","website":"","facebook":"","twitter":"","street":"704 S. Prairie St","city":"Bloomfield","state":"mo","zip":"63825","x":"-89.9298107","y":"36.8806820","tags":"baked goods crafts flowers eggs herbs vegetables honey jams nursery plants soap"},{"type":"market","name":"Blue Springs Farmers Market","website":"http://www.bluespringsfarmersmarket.com","facebook":"https://www.facebook.com/BlueSpringsFarmersMarket","twitter":"","street":"11th St & Main St","city":"Blue Springs","state":"mo","zip":"64015","x":"-94.2778137","y":"39.0183736","tags":"baked goods crafts flowers eggs herbs vegetables honey jams meat nursery plants poultry prepared soap"},{"type":"market","name":"Bollinger County Farmers' Market","website":"","facebook":"","twitter":"","street":"200 State Hwy 34","city":"Marble Hill","state":"mo","zip":"63764","x":"-89.9796801","y":"37.3019525","tags":"baked goods crafts flowers eggs herbs vegetables honey jams meat nursery plants poultry prepared soap"},{"type":"market","name":"Boone County Farmers Market","website":"http://www.boonecountyfarmers.com","facebook":"","twitter":"","street":"2300 Bernadette","city":"Columbia","state":"mo","zip":"65203","x":"-92.372114","y":"38.963622","tags":"baked goods crafts eggs vegetables honey jams plants fruits"},{"type":"market","name":"Boonville Farmers Market Inc","website":"https://boonvillemofarmersmarket.weebly.com/","facebook":"@BoonvilleMOFarmersMarket","twitter":"@boonfarmmarket","street":"1931 Boone Village Shopping Center","city":"Boonville","state":"mo","zip":"65233","x":"-92.741591","y":"38.955643","tags":"baked goods crafts flowers eggs herbs vegetables honey jams meat plants poultry soap fruits mushrooms"},{"type":"market","name":"Bourbon Farmers' Market","website":"","facebook":"","twitter":"","street":"Elm St.","city":"Bourbon","state":"mo","zip":"65441","x":"-91.2462077","y":"38.1544686","tags":"baked goods crafts flowers eggs herbs vegetables honey jams nursery plants soap"},{"type":"market","name":"Bowling Green Farmers' and Artists' Market","website":"","facebook":"","twitter":"","street":"Main St.","city":"Bowling Green","state":"mo","zip":"63334","x":"-91.1948","y":"39.3421","tags":"baked goods crafts flowers eggs herbs vegetables honey jams nursery plants soap"},{"type":"market","name":"Branson Farmers' Market","website":"","facebook":"","twitter":"","street":"Bus 65 & Pacific St","city":"Branson","state":"mo","zip":"65616","x":"-93.2182637","y":"36.6432316","tags":"baked goods crafts flowers eggs herbs vegetables honey jams nursery plants soap"},{"type":"market","name":"Briarcliff Village Farmers Market","website":"http://www.greenacres.com","facebook":"https://www.facebook.com/briarcliffvillagefarmersmarket","twitter":"","street":"4175 Mulberry Drive","city":"Kansas City","state":"mo","zip":"64116","x":"-94.596733","y":"39.169610","tags":"baked goods crafts flowers eggs herbs vegetables honey jams meat plants soap fruits mushrooms pet food"},{"type":"market","name":"Brick District Farmers' Market","website":"http://agrimissouri.com/mo-grown/grodetail.php?type=mo-grown&ID=102","facebook":"","twitter":"","street":"10 East 5th Street","city":"Fulton","state":"mo","zip":"65251","x":"-91.947877","y":"38.847360","tags":"baked goods crafts flowers eggs herbs vegetables honey jams meat plants poultry soap fruits"},{"type":"market","name":"Bringing Home Grown to U 1","website":"","facebook":"","twitter":"","street":"Mid Rivers Mall","city":"St. Louis","state":"mo","zip":"63021","x":"-90.244299","y":"38.63605","tags":"baked goods cheese crafts flowers eggs herbs vegetables honey jams meat nursery nuts plants prepared soap"},{"type":"market","name":"Bringing Homegrown to U 2","website":"","facebook":"","twitter":"","street":"Greenscape Gardens","city":"St. Louis","state":"mo","zip":"63021","x":"-90.244299","y":"38.63605","tags":"baked goods cheese crafts flowers eggs herbs vegetables honey jams meat nursery nuts plants prepared soap"},{"type":"market","name":"Brookfield Farmers' Market","website":"","facebook":"","twitter":"","street":"200 block S Main St, Tormey Park","city":"Brookfield","state":"mo","zip":"64628","x":"-93.0735348","y":"39.7844687","tags":"baked goods crafts flowers eggs herbs vegetables honey jams nursery plants prepared soap"},{"type":"market","name":"Brookside Farmers' Market","website":"http://www.brooksidefarmersmarket.com","facebook":"www.facebook.com/BrooksideFarmersMarket","twitter":"https://twitter.com/BKSfarmersmkt","street":"63rd Street and Wornall Road","city":"Kansas City","state":"mo","zip":"64113","x":"-94.592328","y":"39.013782","tags":"organic baked goods flowers eggs herbs vegetables meat nuts plants poultry prepared soap coffee fruits"},{"type":"market","name":"Buckeye Acres Farmers' Market","website":"http://www.buckeye-acres.com","facebook":"","twitter":"","street":"91 NE 600 Road","city":"Warrensburg","state":"mo","zip":"64093","x":"-93.723133","y":"38.850198","tags":"flowers herbs vegetables jams plants trees fruits"},{"type":"market","name":"Buffalo Farmers' Market","website":"","facebook":"","twitter":"","street":"501 Cherry St.","city":"Buffalo","state":"mo","zip":"65622","x":"-93.0897629","y":"37.6424820","tags":"baked goods crafts flowers eggs herbs vegetables honey jams nursery plants soap"},{"type":"market","name":"Byrne's Mill Farmers' Market","website":"http://www.byrnesmill.org/farmersmarket","facebook":"","twitter":"","street":"At the intersection of Hwy 30 and Route W, behind McDonalds on Hunter Lane","city":"Byrne's Mill","state":"mo","zip":"63051","x":"-90.585022","y":"38.420242","tags":"organic eggs trees"},{"type":"market","name":"C Street Market","website":"http://www.itsalldowntown.com/c-streetmarket","facebook":"","twitter":"","street":"329 E Commercial","city":"Springfield","state":"mo","zip":"65803","x":"-93.2900958","y":"37.2297034","tags":"baked goods crafts flowers eggs herbs vegetables honey jams meat nursery nuts plants prepared soap"},{"type":"market","name":"Cabool Area Farmers' Market","website":"http://agrimissouri.com/mo-grown/grodetail.php?type=mo-grown&ID=2553","facebook":"","twitter":"","street":"601 Main Street","city":"Cabool ","state":"mo","zip":"65689","x":"-92.096349","y":"37.123768","tags":"baked goods vegetables jams prepared soap fruits"},{"type":"market","name":"Cape Girardeau Farmers' Market","website":"","facebook":"https://www.facebook.com/pages/Cape-Farmers-Market/105485396140615","twitter":"","street":"West Park Mall,  3049 Williams St.","city":"Cape Girardeau","state":"mo","zip":"63701","x":"-89.569613","y":"37.296290","tags":"organic baked goods cheese flowers eggs herbs vegetables honey jams maple meat nuts plants poultry prepared soap fruits wild"},{"type":"market","name":"Cape Riverfront Market","website":"http://www.caperiverfrontmarket.com","facebook":"https://www.facebook.com/CapeRiverfrontMarket","twitter":"https://twitter.com/CapeRiverMarket","street":"35 S. Spanish St.","city":"Cape Girardeau","state":"mo","zip":"63701","x":"-89.519874","y":"37.302699","tags":"baked goods cheese crafts flowers eggs herbs vegetables honey jams maple meat nuts plants prepared soap wine coffee beans fruits"},{"type":"market","name":"Capital Regional Medical Center Farmers' Market","website":"http://agrimissouri.com/mo-grown/grodetail.php?type=mo-grown&ID=1769","facebook":"","twitter":"","street":"1432 Southwest Boulevard","city":"Jefferson City","state":"mo","zip":"65102","x":"-92.200082","y":"38.563511","tags":"baked goods eggs vegetables jams fruits"},{"type":"market","name":"Carondelet Farmers' Market","website":"","facebook":"","twitter":"","street":"7701 S. Broadway","city":"St. Louis","state":"mo","zip":"63111","x":"-90.2591","y":"38.5467","tags":"baked goods crafts flowers eggs herbs vegetables honey jams nursery plants soap"},{"type":"market","name":"Carrollton Farmers Market","website":"","facebook":"https://www.facebook.com/CarrolltonFarmersMarket","twitter":"","street":"Carrollton Uptown Square","city":"Carrollton","state":"mo","zip":"64633","x":"-93.496941","y":"39.358097","tags":"organic baked goods crafts eggs herbs vegetables honey jams plants prepared fruits"},{"type":"market","name":"Carthage Farmers' Market","website":"","facebook":"","twitter":"","street":"Downtown square","city":"Carthage","state":"mo","zip":"64836","x":"-94.313535","y":"37.167703","tags":"baked goods crafts flowers eggs herbs vegetables honey jams nursery plants soap"},{"type":"market","name":"Cass County Farmers' Market","website":"http://www.cassfarmers.com","facebook":"","twitter":"","street":"2601 Cantrell Rd","city":"Adrian","state":"mo","zip":"64720","x":"-94.3725","y":"38.6591","tags":"baked goods crafts flowers eggs herbs vegetables honey jams nursery plants soap"},{"type":"market","name":"Cedar County Farmers' Market-El Dorado Springs","website":"","facebook":"","twitter":"","street":"1317 S. Hwy 32","city":"El Dorado Springs ","state":"mo","zip":"64744","x":"-94.011533","y":"37.860929","tags":"baked goods crafts flowers eggs herbs vegetables honey jams meat nuts plants prepared soap coffee fruits"},{"type":"market","name":"Chandler Hill Farmers Market (Defiance)","website":"http://www.chandlerhillvineyards.com","facebook":"","twitter":"","street":"596 Defiance Rd","city":"Defiance","state":"mo","zip":"63341","x":"-90.8017892","y":"38.6341275","tags":"baked goods crafts flowers eggs herbs vegetables honey jams nursery plants soap"},{"type":"market","name":"Charleston's Farmers Market","website":"http://agrimissouri.com/mo-grown/grodetail.php?type=mo-grown&ID=2074","facebook":"","twitter":"","street":"1400 South Main Street","city":"Charleson","state":"mo","zip":"63834","x":"-89.350007","y":"36.910365","tags":"crafts flowers herbs vegetables honey jams plants prepared soap trees fruits"},{"type":"market","name":"Cherokee Street International Farmers Market","website":"http://www.cherokeemarket.org","facebook":"https://www.facebook.com/CherokeeStreetInternationalFarmersMarket","twitter":"https://twitter.com/STLCherokeeMkt","street":"2647 Cherokee","city":"St. Louis","state":"mo","zip":"63118","x":"-90.2274150","y":"38.5938028","tags":"baked goods crafts herbs vegetables honey jams plants soap fruits pet food"},{"type":"market","name":"Chilhowee Main Street Farmers' Market","website":"http://www.mainstreetfarmersmarket.webs.com","facebook":"","twitter":"","street":"108 S. Main St.","city":"Chilhowee","state":"mo","zip":"64733","x":"-93.8555137","y":"38.5889377","tags":"baked goods crafts flowers eggs herbs vegetables honey jams nursery plants soap"},{"type":"market","name":"Chillicothe Farmers Market","website":"","facebook":"https://www.facebook.com/chillicothefarmersmarketmo?ref=hl","twitter":"","street":"620 N. Washington","city":"Chillicothe","state":"mo","zip":"64601","x":"-93.553418","y":"39.793838","tags":"baked goods crafts eggs herbs vegetables honey jams meat nuts plants poultry soap trees fruits"},{"type":"market","name":"Christian County Farmers' Market","website":"http://agrimissouri.com/mo-grown/grodetail.php?type=mo-grown&ID=584","facebook":"","twitter":"","street":"1530 West Jackson St","city":"Ozark ","state":"mo","zip":"65721","x":"-93.2207764","y":"37.0223056","tags":"baked goods cheese eggs herbs vegetables honey jams nuts poultry soap fruits"},{"type":"market","name":"City Market - Kansas City - Winter Market","website":"http://www.thecitymarket.org","facebook":"https://www.facebook.com/TheCityMarketKansasCity/","twitter":"https://twitter.com/TheCityMarketKC","street":"20 East 5th Street","city":"Kansas City","state":"mo","zip":"64106","x":"-94.581688","y":"39.108685","tags":"baked goods cheese crafts flowers eggs vegetables honey jams meat prepared trees coffee grains mushrooms"},{"type":"market","name":"City Market Kansas City- Year-round","website":"http://thecitymarket.org","facebook":"https://www.facebook.com/TheCityMarketKansasCity/","twitter":"https://twitter.com/TheCityMarketKC","street":"20 E 5th Street","city":"Kansas City","state":"mo","zip":"64106","x":"-94.5821788","y":"39.1086815","tags":"organic baked goods cheese crafts flowers eggs herbs vegetables honey jams meat nuts plants poultry prepared soap trees wine coffee beans fruits juices mushrooms pet food wild"},{"type":"market","name":"City of Union Farmers' Market","website":"http://www.unionmissouri.org/farmersmarket","facebook":"www.facebook.com/CityofUnionFarmersMarket","twitter":"","street":"801 US Highway 50","city":"Union","state":"mo","zip":"63084","x":"-91.000518","y":"38.444664","tags":"baked goods crafts herbs vegetables honey jams plants soap fruits juices mushrooms"},{"type":"market","name":"City of Warrenton Farmers' Market","website":"http://www.warrenton-mo.org/","facebook":"","twitter":"","street":"200 West Booneclick","city":"Warrenton","state":"mo","zip":"63383","x":"-91.1501459777355","y":"38.8111352920532","tags":"baked goods eggs herbs vegetables honey jams plants prepared soap fruits"},{"type":"market","name":"City of Windsor Farmers' Market","website":"http://agrimissouri.com/mo-grown/grodetail.php?type=mo-grown&ID=2016","facebook":"","twitter":"","street":"305 West Benton","city":"Windsor","state":"mo","zip":"65360","x":"-93.523694","y":"38.533748","tags":"baked goods crafts flowers herbs vegetables honey jams plants prepared soap trees fruits"},{"type":"market","name":"Clark Produce Auction LLC","website":"","facebook":"","twitter":"","street":"Hwy Y in Clark MO","city":"Clark","state":"mo","zip":"65243","x":"-91.7627","y":"40.3994","tags":""},{"type":"market","name":"Clinton Farmers Market","website":"","facebook":"","twitter":"","street":"North side of the Downtown Clinton Square","city":"Clinton","state":"mo","zip":"","x":"-93.7804","y":"38.3657","tags":""},{"type":"market","name":"Clover Leaf Market","website":"http://agrimissouri.com/mo-grown/grodetail.php?type=mo-grown&ID=1700","facebook":"","twitter":"","street":"Highway 60","city":"Billings ","state":"mo","zip":"65610","x":"-93.4369918","y":"36.9385754","tags":"vegetables fruits"},{"type":"market","name":"Cole County Farmers' Market","website":"http://agrimissouri.com/productdetail.php?type=mo-made&ID=66","facebook":"","twitter":"","street":"1204 Missouri Boulevard","city":"Jefferson City","state":"mo","zip":"65109","x":"-92.211220","y":"38.581887","tags":"baked goods flowers eggs herbs vegetables honey jams plants prepared soap fruits"},{"type":"market","name":"College of the Ozarks Farmers' Market","website":"","facebook":"","twitter":"","street":"1 Industrial Drive","city":"Point Lookout","state":"mo","zip":"65726","x":"-93.041000","y":"36.6546965","tags":"baked goods vegetables jams fruits"},{"type":"market","name":"Columbia Farmers Market","website":"http://columbiafarmersmarket.org","facebook":"https://www.facebook.com/ColumbiaFarmersMarket","twitter":"https://twitter.com/comofarmers","street":"1769 West Ash Street","city":"Columbia","state":"mo","zip":"65203","x":"-92.364624","y":"38.958293","tags":"organic baked goods cheese crafts flowers eggs herbs vegetables honey jams meat nuts plants poultry prepared soap trees coffee beans fruits juices mushrooms wild"},{"type":"market","name":"Connor Farm","website":"","facebook":"","twitter":"","street":"","city":"-","state":"mo","zip":"","x":"-90.317994","y":"38.701724","tags":""},{"type":"market","name":"coyote farm and home market","website":"","facebook":"","twitter":"","street":"106 Maple","city":"ashland","state":"mo","zip":"65010","x":"-92.2574988","y":"38.7736219","tags":"organic baked goods crafts eggs vegetables honey jams meat plants poultry prepared soap fruits"},{"type":"market","name":"Crane Creek Market","website":"http://agrimissouri.com/mo-grown/grodetail.php?type=mo-grown&ID=659","facebook":"","twitter":"","street":"205 South Commerce Street","city":"Crane","state":"mo","zip":"65633","x":"-93.572941","y":"36.899749","tags":"herbs vegetables honey jams plants prepared soap fruits"},{"type":"market","name":"Creve Coeur Farmers' Market","website":"http://www.creve-coeur.org/market","facebook":"","twitter":"","street":"12320 Olive Blvd","city":"Creve Coeur","state":"mo","zip":"63141","x":"-90.4564338","y":"38.6728389","tags":"crafts honey jams"},{"type":"market","name":"Crocker Farms LLC","website":"http://agrimissouri.com/mo-grown/grodetail.php?type=mo-grown&ID=1426","facebook":"","twitter":"","street":"14400 North Route Z","city":"Centralia","state":"mo","zip":"65240","x":"-92.136565","y":"39.118058","tags":"herbs vegetables meat fruits"},{"type":"market","name":"Crown Valley Champagne","website":"http://www.crownvalleyfarmersmarket.posterous.com","facebook":"","twitter":"","street":"23589 State Route WW","city":"Ste. Genevieve","state":"mo","zip":"63670","x":"-90.179753","y":"37.778019","tags":"vegetables honey jams meat wine fruits"},{"type":"market","name":"CUIVRE RIVER FARMERS MARKET","website":"http://www.cuivreriverfarmersmarket.org","facebook":"https://www.facebook.com/CuivreRiverFarmersMarket","twitter":"","street":"170 Market Place Drive","city":"TROY","state":"mo","zip":"63379","x":"-90.9720333","y":"38.9885860","tags":"organic baked goods crafts flowers eggs herbs vegetables honey jams maple nuts plants prepared soap trees coffee fruits mushrooms wild"},{"type":"market","name":"De Soto Farmers' Market","website":"http://www.gethealthydesoto.org","facebook":"https://www.facebook.com/cultivatingfoodandcommunity/","twitter":"","street":"520 N. Main Street","city":"DeSoto","state":"mo","zip":"63020","x":"-90.552184","y":"38.143961","tags":"baked goods crafts flowers eggs herbs vegetables honey jams meat plants poultry prepared soap fruits"},{"type":"market","name":"Depot Park Market","website":"http://www.depotparkmarket.org","facebook":"https://www.facebook.com/depotparkmarket","twitter":"https://twitter.com/depotparkmarket","street":"Sturgeon Street and Reed Street","city":"Moberly","state":"mo","zip":"65270","x":"-92.4366982","y":"39.4197139","tags":"baked goods crafts eggs herbs vegetables honey jams poultry prepared soap fruits grains"},{"type":"market","name":"Dora Farmers' Market","website":"http://agrimissouri.com/mo-grown/grodetail.php?type=mo-grown&ID=318","facebook":"","twitter":"","street":"Hwy 181","city":"Sycamore","state":"mo","zip":"65760","x":"-92.272695","y":"36.717612","tags":"baked goods flowers eggs herbs vegetables honey jams plants prepared trees fruits"},{"type":"market","name":"Downtown Lee's Summit Farmers Market","website":"http://www.downtownls.org","facebook":"https://www.facebook.com/downtownlsfarmersmarket","twitter":"","street":"113 SE Douglas Street","city":"Lee's Summit","state":"mo","zip":"64063","x":"-94.37711","y":"38.91425","tags":"organic baked goods crafts flowers eggs herbs vegetables honey jams meat nuts poultry prepared soap coffee fruits"},{"type":"market","name":"Downtown Poplar Bluff Farmers' Market","website":"","facebook":"https://www.facebook.com/Downtown-Poplar-Bluff-Farmers-Market-550767034963032/?ref=bookmarks","twitter":"","street":"","city":"Poplar Bluff","state":"mo","zip":"63901","x":"-90.395645","y":"36.754128","tags":"baked goods flowers vegetables honey jams plants prepared soap coffee fruits juices"},{"type":"market","name":"Downtown Sikeston Farmers' Market","website":"http://www.DowntownSikeston.org","facebook":"https://www.facebook.com/DowntownSikestonFarmersMarket","twitter":"","street":"American Legion Square","city":"Sikeston","state":"mo","zip":"63801","x":"-89.5887","y":"36.8767","tags":"baked goods crafts eggs herbs vegetables honey jams plants soap coffee beans fruits"},{"type":"market","name":"Dowtown Rolla Farmers' Market","website":"http://agrimissouri.com/mo-grown/grodetail.php?type=mo-grown&ID=642","facebook":"","twitter":"","street":"9th Street and Hollaway","city":"Rolla","state":"mo","zip":"65401","x":"-91.761915","y":"37.950360","tags":"baked goods cheese crafts flowers eggs herbs vegetables honey jams meat plants poultry prepared soap trees fruits"},{"type":"market","name":"E & E Acres, LLC","website":"","facebook":"","twitter":"","street":"","city":"-","state":"mo","zip":"","x":"-90.317994","y":"38.701724","tags":""},{"type":"market","name":"Eastland Farmers Market","website":"","facebook":"","twitter":"","street":"1835 E. Saint Louis Street","city":"Springfield","state":"mo","zip":"65802","x":"-93.2595","y":"37.2085","tags":""},{"type":"market","name":"Eldon Farmers' Market","website":"http://agrimissouri.com/mo-grown/grodetail.php?type=mo-grown&ID=1657","facebook":"","twitter":"","street":"1702 Business Hwy 54 South","city":"Eldon","state":"mo","zip":"65026","x":"-92.581576","y":"38.348364","tags":"baked goods crafts flowers eggs herbs vegetables honey jams meat plants poultry prepared soap trees fruits"},{"type":"market","name":"Eldorado Springs Farmers' Market","website":"http://agrimissouri.com/mo-grown/grodetail.php?type=mo-grown&ID=589","facebook":"","twitter":"","street":"West Spring Street and North Main","city":"El Dorada Springs","state":"mo","zip":"64744","x":"-94.021567","y":"37.876787","tags":"baked goods crafts eggs herbs vegetables jams plants soap fruits"},{"type":"market","name":"Ellisville Farmers' Market","website":"http://www.ellisvillefarmersmarket.org","facebook":"","twitter":"","street":"255 Kiefer Creek Rd.","city":"Ellisville","state":"mo","zip":"63017","x":"-90.5875540","y":"38.5852013","tags":"baked goods crafts herbs vegetables honey jams plants fruits"},{"type":"market","name":"Empire Market","website":"https://downtownjoplin.com/joplin-empire-market/","facebook":"https://www.facebook.com/JoplinEmpireMarket","twitter":"https://twitter.com/TheEmpireMarket","street":"931 E 4th St","city":"Joplin","state":"mo","zip":"64801","x":"-94.502691","y":"37.087883","tags":"organic baked goods crafts flowers eggs herbs vegetables honey jams meat plants poultry prepared soap coffee fruits mushrooms"},{"type":"market","name":"Eureka Farmers' Market","website":"https://www.facebook.com/eurekamofarmersmarket/","facebook":"https://www.facebook.com/eurekamofarmersmarket/","twitter":"","street":"394 South Central Avenue","city":"Eureka ","state":"mo","zip":"63025","x":"-90.628165","y":"38.497820","tags":"baked goods crafts flowers eggs herbs vegetables honey jams meat nuts plants poultry prepared soap wine coffee fruits mushrooms pet food wild"},{"type":"market","name":"Fair Grove Farmers' Market","website":"http://www.fairgrovefarmersmarket.com","facebook":"https://www.facebook.com/FairGroveFarmersMarket","twitter":"","street":"Hwy 125 & Main Street","city":"Fair Grove","state":"mo","zip":"65648","x":"-93.150849","y":"37.383700","tags":"baked goods cheese crafts flowers eggs herbs vegetables honey jams plants prepared soap fruits"},{"type":"market","name":"FarMart Farmers' & Artists' Market","website":"http://www.downtownpeculiar.com","facebook":"","twitter":"","street":"163 W. Center Street","city":"Peculiar","state":"mo","zip":"64078","x":"-94.460444","y":"38.719322","tags":"baked goods crafts flowers eggs herbs vegetables jams plants prepared soap"},{"type":"market","name":"Farmers Market of the Ozarks","website":"http://www.LoveYourFarmer.com","facebook":"https://www.facebook.com/FMOZARKS/","twitter":"https://twitter.com/FMOzarks","street":"2144 E Republic Rd","city":"Springfield","state":"mo","zip":"65804","x":"-93.255076","y":"37.136365","tags":"organic baked goods cheese crafts flowers eggs seafood herbs vegetables honey meat nuts plants poultry prepared soap wine coffee fruits grains juices mushrooms wild"},{"type":"market","name":"Farmers' Market in Camdenton","website":"","facebook":"","twitter":"","street":"Hwy 54 and 5","city":"Camdenton","state":"mo","zip":"65020","x":"-92.7347344","y":"38.0150709","tags":"cheese eggs honey poultry trees beans"},{"type":"market","name":"Farmers' Market in Fanning","website":"http://agrimissouri.com/mo-grown/grodetail.php?type=mo-grown&ID=667","facebook":"","twitter":"","street":"301 McClay Street","city":"Cuba ","state":"mo","zip":"65453","x":"-91.403483","y":"38.062823","tags":"baked goods crafts herbs vegetables honey jams plants prepared soap fruits"},{"type":"market","name":"Farmers' Market of Laclede County","website":"http://agrimissouri.com/mo-grown/grodetail.php?type=mo-grown&ID=403","facebook":"","twitter":"","street":"100 Hospital Drive","city":"Lebanon","state":"mo","zip":"65536","x":"-92.635831","y":"37.681434","tags":"baked goods herbs vegetables jams fruits"},{"type":"market","name":"Farmington Farmers Market","website":"http://Chamber@growingfarmington.com","facebook":"https://www.facebook.com/farmingtonfarmersmarket","twitter":"","street":"VFW on Karsch Blvd(Hwy 32)","city":"Farmington","state":"mo","zip":"63640","x":"-90.407528","y":"37.781890","tags":"organic baked goods flowers eggs herbs vegetables honey jams meat nuts plants soap trees fruits pet food"},{"type":"market","name":"Fayette Area Farmers' Market","website":"","facebook":"","twitter":"","street":"Downtown square of Fayette MO","city":"Gasalow","state":"mo","zip":"65254","x":"-92.8976","y":"39.1601","tags":""},{"type":"market","name":"Ferguson Farmers' Market","website":"http://fergusonfarmersmarket.com/","facebook":"https://www.facebook.com/FergusonFarmersMarket/","twitter":"","street":"Plaza 501, 501 S. Florissant Rd.","city":"Ferguson","state":"mo","zip":"63135","x":"-90.3027133","y":"38.7375795","tags":"organic baked goods crafts flowers eggs herbs vegetables honey plants prepared soap wine coffee fruits grains"},{"type":"market","name":"Fischer's Pumpkin Patch and Corn Maze","website":"http://agrimissouri.com/mo-grown/grodetail.php?type=mo-grown&ID=1876","facebook":"","twitter":"","street":"1905 Mokane Road","city":"Jefferson City","state":"mo","zip":"65101","x":"-92.166438","y":"38.588485","tags":"baked goods crafts herbs vegetables jams plants prepared trees fruits"},{"type":"market","name":"Forsyth Farmers' Market","website":"http://agrimissouri.com/mo-grown/grodetail.php?type=mo-grown&ID=864","facebook":"","twitter":"","street":"266 Main Street","city":"Forsyth","state":"mo","zip":"65653","x":"-93.112429","y":"36.684367","tags":"baked goods crafts herbs vegetables jams plants fruits"},{"type":"market","name":"Fredericktown Farmers' Market","website":"","facebook":"","twitter":"","street":"320 N Mine La Motte","city":"Fredericktown","state":"mo","zip":"","x":"-90.2927065","y":"37.5638214","tags":"baked goods cheese vegetables honey maple fruits"},{"type":"market","name":"Freeman Health System, West - Farmers Market","website":"","facebook":"","twitter":"","street":"1102 W 32nd Street","city":"Joplin","state":"mo","zip":"64801","x":"-94.5268459","y":"37.0526877","tags":"baked goods flowers eggs vegetables honey jams meat poultry fruits"},{"type":"market","name":"Friday Night Farmers' Market","website":"http://www.itsalldowntown.com/fridaynightmarket","facebook":"","twitter":"","street":"Park Central Square","city":"Springfield","state":"mo","zip":"65806","x":"-93.292268","y":"37.209299","tags":"baked goods crafts flowers eggs herbs vegetables honey jams meat plants poultry prepared soap fruits"},{"type":"market","name":"Fulton Farmers' Market","website":"http://agrimissouri.com/mo-grown/grodetail.php?type=mo-grown&ID=102","facebook":"","twitter":"","street":"1220 South Business 54","city":"Fulton","state":"mo","zip":"65251","x":"-91.959630","y":"38.832357","tags":"baked goods crafts eggs seafood herbs vegetables honey jams meat plants poultry prepared soap fruits"},{"type":"market","name":"Galena Farmers' Market","website":"http://agrimissouri.com/mo-grown/grodetail.php?type=mo-grown&ID=669","facebook":"","twitter":"","street":"Fourth and Main Streets","city":"Galena","state":"mo","zip":"65656","x":"-93.466676","y":"36.805417","tags":"baked goods crafts flowers eggs herbs vegetables honey jams plants prepared soap fruits"},{"type":"market","name":"Garden Sass Farmers' Market","website":"http://www.gardensass9f.com","facebook":"","twitter":"","street":"7th and Mineral Springs Road","city":"Cassville","state":"mo","zip":"65625","x":"-93.862901","y":"36.677650","tags":"baked goods crafts flowers eggs herbs vegetables honey jams meat plants poultry prepared soap fruits"},{"type":"market","name":"Gladstone Farmers' Market","website":"http://www.gladstone.mo.us/farmersmarket/","facebook":"https://www.facebook.com/pages/Gladstone-Farmers-Market/107406389284555?fref=ts","twitter":"","street":"602 NE 70th Street","city":"Gladstone","state":"mo","zip":"64118","x":"-94.5730016","y":"39.2214548","tags":"baked goods crafts flowers eggs herbs vegetables honey jams meat plants beans fruits"},{"type":"market","name":"Golden Valley Produce and Crafts Market","website":"http://agrimissouri.com/mo-grown/grodetail.php?type=mo-grown&ID=189","facebook":"","twitter":"","street":"Corner of 8th and Ohio Streets","city":"Clinton","state":"mo","zip":"64735","x":"-93.763157","y":"38.366454","tags":"baked goods crafts flowers eggs herbs vegetables honey jams meat plants poultry prepared soap trees fruits"},{"type":"market","name":"Grand Court Farmers' Market","website":"http://agrimissouri.com/mo-grown/grodetail.php?type=mo-grown&ID=591","facebook":"","twitter":"","street":"107th Street and Wornall Road","city":"Kansas City","state":"mo","zip":"64137","x":"-94.596680","y":"38.934494","tags":"baked goods eggs herbs vegetables honey jams plants prepared soap"},{"type":"market","name":"Grandview Farmers' Market","website":"http://www.grandview.org/index.aspx?page=811","facebook":"","twitter":"","street":"8th and Goode Streets","city":"Grandview","state":"mo","zip":"64030","x":"-94.536037","y":"38.890375","tags":"baked goods eggs herbs vegetables honey jams plants prepared soap fruits"},{"type":"market","name":"Greater Ozark Farmers Market","website":"http://www.ozarkfarmers.org","facebook":"https://www.facebook.com/OFAC17","twitter":"","street":"1321 Preacher Roe Blvd.","city":"West Plains","state":"mo","zip":"65775","x":"-91.8755038","y":"36.7134052","tags":"baked goods cheese crafts flowers eggs herbs vegetables honey jams meat plants poultry prepared soap trees fruits juices"},{"type":"market","name":"Greater Polk County Farmers Market","website":"","facebook":"","twitter":"","street":"950 S. Killingsworth","city":"Bolivar","state":"mo","zip":"65613","x":"-93.434730","y":"37.605290","tags":"baked goods flowers eggs herbs vegetables honey jams meat nursery nuts plants poultry soap trees"},{"type":"market","name":"Greater Springfield Farmers Market","website":"http://www.springfieldfarmersmarket.com","facebook":"https://www.facebook.com/greaterspringfieldfarmersmarket","twitter":"","street":"2825 S. Glenstone","city":"Springfield","state":"mo","zip":"65804","x":"-93.263326","y":"37.159872","tags":"baked goods cheese crafts flowers eggs herbs vegetables honey jams meat nuts plants poultry prepared soap trees fruits mushrooms pet food"},{"type":"market","name":"Greene's Country Store and Feed","website":"http://www.greenescountrystore.com","facebook":"https://www.facebook.com/pages/Greenes-Country-Store-and-Feed/307179982093?fref=ts","twitter":"","street":"8921 Hwy N","city":"Lake St. Louis","state":"mo","zip":"63367","x":"-90.777806","y":"38.766267","tags":"organic baked goods cheese crafts eggs herbs vegetables honey jams meat plants poultry prepared soap trees fruits"},{"type":"market","name":"Hallsville Farmers' Market","website":"","facebook":"","twitter":"","street":"Hwy OO","city":"Hallsville","state":"mo","zip":"65255","x":"-92.211029","y":"39.111242","tags":"baked goods crafts eggs herbs vegetables jams plants prepared soap fruits"},{"type":"market","name":"Hamilton Missouri Farmers' Market","website":"http://www.facebook.com/HamiltonMissouriFarmersMarket","facebook":"","twitter":"","street":"J. C. Penney Park Lot","city":"Hamilton","state":"mo","zip":"64644","x":"-93.9982743","y":"39.7436184","tags":"baked goods crafts flowers eggs jams fruits"},{"type":"market","name":"Hannibal Farmers' Market","website":"","facebook":"","twitter":"","street":"Central Park at Fifth and Broadway","city":"Hannibal","state":"mo","zip":"63401","x":"-91.3591","y":"39.7083","tags":"baked goods crafts flowers herbs vegetables honey jams nuts plants soap"},{"type":"market","name":"Harrisonville Farmer's Market on the Square","website":"","facebook":"www.facebook.com/harrisonvillefarmersmarket","twitter":"","street":"102 E Wall Street","city":"Harrisonville","state":"mo","zip":"64701","x":"-94.348540","y":"38.654533","tags":"baked goods crafts flowers eggs herbs vegetables honey jams meat plants poultry soap fruits"},{"type":"market","name":"Hartville Farmers' Market","website":"http://agrimissouri.com/mo-grown/grodetail.php?type=mo-grown&ID=597","facebook":"","twitter":"","street":"Hwy 5 and Hwy 38","city":"Hartville","state":"mo","zip":"65667","x":"-92.510212","y":"37.250927","tags":"flowers herbs vegetables jams plants soap fruits"},{"type":"market","name":"Heart of the Ozarks Farmers' Market","website":"","facebook":"","twitter":"","street":"1755 S. US Hwy 63","city":"West Plains","state":"mo","zip":"65775","x":"-91.8216913","y":"36.7098028","tags":"baked goods crafts eggs herbs honey jams trees fruits"},{"type":"market","name":"Hermann Farm Farmers' Market","website":"http://agrimissouri.com/mo-grown/grodetail.php?type=mo-grown&ID=598","facebook":"","twitter":"","street":"1st Street and Gutenberg","city":"Hermann","state":"mo","zip":"65041","x":"-91.432855","y":"38.706720","tags":"baked goods cheese crafts flowers eggs herbs vegetables honey jams meat poultry prepared soap trees wine fruits"},{"type":"market","name":"Hickory County Farmers' Market","website":"http://hickorycountyfarmersmarket.com/","facebook":"https://www.facebook.com/HickoryCountyFarmersMarket/","twitter":"","street":"S. Hwy 254 & CR 283","city":"Hermitage","state":"mo","zip":"65668","x":"-93.310538","y":"37.919316","tags":"organic baked goods eggs herbs vegetables honey jams plants prepared soap fruits grains"},{"type":"market","name":"Hillsboro Farmers Market","website":"http://www.kressfarm.org","facebook":"","twitter":"","street":"5137 Glade Chapel Road","city":"Hillsboro","state":"mo","zip":"63050","x":"-90.566655","y":"38.232278","tags":"baked goods vegetables honey jams meat plants poultry soap trees fruits juices mushrooms"},{"type":"market","name":"Hinkebein Hills Farm and Market","website":"http://agrimissouri.com/mo-grown/grodetail.php?type=mo-grown&ID=1933","facebook":"","twitter":"","street":"434 Whispering Wind Lane","city":"Cape Girardeau ","state":"mo","zip":"63701","x":"-89.492388","y":"37.369965","tags":"herbs jams meat poultry prepared"},{"type":"market","name":"Historic Downtown Liberty Farmers' Market","website":"http://www.historicdowntownliberty.org/farmers-market/","facebook":"www.facebook.com/DowntownLibertyFarmersMarket","twitter":"","street":"111 N. Water St.","city":"Liberty","state":"mo","zip":"64068","x":"-94.417566","y":"39.246072","tags":"organic baked goods crafts flowers eggs herbs vegetables honey jams meat plants poultry prepared fruits grains mushrooms"},{"type":"market","name":"Holden MO Farmer's Market","website":"","facebook":"https://www.facebook.com/holdenmarket","twitter":"","street":"101 S Market St.","city":"Holden","state":"mo","zip":"64040","x":"-93.9908869","y":"38.7186566","tags":"baked goods crafts vegetables jams plants prepared soap fruits pet food wild"},{"type":"market","name":"Hometown Market","website":"http://agrimissouri.com/mo-grown/grodetail.php?type=mo-grown&ID=656","facebook":"","twitter":"","street":"West and Walton Streets","city":"Warrenton","state":"mo","zip":"63383","x":"-91.151182","y":"38.810187","tags":"baked goods crafts flowers eggs herbs vegetables honey jams meat plants poultry prepared soap fruits"},{"type":"market","name":"Houston's Home Grown","website":"http://agrimissouri.com/mo-grown/grodetail.php?type=mo-grown&ID=2015","facebook":"","twitter":"","street":"1604 Stolpe Road","city":"Hermann","state":"mo","zip":"65041","x":"-91.627846","y":"38.625592","tags":"eggs herbs vegetables jams meat plants poultry fruits"},{"type":"market","name":"Ilus Davis Park Farmers' Market","website":"","facebook":"","twitter":"","street":"Ilus Davis Park, 11th and Oak","city":"Kansas City","state":"mo","zip":"","x":"-94.5827","y":"39.1037","tags":""},{"type":"market","name":"INDEPENDENCE UPTOWN MARKET","website":"http://independenceuptownmarket.com","facebook":"","twitter":"","street":"211 W. Truman Rd.","city":"Independence ","state":"mo","zip":"64050","x":"-94.418179","y":"39.093845","tags":"baked goods crafts flowers eggs vegetables honey jams meat nuts plants soap fruits"},{"type":"market","name":"Iron Mountain Market","website":"","facebook":"https://www.facebook.com/ironmountainhome","twitter":"","street":"400 South Main Street","city":"Poplar Bluff","state":"mo","zip":"63901","x":"-90.393621","y":"36.753732","tags":"baked goods crafts vegetables jams prepared soap coffee fruits"},{"type":"market","name":"Ivanhoe Farmers' Market","website":"http://growninivanhoe.org/farmers-market","facebook":"https://www.facebook.com/ivanhoefarmersmarket","twitter":"https://twitter.com/ivanhoefarm2mkt","street":"3700 Woodland","city":"Kansas City","state":"mo","zip":"64109","x":"-94.5627719","y":"39.0591615","tags":"crafts flowers herbs vegetables jams soap coffee fruits"},{"type":"market","name":"Jackson (MO) Farmers Market","website":"","facebook":"Jackson Farmers Market","twitter":"","street":"252 E. Jackson Blvd.","city":"Jackson ","state":"mo","zip":"63755","x":"-89.6659726","y":"37.3778137","tags":"baked goods crafts eggs herbs vegetables honey jams maple nuts plants soap fruits"},{"type":"market","name":"Jackson Farmers Market","website":"http://www.jacksonfarmersmarket.org","facebook":"","twitter":"","street":"Barton Street","city":"Jackson","state":"mo","zip":"63755","x":"-89.6671","y":"37.3828","tags":"baked goods crafts flowers herbs vegetables honey jams maple meat nuts plants soap"},{"type":"market","name":"Jefferson City Farmer's Market","website":"","facebook":"","twitter":"","street":"000 Main Street","city":"Jefferson City","state":"mo","zip":"00000","x":"-92.190459","y":"38.571902","tags":"wine"},{"type":"market","name":"Joplin Farmers' Market","website":"http://agrimissouri.com/mo-grown/grodetail.php?type=mo-grown&ID=602","facebook":"","twitter":"","street":"212 West 8th Street","city":"Joplin","state":"mo","zip":"64801","x":"-94.514790","y":"37.082804","tags":"baked goods crafts flowers eggs herbs vegetables honey jams meat plants poultry prepared soap trees fruits"},{"type":"market","name":"Katy Trail Market","website":"","facebook":"","twitter":"","street":"","city":"Ashland ","state":"mo","zip":"","x":"-92.262023","y":"38.778763","tags":""},{"type":"market","name":"KC Organics and Natural Market","website":"http://www.kcorganics.com","facebook":"https://www.facebook.com/kcorganicsandnaturalmarket?Cached","twitter":"","street":"1/4 mile East of Holmes Road on Red Bridge Road","city":"Kansas City","state":"mo","zip":"64114","x":"-94.575908","y":"38.924954","tags":"organic baked goods cheese crafts flowers eggs herbs vegetables honey jams maple meat nuts plants poultry prepared soap trees coffee beans fruits grains pet food wild"},{"type":"market","name":"Kennett Community Farmers Market","website":"","facebook":"","twitter":"","street":"Court House Square","city":"Kennett","state":"mo","zip":"63857","x":"-90.0562","y":"36.2368","tags":"baked goods crafts flowers herbs vegetables honey jams maple plants soap"},{"type":"market","name":"Kirksville Kiwanis Farmers' Market","website":"","facebook":"Kirksville Kiwanis Farmers' Market","twitter":"","street":"100 North Elson Street","city":"Kirksville","state":"mo","zip":"63501","x":"-92.584293","y":"40.195114","tags":"baked goods crafts flowers eggs herbs vegetables honey jams meat plants poultry prepared soap trees fruits juices"},{"type":"market","name":"Kirkwood Farmers' Market","website":"http://www.downtownkirkwood.com","facebook":"","twitter":"","street":"150 E. Argonne","city":"Kirkwood","state":"mo","zip":"63122","x":"-90.4024","y":"38.5793","tags":""},{"type":"market","name":"Lafayette County Famers Market (Concordia)","website":"","facebook":"","twitter":"","street":"Central Park, 600 Main Street","city":"Concordia","state":"mo","zip":"","x":"-93.5726","y":"38.9858","tags":""},{"type":"market","name":"Lafayette County Farmers' Market - Higginsville","website":"http://www.higginsvillechamber.org/market.aspx","facebook":"","twitter":"","street":"15 East 20th Street","city":"Higginsville","state":"mo","zip":"64037","x":"-93.716878","y":"39.075013","tags":"baked goods crafts flowers eggs herbs vegetables honey jams plants prepared soap fruits"},{"type":"market","name":"Lafayette County Farmers' Market - Lexington","website":"http://www.visitlexingtonmo.com","facebook":"","twitter":"","street":"1211 Main Street","city":"Lexington","state":"mo","zip":"64067","x":"-93.880845","y":"39.185393","tags":"baked goods crafts flowers eggs herbs vegetables honey plants prepared soap fruits"},{"type":"market","name":"Lafayette County Farmers' Market - Odessa","website":"","facebook":"Odessa-MO Farmers' Market","twitter":"","street":"Mason and Second","city":"Odessa ","state":"mo","zip":"64076","x":"-93.953488","y":"38.999209","tags":"baked goods flowers eggs vegetables honey jams meat plants fruits"},{"type":"market","name":"Lake Saint Louis Farmers and Artists Market","website":"http://www.lakesaintlouisfarmersandartistsmarket.com","facebook":"https://www.facebook.com/pages/Lake-Saint-Louis-Farmers-Artists-Market-at-The-Meadows/122964644496022?fref=ts","twitter":"","street":"Hwy 40 and Lake Saint Louis Boulevard","city":"O'Fallon ","state":"mo","zip":"63366","x":"-90.770229","y":"38.805214","tags":"baked goods cheese crafts flowers eggs seafood herbs vegetables honey jams meat plants poultry prepared soap trees fruits"},{"type":"market","name":"Lathrop Farmers' Market","website":"","facebook":"","twitter":"","street":"City Park of Lathrop MO","city":"Turney","state":"mo","zip":"64493","x":"-94.3211","y":"39.6347","tags":""},{"type":"market","name":"Lawson Farmers' Market","website":"","facebook":"","twitter":"","street":"Downtown square, across form Lawson Super grocery store in Lawson MO","city":"Lawson","state":"mo","zip":"64062","x":"-94.2043","y":"39.4376","tags":""},{"type":"market","name":"Lebanon Farmers' Market","website":"http://LebanonFarmersMarket.weebly.com","facebook":"https://www.facebook.com/pages/Lebanon-Farmers-Market/120226951341240?ref=hl","twitter":"","street":"Jefferson Av at the railroad tracks","city":"Lebanon","state":"mo","zip":"","x":"-92.662683","y":"37.680144","tags":"baked goods crafts flowers eggs herbs vegetables honey jams meat plants prepared soap fruits pet food wild"},{"type":"market","name":"Liberty Wednesday Farmers' Market","website":"","facebook":"Liberty Farmers Market","twitter":"","street":"1332 W. Kansas Street","city":"Liberty","state":"mo","zip":"64068","x":"-94.4445687","y":"39.2427807","tags":"crafts flowers eggs herbs vegetables jams meat plants soap fruits"},{"type":"market","name":"Lincoln University Farmers Market","website":"http://lincolnufarmersmarket.com/","facebook":"Lincoln University Farmers' Market","twitter":"","street":"900 Leslie Blvd.","city":"Jefferson City","state":"mo","zip":"65101","x":"-92.175744","y":"38.557440","tags":"organic baked goods cheese crafts flowers eggs vegetables honey jams meat nuts plants poultry coffee fruits pet food"},{"type":"market","name":"Little Farm Store Market","website":"","facebook":"https://www.facebook.com/PleasantValleyFamilyFarm/","twitter":"","street":"520 Lucky Road","city":"Seymour","state":"mo","zip":"65746","x":"-92.680159","y":"37.118045","tags":"baked goods crafts flowers eggs herbs vegetables honey jams plants prepared soap coffee fruits mushrooms"},{"type":"market","name":"Lone Star Farmer's Market","website":"","facebook":"https://www.facebook.com/HoustonMoFarmersMarket/?ref=bookmarks","twitter":"","street":"Lone Star Plaza ","city":"Houston ","state":"mo","zip":"65483","x":"-91.957181","y":"37.326454","tags":"baked goods cheese crafts eggs herbs vegetables honey jams meat plants poultry prepared soap trees fruits wild"},{"type":"market","name":"Loud House Farm","website":"http://loudhousefarm.com ","facebook":"","twitter":"","street":"4300 East 113th Street","city":"Kansas City","state":"mo","zip":"64137","x":"-94.5417188","y":"38.9213581","tags":"baked goods eggs vegetables fruits"},{"type":"market","name":"Louisiana Community Betterment Farmer's Market","website":"","facebook":"Louisiana Community Betterment Farmers Market","twitter":"","street":"Sunset Park, Georgia Street","city":"Louisiana ","state":"mo","zip":"63353","x":"-91.062659","y":"39.441188","tags":"baked goods crafts flowers eggs herbs vegetables honey jams maple nuts plants prepared soap fruits juices"},{"type":"market","name":"Madison County Saturday Farmers' Market","website":"","facebook":"","twitter":"","street":"320 North Mine La Motte Street","city":"Fredericktown","state":"mo","zip":"63645","x":"-90.2927069","y":"37.5638215","tags":"baked goods eggs vegetables fruits"},{"type":"market","name":"Main Street Market of Carrolton","website":"http://agrimissouri.com/mo-grown/grodetail.php?type=mo-grown&ID=297","facebook":"","twitter":"","street":"101 North Main Street","city":"Carrolton","state":"mo","zip":"64633","x":"-93.496054","y":"39.359239","tags":"baked goods crafts herbs vegetables honey jams prepared soap fruits"},{"type":"market","name":"Marceline Farmers' Market (MABCC)","website":"http://www.marcellinemarket.com ","facebook":"","twitter":"","street":"Ripley Park, Main Street","city":"Marceline ","state":"mo","zip":"64658","x":"-92.9482526","y":"39.7119703","tags":"baked goods vegetables fruits"},{"type":"market","name":"Market in the Loop","website":"http://www.themarketintheloop.com","facebook":"","twitter":"","street":"8420 Delmar, Delmar and Berick intersection in University City MO","city":"University City","state":"mo","zip":"63130","x":"-90.3328","y":"38.6589","tags":""},{"type":"market","name":"Marshall Market on the Square","website":"http://www.marshallmarketonthesquare.org","facebook":"https://www.facebook.com/pages/Marshall-Market-on-the-Square/112291268846419","twitter":"","street":"  N Jefferson St","city":"Marshall","state":"mo","zip":"65340","x":"-93.196678","y":"39.120805","tags":"baked goods crafts flowers eggs seafood herbs vegetables honey jams meat plants poultry soap trees fruits"},{"type":"market","name":"MARSHFIELD FARMERS MARKET","website":"","facebook":"MARSHFIELD FARMERS MARKET","twitter":"","street":"900 WASHINGTON","city":"Marshfield ","state":"mo","zip":"65706","x":"-92.920421","y":"37.335420","tags":"baked goods crafts eggs herbs vegetables honey jams meat plants prepared soap fruits"},{"type":"market","name":"Martin City Farm and Outdoor Market","website":"http://agrimissouri.com/mo-grown/grodetail.php?type=mo-grown&ID=663","facebook":"","twitter":"","street":"Homes Road and 135th Street","city":"Martin City","state":"mo","zip":"64147","x":"-94.586592","y":"38.882129","tags":"baked goods herbs vegetables jams plants fruits"},{"type":"market","name":"Mercer County Farmers' Market","website":"","facebook":"","twitter":"","street":"Corner of Hwy 136 & 65 in Princeton MO","city":"Mercer","state":"mo","zip":"64661","x":"-93.5767","y":"40.3984","tags":""},{"type":"market","name":"Mexico Farmers Market, Inc.","website":"","facebook":"https://www.facebook.com/mexicomoareafarmersmarket","twitter":"","street":"3001 S. Clark Street","city":"Mexico, MO","state":"mo","zip":"65265","x":"-91.8906487","y":"39.1435316","tags":"baked goods crafts eggs herbs vegetables honey jams meat plants trees fruits"},{"type":"market","name":"Midtown Farmers Market","website":"http://www.midwestfarmersmarkets.org/markets/midtown-farmers-market/","facebook":"https://www.facebook.com/Midtown-Farmers-Market-655879797806495/","twitter":"https://twitter.com/MidtownFmsMkt","street":"6655 Delmar Blvd, Back Lot","city":"University City","state":"mo","zip":"63130","x":"-90.307251","y":"38.656378","tags":"organic baked goods cheese crafts flowers eggs seafood herbs vegetables honey jams meat nuts plants poultry prepared soap trees coffee fruits juices mushrooms pet food wild"},{"type":"market","name":"Missouri Made & More LLC","website":"http://www.missourimadeandmore.com ","facebook":"","twitter":"","street":"300 West Newton","city":"Versailles ","state":"mo","zip":"65084","x":"-92.8440931","y":"38.4316445","tags":"baked goods crafts eggs vegetables jams plants coffee fruits grains"},{"type":"market","name":"Moberly Farmers' Market","website":"","facebook":"","twitter":"","street":"Downtown Moberly Historic Depot Park on Strugeon Street between Coates and Rollins.","city":"Moberly","state":"mo","zip":"65270","x":"-92.4382367","y":"39.4183689","tags":"baked goods herbs vegetables jams trees fruits"},{"type":"market","name":"Monett Area Farmer's Market","website":"","facebook":"www.facebook.com/MonettFarmersMarket","twitter":"","street":"Hwy 60 and Hwy 37","city":"Monett","state":"mo","zip":"65708","x":"-93.925624","y":"36.910581","tags":"baked goods eggs vegetables honey meat plants poultry fruits"},{"type":"market","name":"Monroe County Farmers' Market","website":"","facebook":"","twitter":"","street":"Monroe County Courthouse in downtown Paris MO","city":"Paris","state":"mo","zip":"65275","x":"-92.0013","y":"39.4809","tags":""},{"type":"market","name":"Mother Earth Market","website":"http://agrimissouri.com/mo-grown/grodetail.php?type=mo-grown&ID=279","facebook":"","twitter":"","street":"28133 Highway 24","city":"Waverly","state":"mo","zip":"64096","x":"-93.567479","y":"39.201794","tags":"baked goods crafts flowers herbs vegetables honey jams plants prepared soap fruits"},{"type":"market","name":"Mount Vernon Farmers' Market","website":"http://agrimissouri.com/mo-grown/grodetail.php?type=mo-grown&ID=614","facebook":"","twitter":"","street":"Courthouse Square","city":"Mount Vernon","state":"mo","zip":"65712","x":"-93.818540","y":"37.103667","tags":"cheese crafts flowers eggs herbs vegetables honey jams meat plants poultry prepared soap fruits"},{"type":"market","name":"Mountain Grove Farmers' Market Association","website":"","facebook":"https://www.facebook.com/mountaingrovefarmersmarket","twitter":"","street":"9871 E. 20th St","city":"Mountain Grove","state":"mo","zip":"65711","x":"-92.2559571","y":"37.1473708","tags":"baked goods crafts eggs vegetables honey jams coffee fruits"},{"type":"market","name":"Mountain View Farmers' Market","website":"http://agrimissouri.com/mo-grown/grodetail.php?type=mo-grown&ID=616","facebook":"","twitter":"","street":"Pine Street","city":"Mountain View","state":"mo","zip":"65548","x":"-91.703172","y":"36.992413","tags":"baked goods crafts flowers eggs herbs vegetables honey jams plants prepared soap fruits"},{"type":"market","name":"Neosho Farmers Market","website":"http://neoshofarmersmarket@gmail.com","facebook":"https://www.facebook.com/NeoshoFarmersMarket","twitter":"","street":"Spring & Jefferson St","city":"Downtown Neosho","state":"mo","zip":"64850","x":"-94.370028","y":"36.870009","tags":"baked goods cheese crafts flowers eggs herbs vegetables honey meat plants poultry prepared soap trees coffee fruits juices"},{"type":"market","name":"New Haven Farmers' Market","website":"http://www.riverfrontsociety.com/farmersmarket.html","facebook":"","twitter":"","street":"Olive and Main","city":"New Haven","state":"mo","zip":"63068","x":"-91.214845","y":"38.615501","tags":"baked goods crafts flowers eggs herbs vegetables honey jams plants prepared soap fruits"},{"type":"market","name":"Nixa Farmers Market Inc","website":"","facebook":"","twitter":"","street":"113 W Mount Vernon St","city":"Nixa","state":"mo","zip":"65714","x":"-93.2948","y":"37.0434","tags":""},{"type":"market","name":"Nodaway County Farmers' Market","website":"","facebook":"","twitter":"","street":"Marymart Shopping Center, Main St in Maryville MO","city":"Maryville","state":"mo","zip":"64468","x":"-94.8739","y":"40.3317","tags":""},{"type":"market","name":"North City Farmers' Market","website":"http://www.northcityfarmersmarket.blogspot.com/","facebook":"https://www.facebook.com/NorthCityMarket","twitter":"","street":"2700 North 13th Street","city":"St. Louis","state":"mo","zip":"63106","x":"-90.196186","y":"38.651254","tags":"baked goods crafts flowers herbs vegetables honey jams plants coffee fruits"},{"type":"market","name":"North Kansas City Farmers Market","website":"http://www.nkcbusinesscouncil.com","facebook":"","twitter":"","street":"Armour Rd and Howell St in North Kansas City MO","city":"North Kansas City","state":"mo","zip":"64116","x":"-94.57233","y":"39.14228","tags":"baked goods crafts eggs herbs vegetables honey jams meat plants coffee fruits"},{"type":"market","name":"North Village Arts District Farmers and Artisans Market","website":"http://www.farmandart.com","facebook":"","twitter":"","street":"126 North 10th Street","city":"Columbia","state":"mo","zip":"65201","x":"-92.3263752","y":"38.9530586","tags":"organic baked goods cheese crafts flowers eggs herbs vegetables honey jams meat nursery plants prepared soap"},{"type":"market","name":"Northeast Farmers' Market","website":"http://NEFarmersMarket.wordpress.com","facebook":"Facebook.com/NEKCFarmersMarket","twitter":"","street":"3001 Independence Ave","city":"Kansas City","state":"mo","zip":"64124","x":"-94.5456169","y":"39.1058020","tags":"baked goods cheese crafts flowers eggs herbs vegetables honey jams meat plants soap coffee fruits"},{"type":"market","name":"Olde Towne Fenton Farmers Market","website":"http://fentonmo.org/index.aspx?nid=1116","facebook":"https://www.facebook.com/FentonFarmersMarket/","twitter":"","street":"200 Gravois","city":"Fenton","state":"mo","zip":"63026","x":"-90.4348795","y":"38.5112107","tags":"baked goods crafts flowers eggs seafood herbs vegetables honey jams meat poultry prepared soap trees fruits"},{"type":"market","name":"Open Farmers' Market of Aurora","website":"","facebook":"","twitter":"","street":"Oak & Church St","city":"Aurora","state":"mo","zip":"65605","x":"-93.7153193","y":"36.9706027","tags":"baked goods eggs herbs vegetables jams trees fruits"},{"type":"market","name":"Osage Beach Farmers Market","website":"http://www.osagebeachfarmersmarket.com","facebook":"www.facebook.com/osagebeachfarmersmarket","twitter":"","street":"3797 Osage Beach Parkway","city":"Osage Beach","state":"mo","zip":"65047","x":"-92.608413","y":"38.161445","tags":"baked goods cheese crafts flowers eggs herbs vegetables honey jams meat plants poultry prepared soap fruits"},{"type":"market","name":"Overland Farmer's Market 63114","website":"http://www.overlandfarmersmarket.com","facebook":"https://www.facebook.com/OverlandFarmersMarket?ref=br_tf","twitter":"","street":"2500 Woodson Road","city":"Overland","state":"mo","zip":"63114","x":"-90.3618731","y":"38.7024579","tags":"baked goods crafts vegetables honey plants fruits"},{"type":"market","name":"Owensville Farmers' Market","website":"http://agrimissouri.com/mo-grown/grodetail.php?type=mo-grown&ID=2038","facebook":"","twitter":"","street":"Highway 19","city":"Owensville","state":"mo","zip":"65453","x":"-91.487223","y":"38.352367","tags":"baked goods crafts flowers herbs vegetables honey jams plants soap trees fruits"},{"type":"market","name":"Ozark Downtown Farmers' Market--Powered by FMO","website":"","facebook":"","twitter":"","street":"115 E Church St","city":"Ozark","state":"mo","zip":"65721","x":"-93.2051789","y":"37.0209078","tags":"baked goods cheese crafts flowers eggs seafood herbs vegetables jams nuts plants trees fruits"},{"type":"market","name":"Ozark Square Farmers' Market","website":"http://www.ozarkmainstreet.org","facebook":"","twitter":"","street":"Courthouse Square","city":"Ozark","state":"mo","zip":"65721","x":"-93.205114","y":"37.020370","tags":"baked goods crafts flowers eggs herbs vegetables honey jams plants prepared soap trees fruits"},{"type":"market","name":"Ozarks Farmers' Market","website":"http://agrimissouri.com/mo-grown/grodetail.php?type=mo-grown&ID=635","facebook":"","twitter":"","street":"Market and Couch Streets","city":"Alton","state":"mo","zip":"65606","x":"-91.398622","y":"36.694025","tags":""},{"type":"market","name":"Parkville Farmers' Market","website":"http://www.parkvillefarmersmarket.com","facebook":"https://www.facebook.com/pages/Parkville-Farmers-Market","twitter":"","street":"English Landing Park, off Hwy 9 in Parkville MO","city":"Parkville","state":"mo","zip":"","x":"-94.683086","y":"39.187828","tags":"baked goods crafts flowers eggs herbs vegetables honey jams meat plants prepared soap coffee fruits wild"},{"type":"market","name":"Peculiar Farmers & Artisians Market","website":"","facebook":"","twitter":"","street":"500 Schug Ave","city":"Peculiar","state":"mo","zip":"","x":"-94.4574080","y":"38.7232960","tags":"baked goods crafts eggs herbs vegetables honey jams poultry soap fruits"},{"type":"market","name":"Pevely Flea Market and Farmers' Market","website":"http://www.pflea.com","facebook":"","twitter":"","street":"8773 Commercial Boulevard","city":"Pevely","state":"mo","zip":"63070","x":"-90.391476","y":"38.286558","tags":"baked goods crafts flowers eggs herbs vegetables honey jams nuts plants prepared soap trees fruits"},{"type":"market","name":"Pierce City Farmers' Market","website":"http://agrimissouri.com/mo-grown/grodetail.php?type=mo-grown&ID=875","facebook":"","twitter":"","street":"Hwy 37, Hwy 97 and Locust Street","city":"Pierce City","state":"mo","zip":"65723","x":"-94.004404","y":"36.944596","tags":"baked goods crafts flowers eggs herbs vegetables honey jams plants prepared soap fruits"},{"type":"market","name":"PLATTE CITY FARMERS MARKET","website":"","facebook":"","twitter":"","street":"2601 RUNNING HORSE ROAD","city":"PLATTE CITY","state":"mo","zip":"","x":"-94.7692","y":"39.3476","tags":""},{"type":"market","name":"Pony Express Farmers' Market","website":"http://www.ponyexpressfarmersmarket.com","facebook":"https://www.facebook.com/pages/Pony-Express-Farmers-Market/335013619865824","twitter":"","street":"Woodbine Rd & Frederick Ave.","city":"St. Joseph","state":"mo","zip":"64506","x":"-94.797327","y":"39.775632","tags":"baked goods crafts flowers eggs herbs vegetables honey jams meat nuts plants prepared soap coffee beans fruits pet food"},{"type":"market","name":"Prairie Township Natural Products","website":"http://www.prairietownshipproducts.com ","facebook":"","twitter":"","street":"105 Kern Road","city":"Middletown","state":"mo","zip":"63359","x":"-91.447156","y":"39.091153","tags":"meat"},{"type":"market","name":"Pulaski County Farmer's Market","website":"","facebook":"https://www.facebook.com/PulaskiCountyMOFarmersMarket","twitter":"","street":"Waynesville Park - Corner of Pine and Benton in Downtown Waynesville","city":"Waynesville","state":"mo","zip":"65583","x":"-92.201622","y":"37.832819","tags":"baked goods crafts flowers eggs herbs vegetables honey jams maple meat nuts plants poultry prepared soap fruits grains juices"},{"type":"market","name":"Putnam County Farmers' Market","website":"","facebook":"","twitter":"","street":"City park, north of 4-way stop on Hwy 5 in Unionville MO","city":"Unionville","state":"mo","zip":"63565","x":"-92.9776","y":"40.4745","tags":""},{"type":"market","name":"Raymore's Original Town Farmers' Market","website":"http://www.raymore.com/index.aspx?nid=504","facebook":"https://www.facebook.com/cityofraymoremo","twitter":"","street":"200 South Washington","city":"Raymore","state":"mo","zip":"64083","x":"-94.453098","y":"38.801981","tags":"baked goods crafts flowers eggs herbs vegetables honey jams meat plants poultry prepared trees fruits"},{"type":"market","name":"Raytown Farmers' Market","website":"http://www.RaytownFarmersMarket.com","facebook":"https://www.facebook.com/RaytownFarmersMarketRaytownMO","twitter":"","street":"6210 Raytown Road","city":"Raytown ","state":"mo","zip":"64133","x":"-94.463531","y":"39.010033","tags":"baked goods cheese flowers eggs herbs vegetables honey jams meat prepared soap coffee fruits mushrooms"},{"type":"market","name":"Republic Farmers' Market","website":"","facebook":"","twitter":"","street":"Main St in Republic MO","city":"Ozark","state":"mo","zip":"65721","x":"-93.206","y":"37.0209","tags":""},{"type":"market","name":"Ripley County Farmers' Market","website":"","facebook":"","twitter":"","street":"Franklin St in Doniphan MO","city":"Doniphan","state":"mo","zip":"","x":"-90.8294","y":"36.6929","tags":""},{"type":"market","name":"River Hills Market - Silex","website":"","facebook":"","twitter":"","street":"Silex Community Park, off of Hwy E","city":"Clarksville","state":"mo","zip":"63336","x":"-90.9051","y":"39.3706","tags":""},{"type":"market","name":"Rockaway Beach Farmers' Market","website":"","facebook":"","twitter":"","street":"2536 Hwy 176 in Rockaway Beach MO","city":"Rockaway Beach","state":"mo","zip":"65740","x":"-93.1573","y":"36.7004","tags":""},{"type":"market","name":"Rogersville Farmer's Market","website":"","facebook":"https://www.facebook.com/rogersvillefriendsofthepark/","twitter":"","street":"270 County Line Road","city":"Rogersville","state":"mo","zip":"65741","x":"-93.066381","y":"37.115153","tags":"baked goods crafts flowers eggs herbs vegetables honey jams meat plants poultry prepared soap trees coffee fruits juices mushrooms pet food"},{"type":"market","name":"Rolla Farmers' Market","website":"http://agrimissouri.com/mo-grown/grodetail.php?type=mo-grown&ID=643","facebook":"","twitter":"","street":"Hwy 63","city":"Rolla","state":"mo","zip":"65401","x":"-91.780263","y":"37.922004","tags":"baked goods crafts flowers eggs herbs vegetables honey jams meat plants poultry soap fruits"},{"type":"market","name":"Root 66 Farmers' Market","website":"http://agrimissouri.com/mo-grown/grodetail.php?type=mo-grown&ID=1493","facebook":"https://www.facebook.com/Root66Market","twitter":"","street":"East Washington Blvd. and McClay St.","city":"Cuba","state":"mo","zip":"65453","x":"-91.403483","y":"38.062823","tags":"baked goods crafts flowers eggs herbs vegetables honey jams meat plants poultry prepared soap trees fruits"},{"type":"market","name":"Route 66 Farmer's Market","website":"","facebook":"","twitter":"","street":"920 Plaza Drive","city":"St. Clair","state":"mo","zip":"63077","x":"-90.987401","y":"38.348942","tags":"baked goods eggs vegetables jams maple nuts plants trees fruits"},{"type":"market","name":"Rt. 66 Farmers' Market St. Clair","website":"","facebook":"","twitter":"","street":"855 N. Commercial--HealthMart Pharmacy","city":"St. Clair","state":"mo","zip":"63077","x":"-90.987401","y":"38.348942","tags":"baked goods cheese eggs herbs vegetables jams meat nuts plants trees fruits"},{"type":"market","name":"Russellville Farmers' Market","website":"http://agrimissouri.com/mo-grown/grodetail.php?type=mo-grown&ID=461","facebook":"","twitter":"","street":"Route C","city":"Russellville","state":"mo","zip":"65074","x":"-92.451427","y":"38.509256","tags":"baked goods crafts flowers eggs herbs vegetables honey jams plants prepared soap fruits"},{"type":"market","name":"Rutherford Farm Market","website":"http://agrimissouri.com/mo-grown/grodetail.php?type=mo-grown&ID=1237","facebook":"","twitter":"","street":"741 Highway TT","city":"Silex","state":"mo","zip":"63377","x":"-91.111600","y":"39.061531","tags":"eggs herbs vegetables honey meat poultry fruits"},{"type":"market","name":"Rutledge Farmers' Market","website":"http://agrimissouri.com/mo-grown/grodetail.php?type=mo-grown&ID=644","facebook":"","twitter":"","street":"Town Park","city":"Rutledge","state":"mo","zip":"63563","x":"-92.088776","y":"40.308985","tags":"baked goods eggs herbs vegetables jams prepared fruits"},{"type":"market","name":"Salem Farmers Market","website":"","facebook":"https://www.facebook.com/salemfarmersmarket","twitter":"","street":"200 Main Street","city":"Salem","state":"mo","zip":"65560","x":"-91.5362647","y":"37.6442949","tags":"baked goods cheese eggs herbs vegetables honey nuts plants poultry prepared soap trees fruits grains mushrooms wild"},{"type":"market","name":"Schlafly Winter Farmers' Market","website":"http://www.schlaflyfarmersmarket.com","facebook":"","twitter":"","street":"7260 Southwest Ave.","city":"Maplewood","state":"mo","zip":"63143","x":"-90.3153033","y":"38.6130246","tags":"baked goods cheese crafts flowers eggs herbs vegetables honey jams maple meat nuts plants poultry soap trees fruits"},{"type":"market","name":"Schranz Nut and Honey Farm","website":"http://agrimissouri.com/mo-grown/grodetail.php?type=mo-grown&ID=1908","facebook":"","twitter":"","street":"193 VFW Road","city":"Eldon","state":"mo","zip":"65026","x":"-92.605401","y":"38.297467","tags":"eggs herbs vegetables honey meat plants poultry fruits"},{"type":"market","name":"Schuyler County Farmers' Market","website":"","facebook":"","twitter":"","street":"BP off of Hwy 63 in Lancaster MO","city":"Lancaseter","state":"mo","zip":"63548","x":"-92.5","y":"40.4858","tags":""},{"type":"market","name":"Scotland County Farmers Market","website":"","facebook":"","twitter":"","street":"Courthouse Square","city":"Memphis","state":"mo","zip":"63555","x":"-92.1703","y":"40.4581","tags":"organic baked goods crafts eggs herbs vegetables jams plants prepared soap trees fruits"},{"type":"market","name":"Sedalia Area Farmers' Market","website":"http://www.sedaliaareafarmersmarket.com/","facebook":"https://www.facebook.com/SedaliaFarmersMarket/","twitter":"","street":"1900 S Limit Ave","city":"Sedalia, MO","state":"mo","zip":"65301","x":"-93.251076","y":"38.695069","tags":"baked goods crafts flowers eggs herbs vegetables honey jams meat plants poultry prepared soap coffee beans fruits grains juices mushrooms pet food wild"},{"type":"market","name":"Shannon County Farmers' Market","website":"","facebook":"","twitter":"","street":"Hc 2 Box 210","city":"Eminence","state":"mo","zip":"65466","x":"-91.3576350","y":"37.1506044","tags":"baked goods cheese crafts eggs herbs vegetables jams meat plants soap trees fruits"},{"type":"market","name":"Shelby County Farmer's Market","website":"http://www.shelbycountymo.com","facebook":"","twitter":"","street":"Highway 15 N.","city":"Shelbina","state":"mo","zip":"63468","x":"-92.037706","y":"39.705866","tags":"baked goods cheese crafts flowers eggs herbs vegetables jams nursery plants soap"},{"type":"market","name":"Small Farms Network Butler County Market","website":"http://www.sustainablecommunitiesozarks.org","facebook":"https://www.facebook.com/pages/Sustainable-Communities-and-Small-Farms-Network/104762082907149","twitter":"","street":"77 Ponder Stree","city":"Harviell, MO","state":"mo","zip":"63954","x":"-90.4738729","y":"36.6650922","tags":"crafts eggs vegetables soap fruits"},{"type":"market","name":"Soulard Farmers Market","website":"http://www.soulardmarketstl.com","facebook":"www.facebook.com/soulardmarketstl","twitter":"https://twitter.com/soulard_market","street":"730 Carroll St (at 7th St.) in St Louis MO","city":"St Louis","state":"mo","zip":"","x":"-90.201066","y":"38.610777","tags":"baked goods cheese crafts flowers eggs seafood herbs vegetables honey jams maple meat nuts plants poultry prepared soap trees wine coffee beans fruits grains pet food tofu wild"},{"type":"market","name":"South Hampton Farmers' Market","website":"http://www.sohafarmersmarket.com","facebook":"","twitter":"","street":"Hwy 40 or 44 to South Hampton. East on Chippewa, south on Macklind. Corner of Nottingham and Macklind in the heart of Macklind Ave Business District.","city":"St. Louis","state":"mo","zip":"","x":"-90.2844","y":"38.586","tags":""},{"type":"market","name":"South St. Joseph Farmers Market at the Junction","website":"","facebook":"Southside Junction Farmers Market","twitter":"","street":"Lake & Illinois Avenues","city":"St. Joseph ","state":"mo","zip":"64504","x":"-94.865955","y":"39.718654","tags":"baked goods crafts flowers eggs herbs vegetables honey jams nuts plants prepared soap fruits juices mushrooms pet food wild"},{"type":"market","name":"South US 63 Farmers' Market","website":"http://agrimissouri.com/mo-grown/grodetail.php?type=mo-grown&ID=1547","facebook":"","twitter":"","street":"South Hwy 63","city":"Rolla","state":"mo","zip":"65401","x":"-92.324849","y":"39.247804","tags":"baked goods eggs herbs vegetables plants fruits"},{"type":"market","name":"Southside Farmers' Market","website":"","facebook":"","twitter":"","street":"1404 S. Missouri Street","city":"Macon","state":"mo","zip":"63552","x":"-92.4668","y":"39.72005","tags":"vegetables honey fruits"},{"type":"market","name":"Southwest Sustainable Farmers' Market","website":"http://agrimissouri.com/mo-grown/grodetail.php?type=mo-grown&ID=646","facebook":"","twitter":"","street":"218 Glenstone Avenue","city":"Springfield","state":"mo","zip":"65804","x":"-93.260549","y":"37.207987","tags":""},{"type":"market","name":"St. Charles Lions Club Farmers' Market","website":"http://agrimissouri.com/mo-grown/grodetail.php?type=mo-grown&ID=647","facebook":"","twitter":"","street":"300 North Riverside Drive","city":"St. Charles ","state":"mo","zip":"63301","x":"-90.481324","y":"38.779358","tags":"baked goods crafts flowers eggs herbs vegetables honey jams meat plants poultry prepared soap fruits"},{"type":"market","name":"St. Clair Farmers Market ","website":"","facebook":"https://www.facebook.com/pages/Route-66-Farmers-Market-St-Clair/114351778639792","twitter":"","street":"#1 Paul Parks Drive","city":"St. Clair","state":"mo","zip":"63077","x":"-90.987401","y":"38.348942","tags":"baked goods crafts flowers eggs herbs vegetables honey jams plants prepared soap coffee fruits grains"},{"type":"market","name":"St. James Farmers' Market","website":"http://agrimissouri.com/mo-grown/grodetail.php?type=mo-grown&ID=648","facebook":"","twitter":"","street":"Hwy. 68","city":"St. James","state":"mo","zip":"65559","x":"-91.611405","y":"37.983663","tags":"baked goods crafts flowers eggs herbs vegetables honey jams meat plants poultry prepared soap fruits"},{"type":"market","name":"St. Louis Community Farmers' Market","website":"http://groups.google.com/group/stlcfm ","facebook":"","twitter":"","street":"3664 Arsenal Street","city":"St. Louis","state":"mo","zip":"63116","x":"-90.244813","y":"38.602771","tags":"organic baked goods cheese crafts flowers eggs herbs vegetables honey jams meat plants poultry prepared soap fruits"},{"type":"market","name":"Ste Genevieve County Farmers Market","website":"","facebook":"","twitter":"","street":"Corner of Third & Jefferson Sts","city":"Ste. Genevieve","state":"mo","zip":"","x":"-90.0453","y":"37.9853","tags":""},{"type":"market","name":"Sullivan Farmers' Market","website":"http://www.sullivanmochamber.com","facebook":"","twitter":"","street":"305 Fisher Drive","city":"Sullivan","state":"mo","zip":"63080","x":"-91.168592","y":"38.210331","tags":"baked goods crafts flowers eggs herbs vegetables honey jams meat plants poultry prepared soap fruits"},{"type":"market","name":"Sunrise Farmers Market","website":"","facebook":"","twitter":"","street":"14539 N State Highway 5","city":"Sunrise Beach","state":"mo","zip":"65079","x":"-92.7765869","y":"38.1566568","tags":"crafts flowers vegetables plants trees fruits"},{"type":"market","name":"The Farmers' Market at Fort Leonard Wood","website":"http://www.flwfarmersmarket.com","facebook":"facebook.com/flwfarmersmarket","twitter":"","street":"Bldg 604, Constitution Ave","city":"Fort Leonard Wood ","state":"mo","zip":"65473","x":"-92.1175339","y":"37.7536540","tags":"baked goods cheese flowers eggs herbs vegetables honey jams maple meat plants poultry prepared beans fruits grains pet food wild"},{"type":"market","name":"The Herb Chalet","website":"http://agrimissouri.com/mo-grown/grodetail.php?type=mo-grown&ID=458","facebook":"","twitter":"","street":"409 Amelia Avenue","city":"Lexington","state":"mo","zip":"64067","x":"-93.876145","y":"39.180452","tags":"crafts flowers herbs vegetables jams fruits"},{"type":"market","name":"The Market in the Loop","website":"http://www.themarketintheloop.com","facebook":"","twitter":"","street":"6655 Delmar","city":"University City","state":"mo","zip":"63130","x":"-90.307147","y":"38.656210","tags":"baked goods crafts flowers eggs herbs vegetables honey jams meat poultry prepared soap fruits"},{"type":"market","name":"TMC Healthy Harvest Mobile Market","website":"http://www.pitch.com/FastPitch/archives/2012/07/17/tmc-healthy-harvest-mobile-market-is-now-rolling-in-kansas-city","facebook":"https://www.facebook.com/HHEDCMobileMarket","twitter":"","street":"","city":"","state":"mo","zip":"","x":"","y":"","tags":""},{"type":"market","name":"Tower Grove Farmers' Market","website":"http://www.tgmarket.org","facebook":"","twitter":"","street":"4256 Magnolia Ave","city":"St Louis","state":"mo","zip":"63110","x":"-90.2592","y":"38.6066","tags":"organic baked goods cheese crafts flowers herbs vegetables honey jams maple meat nuts plants prepared soap"},{"type":"market","name":"Trenton Farmers' Market","website":"","facebook":"","twitter":"","street":"Grundy County Fairgrounds in Trenton MO","city":"Trenton","state":"mo","zip":"64683","x":"-93.5133","y":"40.0696","tags":""},{"type":"market","name":"Troostwood Youth Garden Market","website":"","facebook":"","twitter":"","street":"5142 Paseo in Kansas City MO","city":"Kansas City","state":"mo","zip":"64110","x":"-94.5679","y":"39.0328","tags":"herbs plants"},{"type":"market","name":"Urbavore Urban Farm and Market","website":"http://www.badseedkc.com","facebook":"","twitter":"","street":"5500 Bennington Avenue","city":"Kansas City","state":"mo","zip":"64129","x":"-94.509932","y":"39.025535","tags":"eggs vegetables plants poultry fruits"},{"type":"market","name":"Vernon County Farmers Market","website":"","facebook":"Nevada Vernon County Farmers Market","twitter":"","street":"PO Box 873","city":"Nevada","state":"mo","zip":"64772","x":"-94.340102","y":"37.843772","tags":"baked goods flowers eggs herbs vegetables honey jams meat plants poultry soap fruits pet food"},{"type":"market","name":"Versailles Area Farmers' Market","website":"http://agrimissouri.com/mo-grown/grodetail.php?type=mo-grown&ID=224","facebook":"","twitter":"","street":"Courthouse Square","city":"Versailles","state":"mo","zip":"65084","x":"-92.841027","y":"38.431414","tags":"baked goods crafts flowers eggs herbs vegetables honey jams plants prepared soap fruits"},{"type":"market","name":"Waldo Farmer's Market","website":"http://www.waldofarmersmarketkc.com","facebook":"https://www.facebook.com/waldofarmersmarket","twitter":"","street":"303 West  79th Street","city":"Kansas City","state":"mo","zip":"64114","x":"-94.5933606","y":"38.9848916","tags":"organic baked goods cheese flowers eggs herbs vegetables honey jams maple meat nuts prepared soap coffee fruits mushrooms pet food"},{"type":"market","name":"Warren County Farmers & Artisans Market","website":"","facebook":"https://www.facebook.com/warrencountyfarmersandartisansmarket?ref=hl","twitter":"","street":"202 W. Walton","city":"Warrenton","state":"mo","zip":"63383","x":"-91.1499999","y":"38.8101828","tags":"baked goods crafts eggs herbs vegetables honey jams meat plants soap fruits"},{"type":"market","name":"Warren County Farmers & Artisans Market","website":"","facebook":"https://www.facebook.com/warrencountyfarmersandartisansmarket?ref=hl","twitter":"","street":"Diekroeger Park","city":"Wright City","state":"mo","zip":"63390","x":"-91.029912","y":"38.828623","tags":"baked goods crafts eggs vegetables honey jams meat plants soap fruits"},{"type":"market","name":"Warrensburg Main Street Farmers' Market","website":"http://agrimissouri.com/mo-grown/grodetail.php?type=mo-grown&ID=2072","facebook":"","twitter":"","street":"111 Holden Street","city":"Warrensburg","state":"mo","zip":"64093","x":"-93.740415","y":"38.762855","tags":"baked goods crafts flowers eggs herbs vegetables honey jams plants prepared soap fruits"},{"type":"market","name":"Warsaw Farmer's Market","website":"","facebook":"https://www.facebook.com/WarsawMoFarmersMarket/?ref=bookmarks","twitter":"","street":"1551 Commercial St.","city":"Warsaw","state":"mo","zip":"65355","x":"-93.3682291","y":"38.2520530","tags":"baked goods crafts eggs herbs vegetables honey jams meat plants soap trees fruits"},{"type":"market","name":"Warson Woods Farmers' Market","website":"","facebook":"","twitter":"","street":"10001 Manchester Road","city":"Warson Woods","state":"mo","zip":"63122","x":"-90.384723","y":"38.603499","tags":""},{"type":"market","name":"Watershed Farms","website":"","facebook":"","twitter":"","street":"4273 Highway E","city":"New Haven","state":"mo","zip":"63068","x":"-91.3678902","y":"38.5466389","tags":"vegetables fruits"},{"type":"market","name":"Webb City Farmers Market","website":"http://webbcityfarmersmarket.com","facebook":"http://www.webbcityfarmersmarket.com/","twitter":"Webb City Farmers Market","street":"106 East Tracy Streetr","city":"Webb City","state":"mo","zip":"64870","x":"-94.462033","y":"37.140020","tags":"baked goods cheese crafts flowers eggs herbs vegetables honey jams meat nuts plants poultry prepared soap coffee fruits"},{"type":"market","name":"Weeks Pumpkins and Produce","website":"http://agrimissouri.com/mo-grown/grodetail.php?type=mo-grown&ID=1497","facebook":"","twitter":"","street":"21 Shaffer Road","city":"Fair Grove","state":"mo","zip":"65648","x":"-93.109643","y":"37.416978","tags":"herbs vegetables jams plants fruits"},{"type":"market","name":"Wentzville Farmers Market","website":"http://www.wentzvillechamber.com","facebook":"","twitter":"","street":"5 W Pearce Blvd, Downtown","city":"Wentzville","state":"mo","zip":"","x":"-90.8536","y":"38.8122","tags":""},{"type":"market","name":"West Plains Area Farmers' Market","website":"","facebook":"www.facebook.com/WestPlainsAreaFarmersMarket/","twitter":"","street":"1380 Bill Virdon Blvd.","city":"West Plains","state":"mo","zip":"65775","x":"-91.835774","y":"36.723987","tags":"organic baked goods crafts eggs herbs vegetables honey jams plants poultry soap fruits"},{"type":"market","name":"Weston Red Barn Farm","website":"http://www.westonredbarnfarm.com","facebook":"","twitter":"","street":"16300 Wilkerson Road","city":"Weston","state":"mo","zip":"64098","x":"-94.853048","y":"39.386434","tags":"baked goods crafts flowers herbs vegetables honey jams maple plants prepared soap fruits"},{"type":"market","name":"Westphalia Trading Co., LLC","website":"http://www.westphaliatradingco.com","facebook":"","twitter":"","street":"2134 West Hwy 63","city":"Westphalia","state":"mo","zip":"65085","x":"-92.000164","y":"38.440436","tags":"crafts flowers eggs herbs vegetables honey jams meat plants poultry prepared soap fruits"},{"type":"market","name":"Wildwood Farmers' Market","website":"http://www.wildwoodfarmersmarket.com","facebook":"","twitter":"","street":"183 Plaza Drive","city":"Wildwood","state":"mo","zip":"63040","x":"-90.6233","y":"38.5815","tags":"baked goods cheese crafts flowers herbs vegetables meat plants prepared soap"},{"type":"market","name":"Willow Springs Farmers' Market","website":"","facebook":"","twitter":"","street":"Booster field off of Main St in Willow Springs MO","city":"Willow Springs","state":"mo","zip":"65793","x":"-91.9623","y":"36.9885","tags":""},{"type":"market","name":"Wilson's Creek Farmers Market","website":"http://www.wilsonscreekfarmersmarket.blogspot.com","facebook":"","twitter":"","street":"5010 S. FF Hwy","city":"Battlefield","state":"mo","zip":"65619","x":"-93.3683","y":"37.1228","tags":""},{"type":"market","name":"Windy Hill Farm Market","website":"http://agrimissouri.com/mo-grown/grodetail.php?type=mo-grown&ID=1819","facebook":"","twitter":"","street":"22617 Hwy 151","city":"Madison","state":"mo","zip":"65263","x":"-92.212673","y":"39.462228","tags":"flowers eggs herbs vegetables jams plants fruits"},{"type":"market","name":"Worth County Farmers Market","website":"","facebook":"","twitter":"","street":"The square - third steet and front","city":"Grant City","state":"mo","zip":"64456","x":"-94.4157499","y":"40.4863998","tags":"baked goods cheese crafts flowers eggs herbs vegetables honey jams plants soap fruits"},{"type":"market","name":"Zona Rosa Farmers' Market","website":"","facebook":"","twitter":"","street":"Off of I-29 and Barry Road","city":"Kansas City","state":"mo","zip":"64153","x":"-94.5808637","y":"39.2463171","tags":"baked goods vegetables honey jams trees fruits"}]
