[{"type":"farm","street":"1692 18th Road","city":"Washington","state":"ks","zip":"66968","x":"-97.068195","y":"39.828054","name":"4K Ranch","website":"","facebook":"","twitter":"","tags":"red-meat non-poultry-meat"},{"type":"farm","street":"3762 51st Rd.","city":"Udall","state":"ks","zip":"67146","x":"-97.060063","y":"37.437208","name":"B Smart Apiaries","website":"","facebook":"","twitter":"","tags":"honey"},{"type":"farm","street":"4772 SW 60th Street","city":"El Dorado","state":"ks","zip":"67042","x":"-96.932121","y":"37.738005","name":"Boondocker Farms","website":"www.boondockerfarms.com","facebook":"https://www.facebook.com/pages/Boondocker-Farms/213960995309803","twitter":"","tags":""},{"type":"farm","street":"29050 W 127th Street","city":"Olathe ","state":"ks","zip":"66061","x":"-94.9220900","y":"38.9001530","name":"Camp Creek Farms","website":"","facebook":"www.facebook.com/campcreekfarms","twitter":"","tags":"eggs poultry fowl"},{"type":"farm","street":"3230 McDowell Creek Road","city":"Manhattan","state":"ks","zip":"66502","x":"-96.582717","y":"39.123231","name":"Christy's Farm","website":"http://www.christysfarm.org/","facebook":"https://www.facebook.com/Christy'sFarm","twitter":"","tags":"dairy products eggs fresh-vegetables poultry fowl red-meat non-poultry-meat soap body-care"},{"type":"farm","street":"3873 NE 4th","city":"El Dorado","state":"ks","zip":"67042","x":"-96.7697460","y":"37.8297640","name":"Fanska Farms","website":"www.FanskaFarms.com","facebook":"https://www.facebook.com/FanskaFarms/","twitter":"","tags":"eggs"},{"type":"farm","street":"8 Bentgrass Dr.","city":"Hesston","state":"ks","zip":"67062","x":"-97.4106709","y":"38.1314260","name":"Kalaya Emu Estates","website":"www.KalayaEmuEstate.com","facebook":"","twitter":"","tags":""},{"type":"farm","street":"5830 West 167th Street","city":"Stilwell","state":"ks","zip":"66085","x":"-94.653190","y":"38.826238","name":"Meadowlark Acres","website":"www.meadowlarkacres.com","facebook":"https://www.facebook.com/pages/Meadowlark-Acres/298419166130?ref=hl","twitter":"","tags":"baked-goods canned preserved soap body-care"},{"type":"farm","street":"11249 SW 160th St","city":"Rose Hill","state":"ks","zip":"67133","x":"-97.044939","y":"37.591739","name":"Meadowlark Farm, LLC","website":"www.themeadowlarkfarm.com","facebook":"https://www.facebook.com/meadowlarkfarm","twitter":"","tags":"baked-goods canned preserved crafts woodworking fresh-fruits fresh-vegetables honey soap body-care wine spirits beer hard-cider"},{"type":"farm","street":"2300 lower silver lake rd.","city":"topeka","state":"ks","zip":"66618","x":"-95.692525","y":"39.076619","name":"Meier's Market","website":"","facebook":"","twitter":"","tags":"baked-goods bedding plants canned preserved cut-flowers eggs herbs fresh-fruits fresh-vegetables honey maple-products nuts"},{"type":"farm","street":"1001 East 26th Ave.","city":"Manhattan","state":"ks","zip":"66502","x":"-96.492305","y":"39.153204","name":"Parks Farm","website":"","facebook":"","twitter":"","tags":"red-meat non-poultry-meat"},{"type":"farm","street":"22722 E 800 Rd","city":"Pleasanton","state":"ks","zip":"66075","x":"-94.681721","y":"38.140017","name":"Skyview Farm and Creamery","website":"skyviewfarm.net","facebook":"Skyview Farm","twitter":"","tags":"dairy products eggs soap body-care"},{"type":"farm","street":"21733 Iliff Rd","city":"Parker ","state":"ks","zip":"66072","x":"-94.917233","y":"38.341665","name":"Synergistic Acres Pasture Raised Meats","website":"www.synergisticares.com","facebook":"www.facebook.com/synergisticacres","twitter":"","tags":"eggs poultry fowl red-meat non-poultry-meat"},{"type":"farm","street":"6800 W 201st Terr","city":"Bucyrus","state":"ks","zip":"66013","x":"-94.6641510","y":"38.7631410","name":"Tubby Fruits Orchard","website":"www.tubbyfruits.com","facebook":"","twitter":"","tags":"fresh-fruits"},{"type":"farm","street":"187 21st Ave","city":"Moundridge","state":"ks","zip":"67107","x":"-97.5382400","y":"38.2014760","name":"Underhill Farms","website":"","facebook":"","twitter":"","tags":"poultry fowl prepared foods"},{"type":"farm","street":"774 Stafford Road","city":"Pomona","state":"ks","zip":"66076","x":"-95.439204","y":"38.709147","name":"WVFarm, LLC","website":"Woodlandvalleyfarm.info","facebook":"Woodlandvalleyfarm-Kansas","twitter":"Twitter.com/wvfarm","tags":"herbs red-meat non-poultry-meat"},{"type":"market","name":"21st Street Farmers Market","website":"","facebook":"","twitter":"","street":"SW 21st and Oakley","city":"Topeka","state":"ks","zip":"66604","x":"-95.714514","y":"39.028184","tags":"organic baked goods crafts flowers eggs herbs vegetables honey jams nuts plants prepared soap fruits grains"},{"type":"market","name":"9th and Grand Farmers Market","website":"http://Farmtoforkks.com","facebook":"","twitter":"","street":"304 West Grand Avenue","city":"Salina","state":"ks","zip":"67401","x":"-97.6117504","y":"38.8528359","tags":"baked goods cheese crafts flowers eggs herbs vegetables honey jams meat plants poultry prepared fruits grains"},{"type":"market","name":"Abilene Farmers Market","website":"","facebook":"","twitter":"","street":"East 1st & Buckeye St.","city":"Abilene","state":"ks","zip":"67410","x":"-97.2139","y":"38.9153","tags":""},{"type":"market","name":"Allen County Farmers Market - Tuesday","website":"http://thriveallencounty.org/farmers-market/","facebook":"https://www.facebook.com/Allen-County-Farmers-Market-140163699399288/","twitter":"@RchallieRobin","street":"700 N. State St.","city":"Iola","state":"ks","zip":"66749","x":"-95.409262","y":"37.928693","tags":"baked goods flowers eggs vegetables jams meat poultry fruits"},{"type":"market","name":"Allen County Farmers' Market - Saturday","website":"http://thriveallencounty.org/farmers-market/","facebook":"https://www.facebook.com/Allen-County-Farmers-Market-140163699399288/","twitter":"@RchallieRobin","street":"","city":"Humboldt","state":"ks","zip":"66748","x":"-95.435424","y":"37.819004","tags":"baked goods crafts eggs vegetables jams meat poultry fruits"},{"type":"market","name":"Allen County Farmers' Market - Thursday","website":"http://thriveallencounty.org/farmers-market/","facebook":"https://www.facebook.com/Allen-County-Farmers-Market-140163699399288/","twitter":"@RchallieRobin","street":"","city":"Iola","state":"ks","zip":"66749","x":"-95.403438","y":"37.921806","tags":"baked goods crafts flowers eggs herbs vegetables honey jams meat nuts plants poultry prepared soap fruits grains wild"},{"type":"market","name":"Anthony Farmers Market","website":"","facebook":"","twitter":"","street":"Corner of West Main and Lawrence","city":"Anthony","state":"ks","zip":"67003","x":"-98.038","y":"37.1521","tags":"baked goods eggs herbs vegetables honey jams"},{"type":"market","name":"Ark City Farm & Art Market","website":"http://www.arkcity.org/CurrentEvents.asp?EID=1457","facebook":"","twitter":"","street":"200 Blcok S. Summit","city":"Arkansas City","state":"ks","zip":"67005","x":"-97.0386","y":"37.0609","tags":""},{"type":"market","name":"Arlington Farm and Art Market","website":"","facebook":"https://www.facebook.com/ArlingtonFarmandArtMarket/","twitter":"","street":"304 W Main","city":"Arlington ","state":"ks","zip":"67514","x":"-98.178852","y":"37.896668","tags":"baked goods crafts flowers eggs herbs vegetables honey jams meat plants poultry prepared soap trees coffee fruits mushrooms wild"},{"type":"market","name":"Atchison Farmers Market","website":"https://atchisonkansas.com/business-directory/atchison-farmers-market","facebook":"https://www.facebook.com/AtchisonFarmersMarket/","twitter":"","street":"Between 5th and 6th Streets on the south side of Main Street","city":"Atchison","state":"ks","zip":"66002","x":"-95.119878","y":"39.560737","tags":"baked goods flowers eggs vegetables honey jams meat nuts plants soap trees coffee fruits grains mushrooms"},{"type":"market","name":"Auburn Farmers Market","website":"http://www.auburnpres.org","facebook":"","twitter":"","street":"Auburn Presbyterian Church","city":"Auburn","state":"ks","zip":"66402","x":"-95.815734","y":"38.909597","tags":"baked goods crafts herbs vegetables plants"},{"type":"market","name":"Baldwin City Farmers' Market","website":"","facebook":"","twitter":"","street":"High Street (Downtown)","city":"Baldwin City","state":"ks","zip":"66006","x":"-95.188036","y":"38.774763","tags":"baked goods crafts flowers eggs herbs vegetables honey jams prepared soap"},{"type":"market","name":"Belleville Farmer's Market","website":"http://bellevilleks.org","facebook":"https://www.facebook.com/bellevillechambermainstreet/?ref=settings","twitter":"","street":"1815 M St. ","city":"Belleville ","state":"ks","zip":"66935","x":"-97.631021","y":"39.823532","tags":"baked goods crafts flowers herbs vegetables honey jams maple plants soap fruits"},{"type":"market","name":"Bonner Springs Farmers' Market","website":"http://bonnerlibrary.org/farmers-market/","facebook":"https://www.facebook.com/bonnerspringsfarmersmarket","twitter":"","street":"129 Elm St","city":"Bonner Springs ","state":"ks","zip":"66012","x":"-94.883529","y":"39.055673","tags":"baked goods cheese crafts flowers eggs herbs vegetables honey jams meat nuts plants poultry prepared soap trees wine fruits grains"},{"type":"market","name":"Burlingame Farmers Market","website":"","facebook":"https://www.facebook.com/pages/Burlingame-Kansas-Farmers-Market/1392689114394059?fref=ts&ref=br_tf","twitter":"","street":"","city":"Burlingame ","state":"ks","zip":"","x":"-95.835553","y":"38.750494","tags":"vegetables jams prepared fruits"},{"type":"market","name":"Burlington Farmers Market","website":"http://www.coffeycountychamber.com","facebook":"","twitter":"","street":"Parking lot N. of Red Caboose on 4th St. & Neosho","city":"Burlington","state":"ks","zip":"66839","x":"-95.73878","y":"38.19521","tags":"baked goods crafts eggs vegetables honey jams maple nuts"},{"type":"market","name":"Capitol Midweek Farmers Market","website":"http://www.kdheks.gov/bhp/farmers_market/ ","facebook":"","twitter":"","street":"10th and Jackson St","city":"Topeka ","state":"ks","zip":"66612","x":"-95.677761","y":"39.046813","tags":"organic baked goods cheese flowers eggs herbs vegetables honey jams nuts plants soap"},{"type":"market","name":"Chanute Farmers Market","website":"","facebook":"","twitter":"","street":"Santa Fe Park-South Santa Fe Street","city":"Chanute","state":"ks","zip":"66720","x":"-95.45264","y":"37.658606","tags":"baked goods crafts eggs vegetables honey jams plants"},{"type":"market","name":"Cheney Farmers Market","website":"","facebook":"https://www.facebook.com/cheneyfarmersmarket","twitter":"","street":"Main St.","city":"Cheney","state":"ks","zip":"67025","x":"-97.781571","y":"37.629120","tags":"baked goods crafts eggs herbs vegetables honey jams fruits"},{"type":"market","name":"Clay Center Farmers’","website":"","facebook":"","twitter":"","street":"306 N Locust St","city":"Frankfort","state":"ks","zip":"66427","x":"-96.4167","y":"39.7033","tags":""},{"type":"market","name":"Clifton Farmers Market","website":"","facebook":"","twitter":"","street":"109 S Scribner St","city":"Clifton","state":"ks","zip":"66937","x":"-97.2925","y":"39.5684","tags":""},{"type":"market","name":"Clyde Farmers Market","website":"http://www.ClydeKansas.org","facebook":"","twitter":"","street":"Main Street Downtown","city":"Clyde","state":"ks","zip":"66938","x":"-97.398","y":"39.5912","tags":""},{"type":"market","name":"Coffeyville Farmers Market","website":"","facebook":"","twitter":"","street":"Corner of 8th and Walnut","city":"Coffeyville","state":"ks","zip":"67337","x":"-95.6159","y":"37.036","tags":""},{"type":"market","name":"Columbus Kansas Farmers Market","website":"http://www.columbusks.com","facebook":"Facebook: columbus ks farmers' market","twitter":"","street":"202 N. East Avenue","city":"Columbus","state":"ks","zip":"66725","x":"-94.831459","y":"37.171861","tags":"organic baked goods crafts flowers eggs herbs vegetables honey jams meat nuts plants poultry prepared soap fruits mushrooms pet food"},{"type":"market","name":"Concordia Farmers Market","website":"","facebook":"","twitter":"","street":"11th Street and Washington","city":"Concordia","state":"ks","zip":"66901","x":"-97.661","y":"39.5665","tags":""},{"type":"market","name":"Concordia Farmers’","website":"","facebook":"","twitter":"","street":"Courthouse Square - 1815 M St.","city":"Belleville","state":"ks","zip":"66935","x":"-97.6304","y":"39.8236","tags":""},{"type":"market","name":"Cottin's Hardware Farmers Market","website":"http://www.cottinshardware.com/farmersmarket/","facebook":"https://www.facebook.com/pages/Cottins-Hardware-Farmers-Market/130797680335852","twitter":"@cottins","street":"1832 Massachusetts Street","city":"Lawrence","state":"ks","zip":"66044","x":"-95.2352","y":"38.95063","tags":"organic baked goods cheese flowers eggs herbs vegetables honey jams meat nuts plants poultry prepared soap trees wine coffee beans fruits grains juices mushrooms wild"},{"type":"market","name":"Delano Community Farmers Market","website":"http://www.historicdelano.com/market","facebook":"https://www.facebook.com/DelanoMarket","twitter":"","street":"300 S. Sycamore","city":"Delano","state":"ks","zip":"67213","x":"-97.346623","y":"37.68166","tags":"baked goods crafts flowers eggs herbs vegetables honey jams meat plants fruits"},{"type":"market","name":"Dodge City Farmers Market","website":"","facebook":"","twitter":"","street":"Wyatt Earp Parking Lot","city":"Dodge City","state":"ks","zip":"","x":"-100.02","y":"37.7581","tags":""},{"type":"market","name":"Downtown Hays Market ","website":"","facebook":"https://www.facebook.com/DowntownHaysMarket","twitter":"","street":"107 West 10th St. ","city":"Hays","state":"ks","zip":"67601","x":"-99.3309","y":"38.8718","tags":""},{"type":"market","name":"Downtown Manhattan Farmers Market Inc. I","website":"","facebook":"","twitter":"","street":"5th & Humboldt","city":"Manhattan","state":"ks","zip":"66502","x":"-96.5635","y":"39.1806","tags":""},{"type":"market","name":"Downtown Manhattan Farmers Market Inc. II","website":"","facebook":"","twitter":"","street":"Cico Park","city":"Manhattan","state":"ks","zip":"66503","x":"-96.6197","y":"39.2015","tags":""},{"type":"market","name":"Downtown McPherson Farmers Market","website":"","facebook":"","twitter":"","street":"214 E Euclid St","city":"McPherson","state":"ks","zip":"KS","x":"-97.664460","y":"38.371330","tags":"fruits"},{"type":"market","name":"Downtown Topeka Farmers Market, Inc.","website":"http://www.downtowntopekafarmersmarket.com","facebook":"","twitter":"","street":"12th & Harrison St.","city":"Topeka, Ks.","state":"ks","zip":"66618","x":"-95.711132","y":"39.055380","tags":"organic baked goods cheese crafts flowers eggs herbs vegetables honey jams meat nuts plants prepared soap trees fruits juices"},{"type":"market","name":"Doyle Valley Farmers Market","website":"","facebook":"","twitter":"","street":"S Walnut St. & Santa Fe Park","city":"Peabody","state":"ks","zip":"66866","x":"-97.10646","y":"38.16422","tags":"baked goods crafts flowers eggs herbs vegetables honey jams nursery nuts plants soap"},{"type":"market","name":"El Dorado Farmers' Market","website":"","facebook":"","twitter":"","street":"North Main & 12th St.","city":"El Dorado","state":"ks","zip":"","x":"-96.8495","y":"37.8319","tags":""},{"type":"market","name":"Emporia Farmers Market","website":"http://www.emporiafarmersmarket.org","facebook":"https://www.facebook.com/emporiaFM","twitter":"","street":"8th Ave. & Merchant St.","city":"Emporia","state":"ks","zip":"66801","x":"-96.181233","y":"38.406767","tags":"baked goods crafts flowers eggs herbs vegetables honey jams meat nuts plants prepared soap coffee fruits juices pet food"},{"type":"market","name":"Eudora Farmers Market","website":"","facebook":"Eudora Farmers Market","twitter":"","street":"14th & Church","city":"Eudora","state":"ks","zip":"66025","x":"-95.0959667","y":"38.9357380","tags":"baked goods eggs herbs vegetables honey jams meat plants poultry fruits"},{"type":"market","name":"Eudora's Market On Main","website":"http://www.EudoraMOM.com","facebook":"Eudora Market On Main","twitter":"","street":"724 Main Street","city":"Eudora","state":"ks","zip":"66025","x":"-95.0985747","y":"38.9457966","tags":"baked goods crafts eggs herbs vegetables honey jams soap coffee"},{"type":"market","name":"Farmers Market in Liberal KS","website":"http://www.farmersmarketlk.com ","facebook":"https://m.facebook.com/farmersmarketlk","twitter":"","street":"","city":"Liberal","state":"ks","zip":"67901","x":"-100.921124","y":"37.052506","tags":"baked goods cheese crafts eggs herbs vegetables honey jams nuts plants prepared soap trees fruits mushrooms wild"},{"type":"market","name":"Farmers Market Inc. in Historic Downtown Independence","website":"http://www.indyfarmersmarket.com","facebook":"","twitter":"","street":"Myrtle Street West of Penn Ave.","city":"Independence","state":"ks","zip":"67301","x":"-95.707","y":"37.2243","tags":"baked goods crafts flowers herbs vegetables jams meat nuts plants prepared soap"},{"type":"market","name":"Firefly Farmers' Market","website":"https://www.fireflyfarmwichita.com/","facebook":"https://www.facebook.com/fireflyfarmwichitakansas/","twitter":"","street":"15615 East 21st Street North","city":"Wichita","state":"ks","zip":"67230","x":"-97.156597","y":"37.723203","tags":"baked goods cheese flowers eggs herbs vegetables honey jams meat poultry prepared soap trees fruits grains pet food"},{"type":"market","name":"Fort Scott Farmers Market","website":"http://www.farmersmarketonline.com","facebook":"https://www.facebook.com/fsfma","twitter":"","street":"Skubitz Plaza","city":"Fort Scott","state":"ks","zip":"66701","x":"-94.704948","y":"37.842394","tags":"organic baked goods crafts flowers eggs herbs vegetables honey jams nuts plants poultry prepared fruits wild"},{"type":"market","name":"Four Corners Farmers' Market","website":"","facebook":"","twitter":"","street":"15745 S. Topeka Ave, Club Four Corners Intersection of Hwy 75 & 56","city":"Scranton","state":"ks","zip":"","x":"-95.6878","y":"38.7817","tags":""},{"type":"market","name":"Fresh Promises Farmers Market","website":"http://www.thebarnatkillcreekfarm.org","facebook":"","twitter":"","street":"9200 Kill Creek Rd","city":"De Soto","state":"ks","zip":"66018","x":"-94.955858","y":"38.961446","tags":"baked goods eggs herbs vegetables honey jams meat poultry prepared fruits"},{"type":"market","name":"Garden City Farmers Market","website":"","facebook":"","twitter":"","street":"1210 Fleming ","city":"Garden City","state":"ks","zip":"67846","x":"-100.8532074","y":"37.9772536","tags":"baked goods crafts flowers eggs vegetables honey jams plants soap trees fruits"},{"type":"market","name":"Gardner Farmers Market","website":"http://gardnerfarmersmarket@gmail.com","facebook":"Gardner Farmers Market","twitter":"","street":"136 E Washington St","city":"Gardner ","state":"ks","zip":"66030","x":"-94.925777","y":"38.812999","tags":"organic baked goods crafts flowers eggs herbs vegetables honey jams meat nuts plants poultry soap fruits grains juices pet food"},{"type":"market","name":"Garnett Farmers Market","website":"","facebook":"","twitter":"","street":"Downtown Garnett","city":"Garnett","state":"ks","zip":"66032","x":"-95.24","y":"38.2809","tags":""},{"type":"market","name":"Geary Community Hospital Farmers Market","website":"http://www.gchks.org","facebook":"https://www.facebook.com/GearyCommunityHospital","twitter":"","street":"1102 St. Mary's Road","city":"Junction City","state":"ks","zip":"66441","x":"-96.850471","y":"39.014265","tags":"baked goods cheese eggs herbs vegetables honey jams meat plants poultry coffee fruits grains"},{"type":"market","name":"Goodland Farmers' Market ","website":"http://www.ksfarmersmarkets.org/markets/goodland-farmers-market","facebook":"","twitter":"","street":"Chambers Park, 13th & Center","city":"Goodland","state":"ks","zip":"67735","x":"-101.713412","y":"39.345706","tags":"baked goods eggs vegetables jams prepared fruits"},{"type":"market","name":"Great Bend Summer Street Stroll Farmers Market","website":"https://www.ckpartnership.org/market ","facebook":"https://www.facebook.com/gbsssfarmersmarket/","twitter":"","street":"Kansas Avenue and Lakin Street","city":"Great Bend","state":"ks","zip":"67530","x":"-98.763960","y":"38.364588","tags":"baked goods crafts flowers eggs herbs vegetables honey jams plants prepared soap fruits pet food"},{"type":"market","name":"Greeley County Farmers Market","website":"","facebook":"Greeley County Farmers Market","twitter":"","street":"422 Broadway Ave.","city":"Tribune","state":"ks","zip":"67879","x":"-101.7524065","y":"38.4708803","tags":"baked goods crafts flowers eggs vegetables"},{"type":"market","name":"Greenwood County Farmers' Market","website":"","facebook":"https://www.facebook.com/GreenwoodCoFarmBureau","twitter":"https://twitter.com/GWCoFarm Bureau","street":"101 North Jefferson","city":"Eureka ","state":"ks","zip":"67045","x":"-96.280037","y":"37.818250","tags":"baked goods crafts flowers eggs herbs vegetables honey jams meat nuts plants poultry soap trees fruits juices"},{"type":"market","name":"Gridley Farmers Market","website":"","facebook":"","twitter":"","street":"Main Street","city":"Gridley","state":"ks","zip":"","x":"-95.8831","y":"38.0974","tags":""},{"type":"market","name":"Hamilton County Farmers Market","website":"http://www.hamilton.ksu.edu","facebook":"Hamilton County Farmers Market","twitter":"","street":"520 N Hamilton St","city":"Syracuse","state":"ks","zip":"67878","x":"-101.746863","y":"37.983030","tags":"baked goods crafts flowers eggs herbs vegetables jams nuts prepared soap coffee fruits grains"},{"type":"market","name":"Harper Farmers Market","website":"","facebook":"","twitter":"","street":"Corner of E. Main and Washington","city":"Harper ","state":"ks","zip":"67058","x":"-98.024686","y":"37.286706","tags":"baked goods crafts eggs herbs vegetables honey jams"},{"type":"market","name":"Harvey County Farmers Market","website":"","facebook":"","twitter":"","street":"200 N. Main","city":"Harvey","state":"ks","zip":"67114","x":"-97.3447","y":"38.0438","tags":""},{"type":"market","name":"Hays Area Farmers Market","website":"","facebook":"","twitter":"","street":"22nd and Vine","city":"Hays","state":"ks","zip":"67601","x":"-99.3177","y":"38.8783","tags":""},{"type":"market","name":"Haysville Hometown Market","website":"http://www.ksfarmersmarkets.org/","facebook":"","twitter":"","street":"105 S. Main","city":"Haysville","state":"ks","zip":"67060","x":"-97.351110","y":"37.564096","tags":"baked goods crafts eggs vegetables honey jams plants prepared fruits"},{"type":"market","name":"Hesston Farmers Market","website":"http://www.hesstonks.org/MV2Base.asp?VarCN=64","facebook":"","twitter":"","street":"King Park Shelter House on Ridge","city":"Hesston","state":"ks","zip":"67062","x":"-97.4299","y":"38.1281","tags":""},{"type":"market","name":"Hiawatha Thriftway farmers market","website":"","facebook":"none","twitter":"none","street":"719 NORTH FIRST STREET","city":"Hiawatha ","state":"ks","zip":"66434","x":"-95.526429","y":"39.860629","tags":"baked goods eggs vegetables honey jams maple prepared fruits"},{"type":"market","name":"Hillsboro Farmers Market","website":"","facebook":"https://www.facebook.com/pages/Hillsboro-Farmers-Market-Kansas/153402608061638","twitter":"","street":"Located In Memorial Park, Shelter House next to the Scout House","city":"Hillsboro","state":"ks","zip":"67063","x":"-97.207616","y":"38.345796","tags":"baked goods crafts flowers eggs herbs vegetables honey jams nuts plants prepared trees fruits"},{"type":"market","name":"Hoxie Farmers' Market","website":"","facebook":"https://www.facebook.com/groups/HoxieFarmersMarket/","twitter":"","street":"1308 Main Street","city":"Hoxie","state":"ks","zip":"67740","x":"-100.440135","y":"39.358126","tags":"baked goods crafts flowers eggs herbs vegetables honey jams soap coffee fruits grains"},{"type":"market","name":"Independence Farmers Market","website":"","facebook":"","twitter":"","street":"Corner of Hwy 75 and Peter Pan Rd.","city":"Independence","state":"ks","zip":"67301","x":"-95.7425","y":"37.2256","tags":""},{"type":"market","name":"Jackson County Farmers Market I","website":"","facebook":"","twitter":"","street":"Between 4th & 5th Streets","city":"Holton","state":"ks","zip":"55436","x":"-95.7452","y":"39.4649","tags":""},{"type":"market","name":"Junction City Farmers Market I","website":"","facebook":"","twitter":"","street":"8th & Jefferson","city":"Junction City","state":"ks","zip":"66441","x":"-96.8314","y":"39.0303","tags":""},{"type":"market","name":"Junction City Farmers Market II","website":"","facebook":"","twitter":"","street":"6th & Adams","city":"Junction City","state":"ks","zip":"66441","x":"-96.8333","y":"39.0282","tags":""},{"type":"market","name":"Kansas Grown Farmers Market 21st & Ridge","website":"http://www.kansasgrowninc.com","facebook":"kansasgrowninc","twitter":"@KSGrownMarket","street":"7001 W 21st St N","city":"Wichita","state":"ks","zip":"67205","x":"-97.425572","y":"37.722685","tags":"organic baked goods cheese crafts flowers eggs herbs vegetables honey jams meat plants poultry prepared soap trees coffee beans fruits grains juices pet food"},{"type":"market","name":"Kansas Grown Farmers Market 21st & Rock","website":"http://www.kansasgrowninc.com","facebook":"kansasgrownfarmersmarket","twitter":"@KSGrownMarket","street":"8141 E 21st St N ","city":"Wichita","state":"ks","zip":"67206","x":"-97.242456","y":"37.722703","tags":"organic baked goods cheese crafts flowers eggs herbs vegetables honey jams meat plants prepared soap coffee beans fruits grains juices pet food"},{"type":"market","name":"Kansas Grown Farmers Market Derby","website":"http://www.kansasgrowninc.com","facebook":"@kansasgrownfarmersmarket","twitter":"@ksgrownmarket","street":"512 E Madison","city":"Derby","state":"ks","zip":"67037","x":"-97.2661532","y":"37.5483322","tags":"baked goods crafts eggs herbs vegetables honey jams plants soap fruits juices"},{"type":"market","name":"KCK Farmers Market - THURSDAY at KCKCC","website":"http://www.kckfarmersmarket.com/information2.html","facebook":"https://www.facebook.com/kckfarmersmarket/","twitter":"https://twitter.com/FarmersKCK","street":"Argentine Ln. ","city":"Kansas City","state":"ks","zip":"66112","x":"-94.750481","y":"39.121281","tags":"organic eggs herbs vegetables honey jams fruits"},{"type":"market","name":"KCK Farmers Market - TUESDAY at Catholic Charities","website":"http://www.kckfarmersmarket.com/information2.html","facebook":"https://www.facebook.com/kckfarmersmarket/","twitter":"https://twitter.com/FarmersKCK","street":"2220 Central Ave.","city":"Kansas City","state":"ks","zip":"66102","x":"-94.654836","y":"39.108115","tags":"organic baked goods flowers vegetables jams fruits"},{"type":"market","name":"KCK Farmers Market - WEDNESDAY on Strawberry Hill","website":"http://www.kckfarmersmarket.com/information2.html","facebook":"https://www.facebook.com/kckfarmersmarket/","twitter":"https://twitter.com/FarmersKCK","street":"6th & Tauromee","city":"Kansas City","state":"ks","zip":"66101","x":"-94.624308","y":"39.112251","tags":"organic baked goods eggs herbs vegetables honey fruits"},{"type":"market","name":"Kinsley Farmers Market","website":"","facebook":"https://www.facebook.com/KinsleyFarmersMarket/","twitter":"","street":"1027 Highway 56","city":"Kinsley","state":"ks","zip":"67547","x":"-99.419852","y":"37.918535","tags":"baked goods vegetables jams fruits"},{"type":"market","name":"LaCrosse Farmers Market","website":"","facebook":"","twitter":"","street":"North of the Railroad Tracks on East Side","city":"LaCrosse","state":"ks","zip":"67548","x":"-99.3115","y":"38.5336","tags":""},{"type":"market","name":"Lawrence Farmers' Market - Saturday","website":"http://www.lawrencefarmersmarket.com","facebook":"Lawrence Farmers' Market","twitter":"","street":"824 New Hampshire Street","city":"Lawrence","state":"ks","zip":"66044","x":"-95.234356","y":"38.968570","tags":"organic baked goods crafts flowers eggs herbs vegetables honey jams meat nuts plants poultry prepared soap trees wine coffee beans fruits grains juices mushrooms pet food wild"},{"type":"market","name":"Lawrence Farmers' Market - Tuesday","website":"http://www.lawrencefarmersmarket.com","facebook":"Lawrence Farmers' Market","twitter":"","street":"706 Kentucky Street","city":"Lawrence","state":"ks","zip":"66044","x":"-95.237968","y":"38.970350","tags":"organic baked goods flowers eggs herbs vegetables honey jams meat poultry prepared fruits"},{"type":"market","name":"Leavenworth Farmers Market","website":"http://www.LeavenworthFarmersMarket.com","facebook":"https://www.facebook.com/pages/Leavenworth-Farmers-Market/100280160021755?v=wall&ref","twitter":"","street":"7th and Cherokee Street","city":"Leavenworth","state":"ks","zip":"66048","x":"-94.917787","y":"39.316574","tags":"baked goods cheese flowers eggs herbs vegetables honey jams meat plants poultry soap trees wine coffee fruits juices mushrooms"},{"type":"market","name":"Lebo Farmers Market","website":"","facebook":"","twitter":"","street":"Broadway","city":"Lebo","state":"ks","zip":"66856","x":"-95.8638","y":"38.4156","tags":""},{"type":"market","name":"Lenexa Farmers Market","website":"","facebook":"www.facebook.com/groups/lenexafarmmkt/","twitter":"","street":"17201 W. 87th St. Pkwy","city":"Lenexa","state":"ks","zip":"66219","x":"-94.803914","y":"38.965267","tags":"baked goods cheese crafts flowers eggs herbs vegetables honey jams meat nuts plants poultry prepared soap trees wine coffee beans fruits grains mushrooms"},{"type":"market","name":"Liberal Community Farmers Market","website":"http://www.liberalkschamber.com","facebook":"","twitter":"","street":"4 Rock Island Rd.","city":"Liberal","state":"ks","zip":"67901","x":"-100.922","y":"37.0388","tags":"baked goods flowers vegetables jams"},{"type":"market","name":"Lincoln Heights Village Farmers Market","website":"","facebook":"LHV Farmers Market","twitter":"","street":"Douglas & Oliver","city":"Wichita","state":"ks","zip":"67218","x":"-97.280894","y":"37.686211","tags":"baked goods vegetables honey jams fruits juices"},{"type":"market","name":"Lyon Farmers Market","website":"","facebook":"","twitter":"","street":"Commercial St.","city":"Lyons","state":"ks","zip":"67554","x":"-98.2103","y":"38.3467","tags":""},{"type":"market","name":"Main Street Farmers Market","website":"","facebook":"https://www.facebook.com/pages/Medicine-River-Market-LLC/407131652646867","twitter":"","street":"1st & Main St.","city":"Medicine Lodge","state":"ks","zip":"67104","x":"-98.5793149","y":"37.2818110","tags":"baked goods crafts eggs vegetables honey plants fruits"},{"type":"market","name":"Main Street Farmers Market","website":"http://www.chanutemainstreet.com","facebook":"Main Street Chanute Farmers Market","twitter":"","street":"Main Street and Highland Ave","city":"Chanute","state":"ks","zip":"66720","x":"-95.4504829","y":"37.6817937","tags":"baked goods crafts eggs herbs vegetables honey jams meat plants poultry prepared soap coffee fruits"},{"type":"market","name":"Marysville Farmers' Market","website":"","facebook":"","twitter":"","street":"7th and Broadway","city":"Marysville","state":"ks","zip":"66508","x":"-96.6492","y":"39.8416","tags":"organic baked goods cheese crafts flowers herbs vegetables honey jams meat plants prepared soap"},{"type":"market","name":"McPherson City Farmers Market","website":"","facebook":"McPherson County Extension Facebook","twitter":"","street":"600 W. Woodside","city":"McPherson","state":"ks","zip":"67460","x":"-97.673908","y":"38.373708","tags":"baked goods flowers eggs honey jams meat plants prepared soap fruits"},{"type":"market","name":"Merriam Farmers Market","website":"","facebook":"","twitter":"","street":"5740 Merriam Drive","city":"Merriam","state":"ks","zip":"66203","x":"-94.6948","y":"39.0244","tags":"organic baked goods crafts flowers herbs honey jams meat plants prepared soap"},{"type":"market","name":"Mission Farm and Flower Market","website":"http://missionks.org/market","facebook":"https://www.facebook.com/missionksmarket/","twitter":"https://twitter.com/missionksmarket","street":"5635 Johnson Drive","city":"Mission","state":"ks","zip":"66202","x":"-94.6512054","y":"39.0219446","tags":"baked goods crafts flowers vegetables honey jams meat soap fruits"},{"type":"market","name":"Monday Farmers Market at your library","website":"http://www.tscpl.org","facebook":"","twitter":"","street":"1515 SW 10th Avenue","city":"Topeka","state":"ks","zip":"66604","x":"-95.696240","y":"39.049968","tags":"baked goods flowers eggs herbs vegetables honey nuts plants fruits"},{"type":"market","name":"Moundridge City Farmers Market","website":"","facebook":"","twitter":"","street":"402 W. Cole Street","city":"Moundridge","state":"ks","zip":"Ks","x":"-97.5248200","y":"38.2037650","tags":"baked goods crafts flowers eggs honey jams meat plants poultry prepared soap fruits"},{"type":"market","name":"Natoma Farmers Market","website":"","facebook":"","twitter":"","street":"435 Elm Street","city":"Natoma","state":"ks","zip":"67751","x":"-99.0235","y":"39.1902","tags":""},{"type":"market","name":"Norton County Farmers Market","website":"","facebook":"","twitter":"","street":"Norton Elmwood Park","city":"Norton","state":"ks","zip":"67654","x":"-99.8844","y":"39.8249","tags":""},{"type":"market","name":"Oak Grove Neighborhood Market","website":"","facebook":"","twitter":"","street":"433 Haskell Avenue","city":"Kansas City","state":"ks","zip":"66101","x":"-94.6207310","y":"39.1326750","tags":"vegetables plants"},{"type":"market","name":"Oberlin Farmers Market","website":"","facebook":"","twitter":"","street":"104 S. Penn St.","city":"Oberlin","state":"ks","zip":"67749","x":"-100.528829","y":"39.820469","tags":"baked goods crafts flowers herbs vegetables jams plants"},{"type":"market","name":"Olathe Farmers Market","website":"http://www.olatheks.org/ParksRec/Quicklinks/Farmers","facebook":"","twitter":"","street":"Heritage Center","city":"Olathe","state":"ks","zip":"66061","x":"-94.7454","y":"38.8538","tags":""},{"type":"market","name":"Old Town Farmers Market Wichita","website":"http://oldtownfarmersmarket.com","facebook":"Old Town Farmers Market","twitter":"","street":"1st and Mosley","city":"Wichita ","state":"ks","zip":"67202","x":"-97.3275423","y":"37.6879569","tags":"baked goods crafts flowers eggs herbs vegetables honey jams meat nuts plants prepared soap coffee fruits mushrooms"},{"type":"market","name":"Ottawa Farmers Market","website":"http://www.visitottawakansas.com/agritourism.php","facebook":"","twitter":"","street":"Orscheln Parking Lot","city":"Ottawa","state":"ks","zip":"66067","x":"-95.2678","y":"38.6156","tags":""},{"type":"market","name":"Overland Park Farmers' Market","website":"http://www.opkansas.org/things-to-see-and-do/farmers-market/","facebook":"https://www.facebook.com/DowntownOverlandParkFarmersMarket","twitter":"","street":"7950 Marty","city":"Overland Park","state":"ks","zip":"66204","x":"-94.6700396","y":"38.9847288","tags":"organic baked goods cheese crafts flowers eggs herbs vegetables honey jams maple meat nuts plants poultry prepared soap wine coffee fruits grains juices mushrooms pet food wild"},{"type":"market","name":"Paola Farmers Market","website":"http://www.paolafarmersmarket.org","facebook":"https://www.facebook.com/groups/108291542535373/","twitter":"","street":"Pearl Street   City Square","city":"Paola","state":"ks","zip":"66071","x":"-94.878488","y":"38.572025","tags":"baked goods crafts flowers eggs herbs vegetables honey jams meat plants poultry prepared soap fruits"},{"type":"market","name":"Parsons Farmers Market","website":"","facebook":"https://www.facebook.com/pages/Parsons-Farmers-Market/390076924351813","twitter":"","street":"1618 Broadway Ave.","city":"Parsons ","state":"ks","zip":"67357","x":"-95.2595140","y":"37.3395530","tags":"baked goods crafts flowers eggs herbs vegetables honey jams meat nuts plants soap fruits pet food"},{"type":"market","name":"Perry Lecompton Farmers Market","website":"http://www.perrylecomptonfarmersmarket.com","facebook":"https://www.facebook.com/#!/perrylecomptonfarmersmarket","twitter":"","street":"2115 Ferguson Rd.","city":"Perry","state":"ks","zip":"66073","x":"-95.391621","y":"39.080865","tags":"baked goods crafts flowers eggs herbs vegetables honey jams meat plants poultry prepared soap fruits pet food"},{"type":"market","name":"Pittsburg Farmers Market","website":"http://www.Pittsburgfarmersmarket.org","facebook":"https://www.facebook.com/pages/Pittsburg-Farmers-Market/285206420600","twitter":"","street":"2nd & Broadway","city":"Pittsburg","state":"ks","zip":"66762","x":"-94.7048169","y":"37.4090664","tags":"baked goods eggs herbs vegetables honey jams meat plants poultry soap fruits"},{"type":"market","name":"Reno County Farmers Market","website":"http://www.renocountyfarmersmarket.org","facebook":"","twitter":"","street":"115 West 2nd Ave","city":"Hutchinson","state":"ks","zip":"67501","x":"-97.9339","y":"38.0545","tags":"baked goods crafts flowers eggs herbs vegetables honey jams meat nursery plants soap"},{"type":"market","name":"Russell Area Farmers Market","website":"","facebook":"","twitter":"","street":"28 N. Kansas St. St. Mary's Parking Lot","city":"Russell","state":"ks","zip":"67665","x":"-98.8586","y":"38.8858","tags":""},{"type":"market","name":"Sabetha Farmers Market","website":"","facebook":"","twitter":"","street":"915 S. Washington Mary Cotton Library Park","city":"Sabetha","state":"ks","zip":"66534","x":"-95.8024","y":"39.896","tags":""},{"type":"market","name":"Salina Farmers Market","website":"http://www.salina-ks.gov/content/134/1488.aspx","facebook":"","twitter":"","street":"460 South  Ohio","city":"Salina","state":"ks","zip":"67401","x":"-97.596","y":"38.8336","tags":""},{"type":"market","name":"Seneca Farmers Market","website":"","facebook":"","twitter":"","street":"11th & Elk St.","city":"Seneca","state":"ks","zip":"66538","x":"-96.0707","y":"39.8383","tags":""},{"type":"market","name":"Severy Station","website":"","facebook":"Severy Station","twitter":"","street":"99 S Road","city":"Severy","state":"ks","zip":"67137","x":"-96.234365","y":"37.620849","tags":"baked goods crafts vegetables jams meat nuts coffee"},{"type":"market","name":"Shawnee Farmers Market","website":"http://www.cityofshawnee.org/WEB/ShawneeCMS.nsf/vwContent/FarmersMarket?OpenDocument","facebook":"","twitter":"","street":"11110 Johnson Drive","city":"Shawnee","state":"ks","zip":"66203","x":"-94.7152040","y":"39.0233950","tags":"baked goods crafts flowers herbs vegetables honey maple plants prepared soap trees fruits"},{"type":"market","name":"Silver Lake Farmer's Market & Family Fun Fair","website":"http://www.silverlakelibrary.org/silver-lake-farmers-market/","facebook":"https://www.facebook.com/SLFarmersMarket","twitter":"","street":"203 Railroad Street","city":"Silver Lake ","state":"ks","zip":"66539","x":"-95.859428","y":"39.105480","tags":"baked goods crafts eggs vegetables honey jams prepared soap fruits"},{"type":"market","name":"Smith County Farmer' Market","website":"http://www.postrock.ksu.edu","facebook":"","twitter":"","street":"122 W. Highway 36","city":"Smith Center","state":"ks","zip":"66967","x":"-98.7854843","y":"39.7851363","tags":"baked goods crafts eggs herbs vegetables honey jams soap"},{"type":"market","name":"South Hutch Farmers Market","website":"http://www.renocountyfpc.com/","facebook":"https://www.facebook.com/southhutchfarmersmarket/","twitter":"","street":"401 N Main","city":"South Hutchinson ","state":"ks","zip":"67505","x":"-97.941149","y":"38.033046","tags":"baked goods crafts flowers eggs herbs vegetables honey jams meat poultry prepared soap fruits mushrooms wild"},{"type":"market","name":"Spring Hill Farmers Market","website":"http://www.springhillmarket.org","facebook":"https://www.facebook.com/pages/Spring-Hill-Farmers-Market/108892312475844","twitter":"","street":"300 Webster","city":"Spring Hill","state":"ks","zip":"66083","x":"-94.8253440","y":"38.7461000","tags":"baked goods crafts flowers eggs herbs vegetables honey jams plants soap fruits"},{"type":"market","name":"St.John Farmers Market","website":"","facebook":"","twitter":"","street":"4th & Main","city":"St. John","state":"ks","zip":"67576","x":"-98.7616","y":"38.0024","tags":""},{"type":"market","name":"The Original El Dorado Farmers Market","website":"","facebook":"","twitter":"","street":"1000 South Main","city":"El Dorado","state":"ks","zip":"67042","x":"-96.8477","y":"37.8089","tags":""},{"type":"market","name":"Thomas County Farmers Market","website":"","facebook":"facebook.com/ThomasCountyFarmersMarket.com","twitter":"","street":"8th and Court Ave","city":"Colby","state":"ks","zip":"67701","x":"-101.044393","y":"39.400676","tags":"organic baked goods eggs herbs vegetables honey jams meat fruits"},{"type":"market","name":"Walnut Valley Farmers' Market","website":"http://www.wvfmarket.com","facebook":"https://www.facebook.com/pages/Walnut-Valley-Farmers-Market/489969211063190","twitter":"","street":"301 Main Street","city":"Winfield","state":"ks","zip":"67156","x":"-96.9979989","y":"37.2471559","tags":"baked goods crafts flowers eggs herbs vegetables honey jams meat nuts plants soap coffee fruits pet food"},{"type":"market","name":"Washington Farmer's Market","website":"","facebook":"","twitter":"","street":"Washington County High School","city":"Washington","state":"ks","zip":"66968","x":"-97.0541","y":"39.8238","tags":""},{"type":"market","name":"Wellington Farmers Market","website":"","facebook":"","twitter":"","street":"Heritage Park","city":"Wellington","state":"ks","zip":"67152","x":"-97.398","y":"37.2673","tags":""},{"type":"market","name":"Wichita County Farmers' Market","website":"","facebook":"","twitter":"","street":"206 South 4th Street","city":"Leoti","state":"ks","zip":"67861","x":"-101.3583497","y":"38.4802674","tags":"baked goods eggs vegetables honey jams plants prepared fruits"}]
