[{"type":"farm","street":"9160 Ford Circle","city":"Fishers","state":"in","zip":"46038","x":"-86.007339","y":"39.973794","name":"Aggressively Fresh Fishers Market","website":"https://aggressivelyfresh.com/","facebook":"https://www.facebook.com/AggressivelyFresh","twitter":"","tags":"bedding plants herbs fresh-vegetables grains flour mushrooms nursery-stock soap body-care"},{"type":"farm","street":"10262 S 800 E","city":"Amboy ","state":"in","zip":"46911","x":"-85.9205480","y":"40.6195200","name":"Amboy Honey Creek Farms","website":"","facebook":"","twitter":"","tags":"honey"},{"type":"farm","street":"129 W 1800 S","city":"Clinton","state":"in","zip":"47842","x":"-87.466855","y":"39.621846","name":"Aris Farm Alpacas","website":"www.ArisFarmAlpacas.com","facebook":"https://www.facebook.com/ArisFarmAlpacas","twitter":"","tags":"crafts woodworking soap body-care"},{"type":"farm","street":"9240 n co rd 30 w","city":"North vernon ","state":"in","zip":"47265","x":"-85.619821","y":"39.120663","name":"Armand Family Farms","website":"","facebook":"","twitter":"","tags":"eggs fresh-vegetables red-meat non-poultry-meat"},{"type":"farm","street":"6066 South State Road 61","city":"Monroe City","state":"in","zip":"47557","x":"-87.3339600","y":"38.5897750","name":"Brads Berry and Peach","website":"","facebook":"","twitter":"","tags":"fresh-fruits fresh-vegetables honey"},{"type":"farm","street":"12818 Edgerton Road","city":"New Haven","state":"in","zip":"46774","x":"-84.9755830","y":"41.0761020","name":"Bruick Brothers Produce INC","website":"www.advancedtree.com","facebook":"https://www.facebook.com/AdvancedTreeTechnology","twitter":"","tags":""},{"type":"farm","street":"6900 Oak Park Road NE","city":"New Salisbury","state":"in","zip":"47161","x":"-86.088252","y":"38.300519","name":"Bryant's Blueberries","website":"www.bryantsblueberries.com","facebook":"https://www.facebook.com/pages/Bryants-Blueberries/296127074527","twitter":"","tags":""},{"type":"farm","street":"3301 S Weinbach Ave","city":"Evansville","state":"in","zip":"47714","x":"-87.530205","y":"37.936180","name":"Bud's Farm Market","website":"budsfarm.com","facebook":"Facebook.com/budsfarmmarket","twitter":"","tags":"fresh-fruits fresh-vegetables"},{"type":"farm","street":"14118 Peach Road","city":"Plymouth","state":"in","zip":"46563","x":"-86.3612930","y":"41.2724336","name":"Childs' Farm","website":"www.childsfarm.net","facebook":"www.facebook.com/pages/Childs-Farm/104283862951552","twitter":"","tags":"bedding plants crafts woodworking dry beans eggs herbs fresh-vegetables poultry fowl soap body-care"},{"type":"farm","street":"8905 West 350 South","city":"North Vernon","state":"in","zip":"47265","x":"-85.7760690","y":"38.9290890","name":"Clarks Berry Farm","website":"","facebook":"https://www.facebook.com/clarkberryfarm","twitter":"","tags":"fresh-fruits"},{"type":"farm","street":"10128 E CR 650 S","city":"Cloverdale","state":"in","zip":"46120","x":"-86.6671388","y":"39.5658168","name":"Clifford Feed & Straight From the Farm Market","website":"","facebook":"www.facebook.com/Cliffordfeed","twitter":"","tags":"bedding plants crafts woodworking herbs fresh-fruits fresh-vegetables red-meat non-poultry-meat soap body-care"},{"type":"farm","street":"1565 Saint Johns Church Road NE","city":"Lanesville","state":"in","zip":"47136","x":"-85.9694093","y":"38.2233474","name":"Deere Farms Corn Maze and Pumpkin Patch","website":"www.deerefarms.com","facebook":"https://www.facebook.com/DeereFarmsCornMaze","twitter":"","tags":"baked-goods bedding plants"},{"type":"farm","street":"8495 E CR 900 N","city":"Sunman","state":"in","zip":"47041","x":"-85.103989","y":"39.203497","name":"Fork Right Farm","website":"www.forkrightfarm.com","facebook":"https://www.facebook.com/ForkRightFarm","twitter":"","tags":"red-meat non-poultry-meat"},{"type":"farm","street":"206 N 46 W Hamilton Co","city":"Sheridan","state":"in","zip":"46069","x":"-86.240938","y":"40.083722","name":"Garden of Good","website":"","facebook":"","twitter":"","tags":"fresh-fruits fresh-vegetables"},{"type":"farm","street":"15606 Oriole Road","city":"Leopold","state":"in","zip":"47551","x":"-86.522822","y":"38.165649","name":"Grass Corp.","website":"https://grasscorp.net/","facebook":"https://www.facebook.com/Grasscorp.net/","twitter":"","tags":"dairy products eggs pet-food poultry fowl red-meat non-poultry-meat soap body-care"},{"type":"farm","street":"5975e 500n","city":"Leesburg","state":"in","zip":"46538","x":"-85.7299150","y":"41.3068150","name":"Green Acres produce, LLC","website":"","facebook":"","twitter":"","tags":"fresh-vegetables"},{"type":"farm","street":"10373 N 300 E","city":"North Manchester","state":"in","zip":"46962","x":"-85.738850","y":"40.977922","name":"J.L. Hawkins Family Farm L.P.","website":"www.hawkinsfamilyfarm.com","facebook":"https://www.facebook.com/hawkinsfamilyfarm","twitter":"https://www.twitter.com/hawkinsfarm","tags":"eggs honey maple-products poultry fowl red-meat non-poultry-meat"},{"type":"farm","street":"4879 E ST. RD 58","city":"Bloomfield","state":"in","zip":"47424","x":"-86.9375068","y":"39.0269903","name":"Jones 5 Star Ranch & Country Store","website":"","facebook":"https://www.facebook.com/pages/Jones-5-Star-Ranch/623618880995653","twitter":"","tags":""},{"type":"farm","street":"4683 S. St. Rd. 135","city":"Vallonia","state":"in","zip":"47281","x":"-86.101735","y":"38.810188","name":"Kamman's Greenhouses & Farm Market","website":"www.kammansfarmmarket.com","facebook":"https://www.facebook.com/kammansfarmmarket","twitter":"https://twitter.com/KammansFarms","tags":""},{"type":"farm","street":"19498 County Road 38","city":"Goshen","state":"in","zip":"46526","x":"-85.838435","y":"41.549790","name":"Kercher's Sunrise Orchards","website":"","facebook":"https://www.facebook.com/pages/Kerchers-Sunrise-Orchards/140862185948471","twitter":"","tags":""},{"type":"farm","street":"4874 E 1400 N","city":"North Manchester","state":"in","zip":"46962","x":"-85.705937","y":"41.031582","name":"Kindys' Organically Grown Produce","website":"","facebook":"","twitter":"","tags":"cut-flowers eggs herbs fresh-fruits fresh-vegetables"},{"type":"farm","street":"6403 Loi Road","city":"Floyds Knobs","state":"in","zip":"47119","x":"-85.874050","y":"38.366417","name":"Kruer Family Farm Poultry & Fowl ","website":"","facebook":"Kruer Family Farm Poultry & Fowl ","twitter":"","tags":"bedding plants eggs herbs fresh-vegetables poultry fowl"},{"type":"farm","street":"14212 State Road 37E","city":"New Haven","state":"in","zip":"46774","x":"-84.9603735","y":"41.1697509","name":"Kurtz Produce","website":"","facebook":"https://www.facebook.com/kurtzproduce/","twitter":"","tags":"fresh-vegetables"},{"type":"farm","street":"5165 E US Highway 40","city":"Plainfield ","state":"in","zip":"46168","x":"-86.434469","y":"39.691679","name":"Lazy A Ranch","website":"","facebook":"","twitter":"","tags":"cut-flowers eggs herbs fresh-vegetables honey"},{"type":"farm","street":"8101 S. Victor Pike","city":"Bloomington","state":"in","zip":"47403","x":"-86.603126","y":"39.052321","name":"Marble Hill Farm","website":"","facebook":"","twitter":"","tags":"eggs red-meat non-poultry-meat"},{"type":"farm","street":"88 E. County Road 1000 S. Providence Church Road","city":"Paoli","state":"in","zip":"47454","x":"-86.454737","y":"38.412000","name":"Maria Louisa Vineyard","website":"","facebook":"","twitter":"","tags":"fresh-fruits"},{"type":"farm","street":"57754 Crumstown Hwy","city":"South Bend","state":"in","zip":"46619","x":"-86.3533214","y":"41.6567535","name":"Matthys Farm Market","website":"www.matthysfarmmarket.com","facebook":"","twitter":"","tags":"bedding plants fresh-fruits fresh-vegetables honey juices ciders pet-food"},{"type":"farm","street":"5450 North Us 31","city":"Peru","state":"in","zip":"46970","x":"-86.131347","y":"40.837522","name":"McClures Orchard/Winery","website":"http://www.mccluresorchard.com/","facebook":"https://www.facebook.com/mcclures.orchard","twitter":"https://twitter.com/mccluresorchard","tags":"baked-goods canned preserved fresh-fruits fresh-vegetables honey juices ciders maple-products nursery-stock prepared-foods wine spirits beer hard-cider"},{"type":"farm","street":"780N 500W","city":"Huntington","state":"in","zip":"46750","x":"-85.549335","y":"40.839561","name":"Phils UPickIt","website":"","facebook":"","twitter":"","tags":""},{"type":"farm","street":"7000 N Stuthard Street","city":"Terre haute","state":"in","zip":"47805","x":"-87.2668939","y":"39.5511985","name":"Pounds Farms","website":"","facebook":"","twitter":"","tags":""},{"type":"farm","street":"24611 Van Wedding Road","city":"Sunman","state":"in","zip":"47041","x":"-85.0582890","y":"39.2256440","name":"Quarter Amish","website":"","facebook":"www.facebook.com/pages/Quarteramish-by-Life-Simple-Pleasure/150748645024012?focus_composer=true&ref_type=bookmark","twitter":"","tags":"canned preserved herbs fresh-vegetables soap body-care"},{"type":"farm","street":"8999 W. 200 N.","city":"Michigan City","state":"in","zip":"46360","x":"-86.8734209","y":"41.6369600","name":"Radke Orchards","website":"www.radkeorchards.com","facebook":"","twitter":"","tags":"canned preserved fresh-fruits fresh-vegetables honey juices ciders nuts"},{"type":"farm","street":"8531 N 650 E","city":"New Carlisle","state":"in","zip":"46552","x":"-86.565215","y":"41.732297","name":"Rainfield Farm","website":"www.rainfieldfarm.com","facebook":"https://www.facebook.com/rainfieldfarm","twitter":"","tags":"eggs herbs fresh-fruits fresh-vegetables honey maple-products"},{"type":"farm","street":"10131 S Edison Place","city":"Terre Haute","state":"in","zip":"47802","x":"-87.469610","y":"39.343476","name":"Richmond Acres","website":"www.richmondacres.weebly.com","facebook":"https://www.facebook.com/richmondacres","twitter":"","tags":"eggs poultry fowl red-meat non-poultry-meat"},{"type":"farm","street":"67625 Mulberry Rd","city":"Lakeville","state":"in","zip":"46536","x":"-86.314816","y":"41.514460","name":"Rock Icelandics","website":"","facebook":"Rock Icelandics and Suffolks","twitter":"","tags":"red-meat non-poultry-meat"},{"type":"farm","street":"7059 North County Road 600 West","city":"Michigan City","state":"in","zip":"46360","x":"-86.816333","y":"41.710214","name":"Scherf Farms Dairy & Creamery","website":"www.scherffarms.com","facebook":"","twitter":"","tags":"dairy products"},{"type":"farm","street":"1288 S. County Rd. 600 West","city":"Danville ","state":"in","zip":"46122","x":"-86.6328900","y":"39.7418369","name":"Stamper Farms & Gardens","website":"","facebook":"www.facebook.com/StamperFarmsAndGardens","twitter":"","tags":"canned preserved herbs fresh-fruits fresh-vegetables"},{"type":"farm","street":"21477 North CR 600 East","city":"Dale","state":"in","zip":"47523","x":"-86.939880","y":"38.198899","name":"Steckler Grassfed LLC","website":"www.StecklerGrassfed.com","facebook":"https://www.facebook.com/pages/Steckler-Grassfed/123392397746374","twitter":"","tags":"dairy products eggs red-meat non-poultry-meat"},{"type":"farm","street":"5285 E. State Rd. 45","city":"Bloomington","state":"in","zip":"47408","x":"-86.468346","y":"39.198114","name":"Sunny Branch Farm","website":"http://www.sunnybranchfarm.com","facebook":"https://www.facebook.com/SunnyBranchFarm","twitter":"https://www.twitter.com/sunnybranchfarm","tags":"bedding plants canned preserved coffee tea cut-flowers eggs herbs fresh-fruits fresh-vegetables honey nursery-stock soap body-care"},{"type":"farm","street":"8171 W 300 N","city":"Etna Green ","state":"in","zip":"46524","x":"-86.0018429","y":"41.2730940","name":"The Berry Patch","website":"","facebook":"https://www.facebook.com/pages/The-Berry-Patch/260825307322692","twitter":"","tags":"fresh-fruits"},{"type":"farm","street":"0540 County Road 5","city":"Corunna","state":"in","zip":"46730","x":"-85.170414","y":"41.510023","name":"The Blueberry Patch","website":"","facebook":"","twitter":"","tags":""},{"type":"farm","street":"1704 S. Weimer Rd.","city":"Bloomington","state":"in","zip":"47403","x":"-86.5654450","y":"39.1471130","name":"The Chile Woman","website":"www.thechilewoman.com","facebook":"https://www.facebook.com/TheChileWoman","twitter":"https://www.twitter.com/TheChileWoman","tags":"bedding plants canned preserved fresh-vegetables"},{"type":"farm","street":"","city":"Clay City","state":"in","zip":"47841","x":"-87.110518","y":"39.304845","name":"Tucker Farms Produce","website":"","facebook":"","twitter":"","tags":"canned preserved fresh-fruits fresh-vegetables honey"},{"type":"farm","street":"404 Olive St.","city":"Goshen","state":"in","zip":"46528","x":"-85.824658","y":"41.591367","name":"Uncle Paul's Gardens","website":"","facebook":"https:///www.facebook.com/pages/Uncle-Pauls-Gardens/136825963012535","twitter":"","tags":"bedding plants canned preserved dry beans herbs fresh-vegetables"},{"type":"farm","street":"5618 South County Road 200 East","city":"Lafayette","state":"in","zip":"47909","x":"-86.861472","y":"40.336633","name":"Wea Creek Orchard","website":"www.weacreekorchard.com","facebook":"https://www.facebook.com/WeaCreekOrchard?ref=hl","twitter":"","tags":"baked-goods canned preserved fresh-fruits honey maple-products"},{"type":"farm","street":"5559 N Graham Rd","city":"Whiteland","state":"in","zip":"46184","x":"-86.057032","y":"39.557765","name":"Whiteland Orchard","website":"whitelandorchard.com","facebook":"","twitter":"","tags":"bedding plants canned preserved herbs fresh-fruits fresh-vegetables honey juices ciders prepared-foods"},{"type":"market","name":"38th & Meridian Farmer's Market ","website":"","facebook":"","twitter":"","street":"3808 N Meridian St","city":"Indianapolis","state":"in","zip":"46208","x":"-86.1575468","y":"39.8255595","tags":"baked goods cheese flowers eggs seafood herbs vegetables honey jams maple meat poultry prepared-foods soap coffee fruits juices pet food"},{"type":"market","name":"52 & Shadeland Avenue Farmers Market","website":"","facebook":"","twitter":"","street":"5200 N. Shadeland Avenue","city":"Indianapolis","state":"in","zip":"46226","x":"-86.0476","y":"39.8481","tags":""},{"type":"market","name":"Albany IN Farmers Market","website":"","facebook":"https://www.facebook.com/Albany-IN-Farmers-Market-405175829889200/?modal=admin_todo_tour","twitter":"","street":"208 E. State Street","city":"Albany","state":"in","zip":"47320","x":"-85.235831","y":"40.299191","tags":"baked goods cheese crafts flowers eggs herbs vegetables honey jams meat plants prepared-foods soap fruits"},{"type":"market","name":"Anderson City Market","website":"http://www.ppchog.org/acm","facebook":"","twitter":"","street":"802 E 5th St","city":"Anderson","state":"in","zip":"46012","x":"-85.6691170","y":"40.1110630","tags":"baked goods cheese crafts flowers eggs herbs vegetables honey jams meat nuts poultry prepared-foods soap coffee fruits grains juices pet food"},{"type":"market","name":"Artisan Foodworks Thursday Evening Market","website":"http://www.artisanfoodworks.com/","facebook":"http://www.facebook.com/ArtisanFoodworksMKT","twitter":"https://twitter.com/AFoodworksMKT","street":"9600 North US Hwy 31","city":"Columbus ","state":"in","zip":"47201","x":"-85.953111","y":"39.292351","tags":"organic baked goods cheese crafts flowers eggs herbs vegetables jams maple meat plants poultry prepared-foods soap fruits"},{"type":"market","name":"Auburn Farmers Market","website":"","facebook":"","twitter":"","street":"Courthouse Square","city":"Auburn","state":"in","zip":"46706","x":"-85.0514","y":"41.3606","tags":""},{"type":"market","name":"Avon Farmers Market","website":"http://www.avongov.org/category/subcategory.php?categoryid=28","facebook":"http://facebook.com/avonfarmersmarket","twitter":"","street":"8190 E US Highway 36","city":"Avon","state":"in","zip":"","x":"-86.38263","y":"39.765279","tags":"baked goods crafts flowers eggs honey jams meat prepared-foods soap"},{"type":"market","name":"Bainbridge Farm Market","website":"","facebook":"bainbridgefarmmarket","twitter":"","street":"201 Grant Ave","city":"bainbridge","state":"in","zip":"46105","x":"-86.8176960","y":"39.7622329","tags":"organic baked goods cheese crafts flowers eggs herbs vegetables honey jams meat plants poultry prepared-foods soap fruits wild"},{"type":"market","name":"Bean Blossom Farmers' Market","website":"https://beanblossom.wordpress.com/bean-blossom-farmers-market/","facebook":"https://www.facebook.com/beanblossomfarmersmarket","twitter":"","street":"135 W St Rd 45","city":"Morgantown","state":"in","zip":"46160","x":"-86.250092","y":"39.266784","tags":"baked goods cheese crafts flowers eggs herbs honey jams maple meat plants prepared-foods soap fruits grains juices mushrooms wild"},{"type":"market","name":"Bedford Farmers Market","website":"","facebook":"www.facebook.com/BedfordFarmMarket","twitter":"","street":"924 16th Street","city":"Bedford","state":"in","zip":"47421","x":"-86.483982","y":"38.861548","tags":"baked goods crafts flowers eggs herbs vegetables honey jams maple meat nuts plants poultry soap trees fruits wild"},{"type":"market","name":"Berry's Produce & Country Market","website":"","facebook":"","twitter":"","street":"1415  W. Brumfield Ave.","city":"Princeton ","state":"in","zip":"47670","x":"-87.583806","y":"38.357542","tags":""},{"type":"market","name":"Bloomfield Community Farmers' Market","website":"https://sites.google.com/view/bloomfieldfarmkt/home","facebook":"https://www.facebook.com/Bloomfield.community.farmers.market/?fref=ts","twitter":"","street":"Greene County Courthouse Square","city":"Bloomfield","state":"in","zip":"47424","x":"-86.9379330","y":"39.0262269","tags":"organic baked goods eggs herbs vegetables honey jams meat prepared-foods soap fruits"},{"type":"market","name":"Bloomington Community Farmers' Market","website":"http://bloomington.in.gov/farmersmarket","facebook":"https://www.facebook.com/pages/Bloomington-Community-Farmers-Market/130635957114110","twitter":"","street":"401 N MortonSt","city":"Bloomington, IN ","state":"in","zip":"47404","x":"-86.5369425","y":"39.1703084","tags":"organic baked goods cheese crafts flowers eggs seafood herbs vegetables honey jams maple meat nuts plants poultry prepared-foods soap trees coffee beans fruits grains pet food wild"},{"type":"market","name":"Bloomington Winter Farmers' Market","website":"http://bloomingtonwinterfarmersmarket.org","facebook":"https://www.facebook.com/Bloomington-Winter-Farmers-Market-205299875349/","twitter":"","street":"909 E. 2nd St.","city":"Bloomington","state":"in","zip":"47401","x":"-86.521677","y":"39.161531","tags":"organic baked goods cheese crafts flowers eggs seafood herbs vegetables honey jams maple meat poultry prepared-foods soap coffee beans fruits grains mushrooms wild"},{"type":"market","name":"Bluffton Farmers' & Artisans' Market","website":"","facebook":"https://www.facebook.com/BlufftonIndianaFarmersMarket/","twitter":"","street":"360 N Main St","city":"Bluffton","state":"in","zip":"46714","x":"-85.172111","y":"40.743479","tags":"baked goods crafts flowers eggs vegetables honey jams plants soap fruits"},{"type":"market","name":"Bourbon Farmers Market","website":"http://www.bourbonfarmersmarket.com/","facebook":"https://www.facebook.com/BourbonFarmersMarket","twitter":"","street":"201 N Bourbon St","city":"Bourbon","state":"in","zip":"46504","x":"-86.1185","y":"41.2966","tags":""},{"type":"market","name":"Bremen Farmers Market","website":"","facebook":"Bremen Community Cares","twitter":"","street":"South Jackson Street and US 6","city":"Bremen","state":"in","zip":"46506","x":"-86.147566","y":"41.446463","tags":"baked goods flowers eggs herbs vegetables honey jams maple plants soap trees fruits"},{"type":"market","name":"Broad Ripple Farmers Market","website":"http://brfm.org","facebook":"BroadRippleFarmersMarket","twitter":"brfarmersmarket","street":"1115 Broad Ripple Avenue","city":"Indianapolis IN","state":"in","zip":"64220","x":"-86.138451","y":"39.7817086","tags":"organic baked goods cheese crafts flowers eggs seafood herbs vegetables honey jams maple meat nuts plants poultry prepared-foods coffee fruits juices mushrooms pet food wild"},{"type":"market","name":"Brookville Farmers Market","website":"","facebook":"https://www.facebook.com/groups/63096253830/","twitter":"","street":"South Main Street","city":"Brookville","state":"in","zip":"47012","x":"-85.011762","y":"39.414490","tags":"organic baked goods cheese crafts flowers eggs herbs vegetables honey jams maple plants prepared-foods soap trees beans fruits grains wild"},{"type":"market","name":"Brownsburg Farmers Market","website":"https://www.brownsburg.org/category/subcategory.php?categoryid=8","facebook":"https://www.facebook.com/BrownsburgFarmersMarket/","twitter":"https://twitter.com/home","street":"61 N. Green Street","city":"Brownsburg","state":"in","zip":"46112","x":"-86.396445","y":"39.844272","tags":"baked goods cheese crafts flowers herbs vegetables honey jams meat prepared-foods soap trees coffee fruits pet food"},{"type":"market","name":"Brownstown, Indiana Farmer's Market","website":"http://www.brownstownchamber.org","facebook":"","twitter":"","street":"Walnut St.","city":"Brownstown","state":"in","zip":"47220","x":"-86.053","y":"38.8794","tags":""},{"type":"market","name":"Carmel Farmers Market","website":"http://www.carmelfarmersmarket.com","facebook":"https://www.facebook.com/carmelfarmersmarket","twitter":"https://twitter.com/carmelfarmmrkt","street":"5 Center Green","city":"Carmel","state":"in","zip":"46032","x":"-86.13041","y":"39.96943","tags":"organic baked goods cheese flowers eggs herbs vegetables honey jams maple meat nuts plants poultry prepared-foods wine coffee beans fruits grains juices mushrooms pet food wild"},{"type":"market","name":"Centerville Farmers Market","website":"","facebook":"","twitter":"","street":"Behind Schraeder Real Estate","city":"Centerville","state":"in","zip":"47330","x":"-84.9963","y":"39.8195","tags":""},{"type":"market","name":"Chesterton's European Market","website":"http://www.chestertonseuropeanmarket.com","facebook":"","twitter":"","street":"220 Broadway","city":"Chesterton","state":"in","zip":"46304","x":"-87.0536","y":"41.6108","tags":"organic baked goods cheese crafts flowers herbs vegetables honey jams maple meat nuts plants prepared-foods soap"},{"type":"market","name":"Cicero Farmers Market","website":"","facebook":"","twitter":"","street":"Port Cicero Shopping Plaza","city":"Cicero","state":"in","zip":"46034","x":"-86.0135","y":"40.1303","tags":""},{"type":"market","name":"City Hall Farmer's Market","website":"","facebook":"","twitter":"","street":"700 Main Street","city":"Tell City","state":"in","zip":"47586","x":"-86.769","y":"37.9517","tags":"baked goods flowers honey"},{"type":"market","name":"Clermont Farmers Market","website":"","facebook":"https://www.facebook.com/pages/Clermont-Farmers-Market/368075276576854","twitter":"","street":"","city":"Clermont ","state":"in","zip":"46234","x":"-86.324648","y":"39.816827","tags":"baked goods crafts eggs vegetables honey fruits"},{"type":"market","name":"Columbus City Farmers Market","website":"","facebook":"https://www.facebook.com/pages/Columbus-City-Farmers-Market/347949301937000","twitter":"","street":"25th Street at Fair Oaks Mall","city":"Columbus","state":"in","zip":"47201","x":"-85.900278","y":"39.223468","tags":"organic baked goods crafts flowers eggs herbs vegetables honey jams maple meat plants soap fruits"},{"type":"market","name":"Crawfordsville Farmers Market","website":"","facebook":"https://www.facebook.com/crawfordsvillefarmersmarket","twitter":"","street":"Pike ST. between Washington St. & Walnut St.","city":"Crawfordsville","state":"in","zip":"47933","x":"-86.901777","y":"40.040589","tags":"baked goods cheese crafts flowers eggs herbs vegetables honey meat plants prepared-foods soap fruits"},{"type":"market","name":"Crooked Creek Farmers Market","website":"http://www.crookedcreekcdc.org/farmers-market","facebook":"https://www.facebook.com/Crooked-Creek-Farmers-Market-443632155833480","twitter":"","street":"2990 W 71st St","city":"Indianapolis","state":"in","zip":"46268","x":"-86.211863","y":"39.885357","tags":"baked goods cheese crafts eggs seafood vegetables honey jams maple meat plants poultry prepared-foods soap trees coffee fruits pet food"},{"type":"market","name":"Crown Point Farmers Market","website":"http://www.crownpoint.in.gov","facebook":"","twitter":"","street":"South Main Street","city":"Crown Point","state":"in","zip":"46307","x":"-87.3647","y":"41.4155","tags":""},{"type":"market","name":"Culver Farmers' Market","website":"","facebook":"@culverfarmersmarket","twitter":"","street":"819 E. Lake Shore Drive","city":"Culver","state":"in","zip":"46511","x":"-86.419302","y":"41.218494","tags":"organic baked goods crafts flowers eggs herbs vegetables honey jams maple meat nuts plants poultry prepared-foods soap fruits wild"},{"type":"market","name":"Culver Farmers' Market","website":"","facebook":"@culverfarmersmarket","twitter":"","street":"107 N Main Street","city":"Culver","state":"in","zip":"46511","x":"-86.422907","y":"41.216815","tags":"organic baked goods crafts flowers eggs herbs vegetables honey jams maple meat nuts poultry prepared-foods soap fruits"},{"type":"market","name":"Cumberland Farmers Market","website":"https://www.hoosierharvestcouncil.com/farmers-markets/cumberland-farmers-market/","facebook":"https://www.facebook.com/CumberlandINFM/","twitter":"","street":"11501 E Washington Street","city":"Cumberland","state":"in","zip":"46229","x":"-85.961442","y":"39.775951","tags":"baked goods cheese crafts flowers eggs herbs vegetables honey jams maple meat nuts plants poultry prepared-foods soap fruits juices mushrooms pet food"},{"type":"market","name":"Cummins Farmer's Market","website":"https://www.instagram.com/cumminsmidweekmarket/?hl=en","facebook":"https://www.facebook.com/cumminsfarmersmarket/","twitter":"","street":"501 Jackson St","city":"Columbus","state":"in","zip":"47201","x":"-85.9225170","y":"39.2034779","tags":"baked goods cheese flowers eggs herbs vegetables jams meat poultry fruits mushrooms pet food wild"},{"type":"market","name":"Cummins Mid-Week Farmer's Market - Columbus Engine Plant (CEP)","website":"https://www.instagram.com/cumminsmidweekmarket/?hl=en","facebook":"https://www.facebook.com/cumminsfarmersmarket/","twitter":"","street":"500 Central Ave, Columbus, IN 47201","city":"Columbus","state":"in","zip":"47201","x":"-85.9086752","y":"39.2011282","tags":"flowers vegetables honey meat plants poultry fruits"},{"type":"market","name":"Danville Chamber of Commerce Farmer's Market","website":"http://www.danvillechamber.org","facebook":"https://www.facebook.com/DCOCFarmmarket/info","twitter":"","street":"10 S Jefferson St.","city":"Danville","state":"in","zip":"46122","x":"-86.5250684","y":"39.7606302","tags":"baked goods cheese crafts flowers herbs vegetables honey jams maple meat plants poultry prepared-foods soap coffee pet food"},{"type":"market","name":"Decatur Farmer's Market","website":"http://www.decaturindianafarmersmarket.com/default.aspx","facebook":"","twitter":"","street":"231 East Monroe Street","city":"Decatur","state":"in","zip":"46733","x":"-84.92007","y":"40.83229","tags":"baked goods crafts flowers herbs vegetables honey jams nursery plants prepared-foods soap trees"},{"type":"market","name":"Dillsboro Farmers Market","website":"","facebook":"https://www.facebook.com/Dillsboro-Farmers-Market-1682514815354955/","twitter":"","street":"12926 Bank Street","city":"Dillsboro","state":"in","zip":"47018","x":"-85.060079","y":"39.018337","tags":"organic baked goods crafts eggs herbs vegetables honey maple meat plants soap trees fruits juices"},{"type":"market","name":"DOWNTOWN EVANSVILLE FARMERS MARKET","website":"http://www.downtownevansvillefarmersmarket.com","facebook":"downtown evansvillefarmersmarket.com","twitter":"","street":"3rd, 4th and Bond Sts.","city":"Evansville,IN","state":"in","zip":"47708","x":"-87.586443","y":"37.993544","tags":"baked goods crafts flowers herbs vegetables honey jams meat plants poultry prepared-foods soap coffee fruits juices mushrooms wild"},{"type":"market","name":"Downtown Lawrenceburg Farmer's Market","website":"https://www.thinklawrenceburg.com/event/downtown-lawrenceburg-farmers-market-13/","facebook":"https://www.facebook.com/lawrenceburgfarmersmarket/?ref=br_rs","twitter":"","street":"US 50 and Park Streets","city":"Lawrenceburg","state":"in","zip":"47025","x":"-84.857359","y":"39.095734","tags":"baked goods crafts flowers eggs herbs vegetables honey jams maple meat plants poultry prepared-foods soap coffee fruits wild"},{"type":"market","name":"Downtown Madison Farmers Market","website":"http://www.farmersmarketmadison.com","facebook":"https://www.facebook.com/madison.farmers.market/","twitter":"","street":"Broadway Street near the Broadway Fountain","city":"Madison","state":"in","zip":"47250","x":"-85.382973","y":"38.738245","tags":"organic baked goods flowers eggs herbs vegetables honey jams meat nuts poultry prepared-foods soap trees beans fruits mushrooms pet food wild"},{"type":"market","name":"Downtown Terre Haute Farmers' Market","website":"http://www.downtownterrehautefarmersmarket.com","facebook":"https://www.facebook.com/Terrehautedowntownfarmersmarket","twitter":"@farmersmarketTH","street":"9th & Cherry Streets","city":"Terre Haute","state":"in","zip":"47807","x":"-87.4044397","y":"39.4675452","tags":"organic baked goods cheese crafts flowers eggs herbs vegetables honey jams maple meat nuts plants poultry prepared-foods soap trees coffee beans fruits grains juices mushrooms pet food wild"},{"type":"market","name":"Elkhart Community Farmer's Market","website":"","facebook":"","twitter":"","street":"100 North Elkhart Ave.","city":"Elkhart","state":"in","zip":"46516","x":"-85.9685","y":"41.6901","tags":"baked goods crafts flowers herbs vegetables honey jams maple nuts plants prepared-foods"},{"type":"market","name":"Ellettsville Farmers Market","website":"http://area10agency.org","facebook":"https://www.facebook.com/","twitter":"https://twitter.com/area10agency","street":"631 W. Edgewood Dr.","city":"Ellettsville","state":"in","zip":"47429","x":"-86.6387800","y":"39.2317870","tags":"organic baked goods cheese flowers eggs vegetables jams meat plants poultry prepared-foods coffee fruits wild"},{"type":"market","name":"English Farmers Market","website":"","facebook":"","twitter":"","street":"201 Indiana Ave","city":"English","state":"in","zip":"47118","x":"-86.4432","y":"38.3511","tags":"baked goods cheese crafts flowers herbs vegetables honey jams plants soap"},{"type":"market","name":"Farm to Fork Farmers Market at Normandy Farms","website":"http://www.farmtoforkmarket.org","facebook":"https://www.facebook.com/FarmtoForkMarketatNormandyFarms","twitter":"","street":"7802 Marsh RD","city":"Indianapolis","state":"in","zip":"46278","x":"-86.275251","y":"39.894869","tags":"organic baked goods cheese crafts flowers eggs herbs vegetables honey jams meat plants poultry prepared-foods soap trees fruits"},{"type":"market","name":"Farmers Market","website":"","facebook":"","twitter":"","street":"South Elkhart Street-across from the post office","city":"Wakarusa","state":"in","zip":"46573","x":"-86.021","y":"41.5359","tags":""},{"type":"market","name":"Farmers Market at the Barn","website":"","facebook":"","twitter":"","street":"At the Barn, 1201 E. 38th Street","city":"Indianapolis","state":"in","zip":"46205","x":"-86.1365","y":"39.8257","tags":""},{"type":"market","name":"Farmers Market at the Fairgrounds","website":"https://www.hoosierharvestcouncil.com/farmers-markets/farmers-market-at-the-fairgrounds/","facebook":"https://www.facebook.com/FarmersMarketAtTheFairgrounds/","twitter":"theFairgrounds","street":"620 N Apple Street","city":"Greenfield","state":"in","zip":"46140","x":"-85.756090","y":"39.792129","tags":"baked goods cheese crafts flowers eggs herbs vegetables honey jams maple meat plants poultry prepared-foods soap fruits mushrooms pet food"},{"type":"market","name":"Fayette County Farmers' Market","website":"","facebook":"https://www.facebook.com/FayettecountyfarmersmarketIN/?ref=bookmarks","twitter":"","street":"401 N Central Ave","city":"Connersville","state":"in","zip":"47331","x":"-85.139738","y":"39.641132","tags":"baked goods cheese crafts flowers eggs herbs vegetables honey jams maple meat plants poultry soap coffee fruits"},{"type":"market","name":"Fishers Farmers Market","website":"http://www.fishersfarmersmarket.com","facebook":"","twitter":"","street":"11601 Municipal Drive","city":"Fishers","state":"in","zip":"46038","x":"-86.01632","y":"39.9575","tags":"baked goods flowers eggs herbs vegetables honey jams maple meat nursery plants poultry prepared-foods soap"},{"type":"market","name":"Floyds Knobs Farmers Market ","website":"","facebook":"Floyds Knobs Farmers Market ","twitter":"","street":"400 block Laffollette Station","city":"Floyd Knobs","state":"in","zip":"47119","x":"-85.906999","y":"38.3190556","tags":"baked goods crafts flowers eggs herbs vegetables honey jams meat plants soap fruits"},{"type":"market","name":"Fort Ben Farmers Market","website":"http://www.cityoflawrence.org/fortbenfarmersmarket","facebook":"https://www.facebook.com/FortBenFarmersMarket/","twitter":"","street":"","city":"Lawrence","state":"in","zip":"","x":"-85.989646","y":"39.865956","tags":"organic baked goods crafts flowers eggs seafood vegetables honey jams maple meat plants poultry prepared-foods soap coffee fruits mushrooms tofu"},{"type":"market","name":"Fortville Farmers Market","website":"http://www.hoosierharvestcouncil.com/farmers-markets/fortville-farmers-market/","facebook":"https://www.facebook.com/FortvilleFarmersMarket","twitter":"@FortvilleMarket","street":"701 South Maple Street","city":"Fortville ","state":"in","zip":"46040","x":"-85.846045","y":"39.928813","tags":"baked goods cheese crafts flowers eggs herbs vegetables honey jams maple meat plants poultry prepared-foods soap fruits juices pet food"},{"type":"market","name":"Frankfort Farmers Market","website":"","facebook":"https://www.facebook.com/FrankfortFarmersMarket","twitter":"","street":"Courthouse Square","city":"Frankfort","state":"in","zip":"46041","x":"-86.511368","y":"40.280691","tags":"baked goods crafts eggs vegetables honey jams meat plants poultry prepared-foods soap fruits grains"},{"type":"market","name":"Franklin Farmers Market","website":"http://discoverdowntownfranklin.com","facebook":"https://www.facebook.com/DiscoverDowntownFranklin/","twitter":"","street":"Parking Lot 2 Blocks West of the Courthouse","city":"Franklin","state":"in","zip":"46131","x":"-86.057680","y":"39.479799","tags":"organic baked goods cheese crafts flowers eggs herbs vegetables jams meat nuts plants poultry prepared-foods soap coffee fruits juices wild"},{"type":"market","name":"Franklin Street Bazaar","website":"https://www.fallinlovewithfranklin.org/featuredevents","facebook":"","twitter":"","street":"2000 W Franklin St","city":"Evansville","state":"in","zip":"47710","x":"-87.594789","y":"37.980389","tags":"baked goods cheese crafts flowers eggs herbs vegetables honey jams maple meat nuts plants prepared-foods soap wine coffee beans fruits juices pet food wild"},{"type":"market","name":"Fred Cammack Corydon Farmers Market ","website":"http://www.corydonfarmersmarket.org/","facebook":"https://www.facebook.com/corydonfarmersmarket","twitter":"","street":"124 Mulberry St ","city":"Corydon","state":"in","zip":"47112","x":"-86.1237785","y":"38.2097481","tags":"baked goods cheese crafts flowers eggs seafood herbs vegetables honey jams maple meat plants poultry prepared-foods soap wine coffee beans fruits grains mushrooms"},{"type":"market","name":"Ft. Wayne's Farmers Market - Summer","website":"https://ftwaynesfarmersmarket.com/","facebook":"https://www.facebook.com/ftwaynesfm/","twitter":"https://twitter.com/FtWaynesFM","street":"301 E Wayne Street","city":"Fort Wayne","state":"in","zip":"46802","x":"-85.136155","y":"41.078388","tags":"organic baked goods cheese crafts flowers eggs herbs vegetables honey maple meat plants poultry prepared-foods soap wine coffee fruits grains juices mushrooms pet food wild"},{"type":"market","name":"Ft. Wayne's Farmers Market-Winter Market","website":"https://ftwaynesfarmersmarket.com/","facebook":"https://www.facebook.com/ftwaynesfm/","twitter":"@FtwaynesFM","street":"216 W Douglas Ave","city":"FORT WAYNE","state":"in","zip":"46802","x":"-85.140411","y":"41.074494","tags":"organic baked goods cheese crafts flowers eggs herbs vegetables honey jams maple meat plants poultry prepared-foods soap trees wine coffee fruits grains juices mushrooms pet food"},{"type":"market","name":"Fulton County Farmers Market","website":"","facebook":"","twitter":"","street":"","city":"Rochester","state":"in","zip":"46975","x":"-86.2158331","y":"41.0647645","tags":"organic baked goods crafts flowers eggs herbs vegetables honey jams meat nuts plants prepared-foods trees fruits"},{"type":"market","name":"Garfield Park Farmers Market","website":"","facebook":"https://www.facebook.com/GarfieldParkFarmersMarket/","twitter":"","street":"2345 Pagoda Dr","city":"Indianapolis","state":"in","zip":"46225","x":"-86.141830","y":"39.731109","tags":"organic baked goods cheese crafts flowers eggs herbs vegetables honey jams maple meat nuts plants poultry prepared-foods soap trees coffee beans fruits grains juices mushrooms pet food tofu wild"},{"type":"market","name":"Gas City, IN Farmers Market ","website":"","facebook":"https://m.facebook.com/FarmersMarketsinGasCityIndiana/?ref=bookmarks","twitter":"","street":"1028 E Main Street","city":"Gas City","state":"in","zip":"46933","x":"-85.598506","y":"40.489812","tags":"baked goods flowers eggs vegetables honey jams meat fruits"},{"type":"market","name":"Georgetown United Methodist Farmers' Market ","website":"http://www.georgetownchristumc.org/eventcal.aspx","facebook":"","twitter":"","street":"1618 Canal Lane","city":"Georgetown","state":"in","zip":"47122","x":"-85.9661","y":"38.297","tags":""},{"type":"market","name":"Goshen Farmers Market","website":"http://www.goshenfarmersmarket.org/","facebook":"https://www.facebook.com/goshenfm","twitter":"","street":"212 W Washington St","city":"Goshen","state":"in","zip":"46526","x":"-85.837360","y":"41.584882","tags":"baked goods cheese crafts flowers eggs herbs vegetables honey jams maple meat nuts plants poultry prepared-foods soap coffee fruits juices mushrooms pet food"},{"type":"market","name":"Grace Point Farmers Market","website":"","facebook":"","twitter":"","street":"1155 North Main St.","city":"Nappanee","state":"in","zip":"46550","x":"-85.9979","y":"41.4674","tags":""},{"type":"market","name":"Granger Farmers Market","website":"http://www.grangerfarmersmarket.com","facebook":"https://www.facebook.com/grangerfarmersmarket","twitter":"","street":"12435 Adams Road","city":"granger","state":"in","zip":"46530","x":"-86.1102024","y":"41.7535321","tags":"organic baked goods cheese crafts flowers eggs herbs vegetables honey maple meat nuts plants poultry soap coffee beans fruits grains juices mushrooms wild"},{"type":"market","name":"Grant County Farmer's Market","website":"","facebook":"","twitter":"","street":" Main and Railroad St","city":"Upland","state":"in","zip":"46989","x":"-85.495520","y":"40.474228","tags":"baked goods eggs vegetables jams maple plants soap fruits"},{"type":"market","name":"Greencastle Farmers' Market","website":"","facebook":"https://www.facebook.com/GreencastleFarmersMarket","twitter":"","street":"Indiana Street between Washington and Franklin Streets","city":"Greencastle","state":"in","zip":"46135","x":"-86.864547","y":"39.644176","tags":"baked goods crafts flowers eggs herbs vegetables honey jams meat plants poultry prepared-foods soap trees coffee fruits juices pet food wild"},{"type":"market","name":"Greensburg/Decatur County Farmers' Market","website":"http://www.mainstreetgreensburg.com/#!farmers-market/c16au","facebook":"https://www.facebook.com/mainstreet.greensburg","twitter":"","street":"150 Courthouse Square","city":"Greensburg","state":"in","zip":"47240","x":"-85.483491","y":"39.336924","tags":"organic baked goods cheese flowers eggs herbs vegetables honey jams maple meat plants poultry soap fruits grains"},{"type":"market","name":"Greenwood Farmers Market","website":"","facebook":"","twitter":"","street":"525 North Madison Avenue","city":"Greenwood ","state":"in","zip":"46142","x":"-86.1117271","y":"39.6220094","tags":"baked goods crafts flowers eggs herbs vegetables honey jams plants soap coffee fruits pet food"},{"type":"market","name":"Hardy’s Farm Market","website":"","facebook":"Hardy’s Farm Market","twitter":"","street":"4525 Knoll Rd","city":"Fort Wayne","state":"in","zip":"46809","x":"-85.2011808","y":"41.0359345","tags":"baked goods crafts flowers eggs vegetables honey jams plants fruits"},{"type":"market","name":"Harrison County Farmers' Market","website":"","facebook":"https://www.facebook.com/harrisoncountyfarmersmarket","twitter":"","street":"1390 Old Hwy 135","city":"Corydon","state":"in","zip":"47112","x":"-86.129079","y":"38.222370","tags":"baked goods crafts eggs vegetables honey jams meat plants soap fruits"},{"type":"market","name":"Harvest with a Heart","website":"http://www.harvestwithaheart.org/","facebook":"","twitter":"","street":"105 W. Emeline Street","city":"Milford","state":"in","zip":"46542","x":"-85.8466","y":"41.4087","tags":""},{"type":"market","name":"Heart of Rushville's Farmers & Artisans Market","website":"","facebook":"www.facebook.com/heartofRushFAM","twitter":"","street":"301 S Main St","city":"Rushville","state":"in","zip":"46173","x":"-85.4451439","y":"39.6053452","tags":"baked goods crafts flowers eggs herbs vegetables honey jams plants prepared-foods soap fruits"},{"type":"market","name":"Henry County Farmers Market","website":"","facebook":"","twitter":"","street":"100 block of S Main Street","city":"New Castle","state":"in","zip":"47632","x":"-85.355","y":"39.9705","tags":""},{"type":"market","name":"Highland Street Market","website":"http://www.highlandparks.org","facebook":"www.facebook.com/highlandparks","twitter":"","street":"3001 Ridge Road","city":"Highland","state":"in","zip":"46322","x":"-87.456239","y":"41.555176","tags":"baked goods cheese crafts herbs vegetables honey prepared-foods soap fruits pet food"},{"type":"market","name":"Historic Lafayette Farmers Market","website":"http://www.lafayettefarmersmarket.com/","facebook":"https://www.facebook.com/LafayetteFarmersMarket/","twitter":"","street":"5th St between Main and Columbia","city":"Lafayette","state":"in","zip":"47901","x":"-86.891911","y":"40.418574","tags":"organic baked goods crafts flowers eggs herbs vegetables honey jams maple meat nuts plants poultry prepared-foods soap trees coffee beans fruits"},{"type":"market","name":"Historic Lafayette Farmers Market--Purdue Market","website":"http://www.lafayettefarmersmarket.com/","facebook":"https://www.facebook.com/LafayetteFarmersMarket/","twitter":"","street":"Memorial Mall on the Purdue University Campus","city":"West Lafayette","state":"in","zip":"47906","x":"-86.9143117","y":"40.4257807","tags":"baked goods flowers herbs vegetables honey jams maple plants prepared-foods soap coffee fruits"},{"type":"market","name":"Historic Newburgh Farmers Market","website":"http://newburghfarmersmarket.org","facebook":"facebook.com/newburghfarmersmarket","twitter":"@marketnewburgh","street":"1 E Water St","city":"Newburgh","state":"in","zip":"47630","x":"-87.405321","y":"37.944042","tags":"baked goods cheese crafts flowers eggs herbs vegetables honey jams meat plants poultry prepared-foods soap coffee fruits pet food"},{"type":"market","name":"Historic West Main Street Farmers Market","website":"","facebook":"https://www.facebook.com/mainstreetfarmmarket","twitter":"https://twitter.com/west_main_st","street":"1936 West Main Street","city":"Fort Wayne","state":"in","zip":"46808","x":"-85.1679","y":"41.0787","tags":"organic baked goods cheese crafts flowers eggs herbs vegetables honey jams maple meat nuts plants prepared-foods soap trees coffee fruits mushrooms pet food wild"},{"type":"market","name":"Hobart Summer Market on the Lake","website":"http://www.cityofhobart.org","facebook":"","twitter":"","street":"Festival Park - 111 E. Old Ridge Road","city":"Hobart","state":"in","zip":"46342","x":"-87.2586634","y":"41.5369057","tags":"baked goods crafts vegetables honey jams plants prepared-foods soap wine fruits"},{"type":"market","name":"Howe Farmers Market","website":"","facebook":"","twitter":"","street":"Town Park","city":"Howe","state":"in","zip":"46746","x":"-85.379","y":"41.7227","tags":""},{"type":"market","name":"Huntingburg Farmers Market","website":"http://www.huntingburgchamberofcommerce.org","facebook":"","twitter":"","street":"507 North Main Street","city":"Huntingburg","state":"in","zip":"47542","x":"-86.95513","y":"38.29863","tags":"baked goods crafts flowers herbs vegetables honey jams maple meat nursery nuts plants prepared-foods soap trees"},{"type":"market","name":"Huntington County Farmers Market","website":"","facebook":"https://www.facebook.com/HuntingtonDowntownMarket/","twitter":"","street":"Cherry & Market Streets","city":"Huntingon","state":"in","zip":"46750","x":"-85.488165","y":"40.8292342","tags":"baked goods cheese eggs vegetables honey jams maple meat nuts plants poultry prepared-foods soap coffee fruits"},{"type":"market","name":"Huntington WIC Market","website":"","facebook":"","twitter":"","street":"350 Hauenstein Rd","city":"Huntington","state":"in","zip":"46750","x":"-85.5204","y":"40.8955","tags":""},{"type":"market","name":"Hurlock Farmers' and Watermen's Market","website":"","facebook":"","twitter":"","street":"7010 E. Raymond Street","city":"Indianapolis","state":"in","zip":"46239","x":"-86.0437","y":"39.7415","tags":""},{"type":"market","name":"Indy Winter Farmers Market","website":"http://www.indywinterfarmersmarket.org","facebook":"https://www.facebook.com/IndyWFMkt","twitter":"https://twitter.com/IndyWFMkt","street":"1125 E. Brookside Ave., Circle City Industrial Complex","city":"Indianapolis","state":"in","zip":"46202","x":"-86.137726","y":"39.781728","tags":"organic baked goods cheese crafts flowers eggs seafood herbs vegetables honey jams maple meat plants poultry prepared-foods soap wine coffee fruits grains juices mushrooms pet food wild"},{"type":"market","name":"Irvington Farmers Market ","website":"http://www.irvingtongardenclub.org","facebook":"","twitter":"","street":"5301 E. St. Clair Street (East Side Indy)","city":"Indianapolis","state":"in","zip":"46219","x":"-86.0782","y":"39.7776","tags":"baked goods cheese crafts flowers eggs herbs vegetables honey jams meat plants poultry prepared-foods soap coffee fruits"},{"type":"market","name":"JCC Farmers Market","website":"http://www.jccindy.org","facebook":"www.facebook.com/jccindianapolis","twitter":"https://twitter.com/JCCIndianapolis","street":"6701 Hoover Road","city":"Indianapolis","state":"in","zip":"46260","x":"-86.174004","y":"39.879689","tags":"baked goods seafood herbs vegetables honey jams coffee fruits grains"},{"type":"market","name":"Jeffersonville Farmers Market","website":"http://www.jeffmainstreet.org/events/farmers-market","facebook":"","twitter":"","street":"Corner of Chestnut Street and Locust Street","city":"Jeffersonville","state":"in","zip":"47130","x":"-85.737895","y":"38.272747","tags":"baked goods crafts eggs herbs vegetables honey meat plants prepared-foods soap trees fruits"},{"type":"market","name":"Jeffersonville Farmers Market at Jeffersonville High School","website":"","facebook":"","twitter":"","street":"","city":"Jeffersonville","state":"in","zip":"","x":"-85.7151","y":"38.3176","tags":""},{"type":"market","name":"Jennings County Farmers Market","website":"","facebook":"","twitter":"","street":"North Vernon City Park","city":"North Vernon","state":"in","zip":"47265","x":"-85.6389","y":"39.013","tags":""},{"type":"market","name":"Kendallville Main Street Farmer's Market","website":"","facebook":"https://www.facebook.com/#!/kendallvillefarmersmarket?fref=ts","twitter":"","street":"South Main Street in downtown Kendallville","city":"Kendallville","state":"in","zip":"46755","x":"-85.265532","y":"41.443153","tags":"organic baked goods crafts flowers herbs vegetables honey jams plants prepared-foods fruits"},{"type":"market","name":"Knightstown Farmers' Market","website":"","facebook":"","twitter":"","street":"N Washington St","city":"Knightstown","state":"in","zip":"46148","x":"-85.5245","y":"39.796","tags":""},{"type":"market","name":"Knox Farmers Market","website":"http://www.knoxfarmersmarket.org","facebook":"","twitter":"","street":"1601 South Heaton Street","city":"Knox","state":"in","zip":"46534","x":"-86.6206576","y":"41.2826208","tags":"baked goods cheese crafts flowers eggs herbs vegetables honey jams maple plants soap trees beans fruits"},{"type":"market","name":"Kokomo Downtown Farmers' Market","website":"http://www.kokomofarmersmarket.com","facebook":"www.facebook.com/kokomofarmersmarket","twitter":"","street":"Intersection of Mulberry and Washington Streets","city":"Kokomo","state":"in","zip":"46901","x":"-86.133519","y":"40.488463","tags":"baked goods cheese crafts flowers eggs herbs vegetables honey jams maple meat plants poultry prepared-foods soap coffee fruits juices mushrooms"},{"type":"market","name":"Kosciusko County Farmers' Market, LLC","website":"","facebook":"","twitter":"","street":"1400 Smith Street (Kosciusko County Fairgrounds)","city":"Warsaw","state":"in","zip":"46580","x":"-85.8379","y":"41.2322","tags":"organic baked goods crafts flowers herbs vegetables honey jams maple meat plants prepared-foods soap"},{"type":"market","name":"LaGrange Community Farmers Market","website":"","facebook":"","twitter":"","street":"East Spring Street","city":"LaGrange","state":"in","zip":"46761","x":"-85.4141","y":"41.644","tags":""},{"type":"market","name":"LaPorte Farmers Market","website":"","facebook":"","twitter":"","street":"Downtown on State St. North of Courthouse","city":"LaPorte","state":"in","zip":"46350","x":"-86.7215","y":"41.6111","tags":""},{"type":"market","name":"Lebanon City Market","website":"","facebook":"www.facebook.com/lebanoncitymarket","twitter":"https://twitter.com/lebanoncitymkt","street":"309 S Lebanon St.","city":"Lebanon ","state":"in","zip":"46052","x":"-86.4690470","y":"40.0456714","tags":"baked goods cheese crafts flowers eggs herbs vegetables honey jams maple plants poultry prepared-foods soap wine coffee fruits mushrooms"},{"type":"market","name":"Linton Farmers' Market","website":"http://www.lintonfarmersmarket.com","facebook":"@lintonfarmersmarket","twitter":"","street":"","city":"Linton","state":"in","zip":"47441","x":"-87.149098","y":"39.039325","tags":"baked goods crafts flowers eggs herbs vegetables honey jams maple meat nuts plants poultry prepared-foods soap wine coffee fruits mushrooms wild"},{"type":"market","name":"Logansport Farmers Market","website":"","facebook":"","twitter":"","street":"4th and Market Street","city":"Logansport","state":"in","zip":"46947","x":"-86.365328","y":"40.752621","tags":"baked goods eggs herbs vegetables honey maple plants poultry soap fruits"},{"type":"market","name":"Lowell Farmers Market","website":"http://lowellfarmersmarket.webs.com/","facebook":"https://www.facebook.com/CommunityEvent2013","twitter":"","street":"8402 W 159th Ave","city":"Lowell","state":"in","zip":"46356","x":"-87.421560","y":"41.291407","tags":"baked goods crafts flowers eggs herbs vegetables honey jams meat plants poultry prepared-foods soap coffee fruits"},{"type":"market","name":"Marian University Farmers' Market at the Indy Cycloplex","website":"http://marian.edu/marian-university-farmers'-market","facebook":"","twitter":"","street":"3649 Cold Spring Road","city":"Indianapolis","state":"in","zip":"46222","x":"-86.200018","y":"39.820815","tags":"organic baked goods vegetables honey soap coffee fruits grains"},{"type":"market","name":"Marion Open Air Market","website":"","facebook":"https://www.facebook.com/MarionsOpenAirMarket","twitter":"","street":"1500 S. Western Ave.","city":"Marion","state":"in","zip":"46953","x":"-85.676091","y":"40.546438","tags":"baked goods crafts flowers eggs herbs vegetables jams plants poultry prepared-foods soap coffee fruits"},{"type":"market","name":"Mark's Farm Market & Greenhouses","website":"http://www.marksfarmmarket.com","facebook":"","twitter":"","street":"4374 W US Hwy 20","city":"LaPorte","state":"in","zip":"46350","x":"-86.7849","y":"41.6903","tags":"flowers vegetables honey plants"},{"type":"market","name":"Market at Hague","website":"http://www.marketathague.com","facebook":"https://www.facebook.com/The-Market-at-Hague-111165068392/timeline/?ref=nf","twitter":"https://twitter.com/MarketatHague","street":"7800 N Hague Rd","city":"Indianapolis","state":"in","zip":"46220","x":"-86.035248","y":"39.897043","tags":"baked goods cheese crafts flowers eggs seafood vegetables honey jams maple plants soap coffee fruits juices mushrooms pet food"},{"type":"market","name":"Market of Life","website":"","facebook":"","twitter":"","street":"3510 W 15th Ave","city":"Gary ","state":"in","zip":"46404","x":"-87.344853","y":"41.595883","tags":"organic baked goods cheese crafts flowers eggs herbs vegetables honey jams maple plants prepared-foods soap trees coffee fruits pet food wild"},{"type":"market","name":"Market on Main ","website":"","facebook":"https://www.facebook.com/MarketonMainEVV/","twitter":"","street":"Ford Center Plaza 6th and Main St","city":"Evansville","state":"in","zip":"47715","x":"-87.568349","y":"37.972884","tags":"baked goods cheese crafts flowers eggs vegetables honey jams meat prepared-foods soap coffee fruits"},{"type":"market","name":"Market on the Square","website":"","facebook":"","twitter":"","street":"1st North St.  ","city":"Versailles ","state":"in","zip":"47042","x":"-85.2502966","y":"39.0723288","tags":"baked goods crafts flowers eggs herbs vegetables honey jams maple meat plants prepared-foods soap fruits"},{"type":"market","name":"Marketplace at Westfield ","website":"http://www.localharvest.org/marketplace-at-westfield-M30913","facebook":"https://www.facebook.com/events/113817195494487/","twitter":"","street":"3333 East State Rd.","city":"Westfield","state":"in","zip":"46074","x":"-86.1281","y":"40.1388","tags":""},{"type":"market","name":"Markleville Farmers Market","website":"","facebook":"https://www.facebook.com/pages/Markleville-Farmers-Market/122632817748753","twitter":"","street":"St. Rd. 38....1 mile east of St. Rd. 109","city":"Markleville","state":"in","zip":"46056","x":"-85.618732","y":"39.978019","tags":"baked goods cheese crafts flowers eggs herbs vegetables honey jams plants soap fruits wild"},{"type":"market","name":"Matthys Farm Market","website":"http://www.matthysfarmmarket.com","facebook":"Matthys farm market","twitter":"","street":"57754 Crumstown Hwy","city":"South Bend","state":"in","zip":"46619","x":"-86.35873","y":"41.65516","tags":"crafts vegetables honey jams maple plants trees fruits"},{"type":"market","name":"Miami County Farmers Market","website":"","facebook":"Miami County Farmers' Market","twitter":"","street":"North Broadway and East 5th Street","city":"Peru","state":"in","zip":"46970","x":"-86.069521","y":"40.755229","tags":"baked goods crafts flowers eggs herbs vegetables honey plants soap fruits mushrooms"},{"type":"market","name":"Miller Beach Farmers Market","website":"http://dragonflynwi.com/groups/miller-beach-farmers-market/","facebook":"https://www.facebook.com/MillerMarket","twitter":"","street":"667 S Lake St","city":"Gary","state":"in","zip":"46403","x":"-87.2661954","y":"41.5983480","tags":"baked goods cheese crafts flowers eggs seafood herbs vegetables honey jams plants prepared-foods soap fruits juices"},{"type":"market","name":"Minnetrista Farmers Market","website":"https://minnetrista.net/home/things-to-do/farmers-market2/","facebook":"https://www.facebook.com/minnetrista","twitter":"","street":"1200 North Minnetrista Pkwy","city":"Muncie ","state":"in","zip":"47303","x":"-85.393346","y":"40.198978","tags":"organic baked goods cheese crafts flowers eggs herbs vegetables honey jams maple meat plants poultry prepared-foods soap coffee fruits grains juices"},{"type":"market","name":"Minnetrista's Farmers Market","website":"http://www.minnetrista.net","facebook":"","twitter":"","street":"1200 n Minnetrista Parkway","city":"Muncie","state":"in","zip":"47303","x":"-85.3969","y":"40.2275","tags":"baked goods cheese flowers herbs vegetables honey jams maple meat plants prepared-foods soap"},{"type":"market","name":"Monticello Farmer's Market","website":"http://www.monticellofarmersmarket.weebly.com","facebook":"https://www.facebook.com/monticellofarmermarket/","twitter":"","street":"110 N. Main St","city":"Monticello ","state":"in","zip":"47960","x":"-86.7625086","y":"40.7452318","tags":"organic baked goods cheese flowers eggs vegetables honey maple meat plants soap fruits pet food"},{"type":"market","name":"Morgan County Farmers' Market Association","website":"","facebook":"morgan county farmers market","twitter":"","street":"Main St. & Indiana St.","city":"Martinsville ","state":"in","zip":"46151","x":"-86.428695","y":"39.423392","tags":"baked goods cheese crafts flowers eggs herbs vegetables jams maple meat plants prepared-foods soap fruits grains"},{"type":"market","name":"Morgan County farmers' Market Association","website":"","facebook":"morgan county farmers market","twitter":"","street":"Monroe & Main St.","city":"Mooresville ","state":"in","zip":"46158","x":"-86.3796098","y":"39.6128060","tags":"baked goods cheese crafts flowers eggs herbs vegetables jams maple meat plants prepared-foods soap fruits grains"},{"type":"market","name":"Mt. Vernon Farmers Market","website":"http://www3.ag.purdue.edu/counties/posey/Pages/MtVernonFarmers%27Market.aspx","facebook":"https://www.facebook.com/pages/Mt-Vernon-Farmers-Market-in-SW-Indiana/111089392250491","twitter":"","street":"1006 E. Fourth St.","city":"Mt. Vernon","state":"in","zip":"47620","x":"-87.884274","y":"37.934822","tags":"baked goods vegetables jams nuts plants soap fruits"},{"type":"market","name":"Muncie Makers Market ","website":"","facebook":"https://www.facebook.com/groups/1627047027524961/","twitter":"","street":"Outside at Books & Brews, 2100 West White River Boulevard","city":"Muncie","state":"in","zip":"47303","x":"-85.4106750","y":"40.1883942","tags":"organic baked goods crafts flowers eggs herbs vegetables honey jams plants soap trees coffee fruits mushrooms"},{"type":"market","name":"Munster Farmer's Market","website":"http://www.munster.org/department/division.php?fDD=6-177","facebook":"https://www.facebook.com/munster.parks1","twitter":"","street":"1005 N Centennial Drive","city":"Munster","state":"in","zip":"46321","x":"-87.505723","y":"41.536804","tags":"baked goods cheese crafts vegetables honey jams meat plants poultry prepared-foods soap"},{"type":"market","name":"Nashville Farmer's Market","website":"","facebook":"https://www.facebook.com/NashvilleFarmersMarketNashvilleIndiana/","twitter":"","street":"51 St Rd 46 E ","city":"Nashville","state":"in","zip":"47448","x":"-86.2458828","y":"39.2014580","tags":"baked goods cheese eggs vegetables honey jams maple meat plants poultry soap coffee fruits juices"},{"type":"market","name":"New Albany Farmers Market","website":"http://www.newalbanyfarmersmarket.com","facebook":"https://www.facebook.com/pages/New-Albany-Farmers-Market/217753735295","twitter":"","street":"202 E. Market","city":"New Albany","state":"in","zip":"47150","x":"-85.82095","y":"38.28495","tags":"organic baked goods cheese crafts flowers eggs herbs vegetables honey jams maple meat nuts plants poultry prepared-foods soap trees wine coffee beans fruits grains juices mushrooms pet food wild"},{"type":"market","name":"New Castle Farmers Market","website":"","facebook":"","twitter":"","street":"Library parking lot","city":"New Castle","state":"in","zip":"47362","x":"-85.7457","y":"40.0025","tags":""},{"type":"market","name":"New Harmony Farmers Market","website":"","facebook":"","twitter":"","street":"North end of Main St.","city":"New Harmony","state":"in","zip":"","x":"-87.5314","y":"38.6804","tags":""},{"type":"market","name":"New Haven Farmers Market","website":"http://www.newhavenparksandrec.com/events/","facebook":"https://www.facebook.com/NewHavenFarmersMarket/","twitter":"","street":"956 Park Ave.","city":"New Haven","state":"in","zip":"46774","x":"-85.016707","y":"41.068937","tags":"baked goods crafts eggs vegetables honey jams maple plants prepared-foods soap fruits"},{"type":"market","name":"Noblesville Farmers Market","website":"https://www.noblesvillemainstreet.org/index.php/signature-events/noblesville-indiana-farmers-market","facebook":"https://www.facebook.com/noblesvilleinfarmersmarket/","twitter":"","street":"St Rd 32","city":"Noblesville","state":"in","zip":"46060","x":"-86.019368","y":"40.048031","tags":"baked goods crafts flowers herbs vegetables honey jams meat plants poultry soap fruits pet food"},{"type":"market","name":"North Manchester Farmers' Market","website":"http://visitwabashcounty.com/venue/north-manchester-farmers-market/","facebook":"https://www.facebook.com/groups/325141357105/","twitter":"","street":"502 E Main St","city":"North Manchester","state":"in","zip":"46962","x":"-85.763837","y":"40.999378","tags":"baked goods crafts flowers eggs herbs vegetables honey jams maple meat plants poultry soap trees coffee fruits juices"},{"type":"market","name":"Orange County HomeGrown Farmers Market - Valley Market","website":"http://www.orangecountyhomegrown.org","facebook":"https://www.facebook.com/OrangeCountyHomeGrown/","twitter":"","street":"West Highway 56","city":"French Lick","state":"in","zip":"47432","x":"-86.6210467","y":"38.5495110","tags":"baked goods crafts flowers eggs herbs vegetables jams maple plants prepared-foods soap coffee fruits"},{"type":"market","name":"Orange County HomeGrown Farmers Markets - Orleans","website":"http://www.orangecountyhomegrown.org","facebook":"https://www.facebook.com/OrangeCountyHomeGrown","twitter":"","street":"South side of Congress Square","city":"Orleans","state":"in","zip":"47452","x":"-86.4683210","y":"38.5561663","tags":"organic baked goods crafts flowers eggs herbs vegetables honey jams maple meat nuts plants poultry soap trees coffee fruits"},{"type":"market","name":"Orange County HomeGrown Farmers Markets - Paoli","website":"http://www.orangecountyhomegrown.org","facebook":"https://www.facebook.com/OrangeCountyHomeGrown","twitter":"","street":"Hwy 37, Front Parking lot of Walmart","city":"Paoli","state":"in","zip":"47454","x":"-86.4683210","y":"38.5561663","tags":"organic baked goods crafts flowers eggs herbs vegetables honey jams maple meat plants poultry prepared-foods soap coffee fruits"},{"type":"market","name":"Original Farmers' Market at Indianapolis City Market","website":"http://www.indycm.com","facebook":"","twitter":"","street":"222 E. Market Street","city":"Indianapolis","state":"in","zip":"46204","x":"-86.1535","y":"39.76882","tags":"organic baked goods cheese crafts flowers eggs herbs vegetables honey jams maple meat nursery nuts plants poultry prepared-foods soap wine"},{"type":"market","name":"Owen County Farmers' Market","website":"http://www.owencountyfarmersmarket.com/","facebook":"https://www.facebook.com/owencountyfarmersmarket","twitter":"","street":"459 W Morgan St","city":"Spencer","state":"in","zip":"47460","x":"-86.768538","y":"39.287153","tags":"baked goods crafts flowers eggs herbs vegetables honey jams maple meat nuts plants prepared-foods soap coffee fruits grains"},{"type":"market","name":"Pendleton Farmers Market","website":"","facebook":"","twitter":"","street":"Depot Park","city":"Pendleton","state":"in","zip":"46064","x":"-85.7515","y":"39.996","tags":""},{"type":"market","name":"Pike County Farmers Market Association","website":"http://pikecomarket.com/","facebook":"https://www.facebook.com/groups/prfarmersmarket/?fref=ts","twitter":"","street":"1008 Maple Street","city":"Petersburg","state":"in","zip":"47567","x":"-87.2749235","y":"38.4900330","tags":"organic baked goods cheese crafts flowers eggs herbs vegetables honey jams maple meat nuts plants poultry prepared-foods soap trees fruits"},{"type":"market","name":"Pittsboro Farmers Market","website":"http://www.pittsborofarmersmarket.blogspot.com","facebook":"https://www.facebook.com/pittsboro.farmers.market","twitter":"","street":"Scamahorn Park, Main Street","city":"Pittsboro","state":"in","zip":"46167","x":"-86.4862817","y":"39.8680142","tags":"organic baked goods crafts vegetables honey jams fruits"},{"type":"market","name":"Plainfield Chamber of Commerce Farmers' Market","website":"http://www.plainfield-in.com/farmers-market.html","facebook":"https://www.facebook.com/PlainfieldChamberFarmersMarket","twitter":"https://twitter.com/","street":"105 S. East Street","city":"Plainfield ","state":"in","zip":"46158","x":"-86.4005705","y":"39.7028141","tags":"baked goods cheese crafts flowers eggs herbs vegetables honey jams maple meat plants prepared-foods soap coffee fruits pet food"},{"type":"market","name":"Plymouth Farmers Market","website":"http://www.plymouthfarmersmarket.com","facebook":"https://www.facebook.com/pages/Plymouth-Farmers-Market-Inc/136145306459265","twitter":"","street":"Garro St.","city":"Plymouth","state":"in","zip":"46563","x":"-86.307641","y":"41.340650","tags":"organic baked goods cheese flowers eggs herbs vegetables honey jams maple meat plants poultry soap trees fruits"},{"type":"market","name":"Portage Community Farmer's Market","website":"http://www.ci.portage.in.us/parks","facebook":"","twitter":"","street":"6300 South Founders Square Park","city":"Portage","state":"in","zip":"46368","x":"-87.1713960","y":"41.5775797","tags":"organic baked goods crafts flowers herbs vegetables honey jams plants prepared-foods soap fruits"},{"type":"market","name":"Portland Farmers Market I","website":"","facebook":"","twitter":"","street":"Courthouse Square","city":"Portland","state":"in","zip":"47371","x":"-84.976","y":"40.4225","tags":""},{"type":"market","name":"Portland Farmers Market II","website":"","facebook":"","twitter":"","street":"Water & Ship Streets","city":"Portland","state":"in","zip":"47371","x":"-84.9805","y":"40.4324","tags":""},{"type":"market","name":"Princeton Farmers Market","website":"","facebook":"","twitter":"","street":"Corner of Brumfield and Embree","city":"Princeton","state":"in","zip":"47670","x":"-87.5757","y":"38.3589","tags":""},{"type":"market","name":"Purple Porch Co-op","website":"http://www.purpleporchcoop.com","facebook":"https://www.facebook.com/PurplePorchCoop","twitter":"https://twitter.com/purpleporchcoop","street":"123 N. Hill St.","city":"South Bend","state":"in","zip":"46617","x":"-86.2428794","y":"41.6767599","tags":"organic baked goods cheese flowers eggs herbs vegetables honey jams maple meat plants poultry prepared-foods soap fruits"},{"type":"market","name":"Putnam County Farmers Market","website":"","facebook":"","twitter":"","street":"Robe Ann Park Shelter #2","city":"Greencastle","state":"in","zip":"46135","x":"-86.8664","y":"39.6473","tags":""},{"type":"market","name":"Remington Farmers Market","website":"http://www.remingtonindiana.com","facebook":"","twitter":"","street":"36 S. Ohio St.","city":"Remington","state":"in","zip":"47977","x":"-87.1514","y":"40.76","tags":"baked goods crafts vegetables plants"},{"type":"market","name":"Rensselaer Farmers Market","website":"","facebook":"https://www.facebook.com/pages/Rensselaer-Farmers-Market/120400308005878","twitter":"","street":"110 W Harrison St.","city":"Rensselaer","state":"in","zip":"47978","x":"-87.1501069","y":"40.9356403","tags":"baked goods crafts eggs herbs vegetables meat plants prepared-foods fruits"},{"type":"market","name":"Richmond Farmers Market - Summer Season (May-October)","website":"http://www.richmondindiana.gov/Our_Government/Departments/Parks_and_Recreation/Programs_and_Services/Farmers_Market.htm","facebook":"https://www.facebook.com/RichmondFarmersMarketIN/","twitter":"","street":"47 N 6th St","city":"Richmond","state":"in","zip":"47374","x":"-84.893388","y":"39.829938","tags":"baked goods cheese crafts flowers eggs herbs vegetables honey jams maple meat plants poultry prepared-foods soap coffee fruits pet food"},{"type":"market","name":"Rising Sun Farmers Market","website":"","facebook":"","twitter":"","street":"Main & Walnut Streets","city":"Rising Sun","state":"in","zip":"47040","x":"-84.854","y":"38.9491","tags":""},{"type":"market","name":"Riverside Market","website":"","facebook":"https://www.facebook.com/pages/Riverside-Market/237954816242?id=237954816242&sk=info","twitter":"","street":"234 East 2nd Street","city":"Michigan City","state":"in","zip":"46360","x":"-86.9012","y":"41.7214","tags":""},{"type":"market","name":"Roanoke Farmer's Market","website":"http://discoverroanoke.org/events/farmers-market","facebook":"https://www.facebook.com/RoanokeFarmersMarket/","twitter":"","street":"Main Street","city":"Roanoke","state":"in","zip":"46783","x":"-85.373322","y":"40.961979","tags":"baked goods crafts flowers vegetables meat plants prepared-foods soap coffee"},{"type":"market","name":"Rockville Produce Auction LLC","website":"","facebook":"","twitter":"","street":"3300 North 400E","city":"Rockville 47872","state":"in","zip":"","x":"-87.1625","y":"39.8155","tags":""},{"type":"market","name":"Rome City Farmers and Artisans Market","website":"","facebook":"","twitter":"","street":"Town Hall, 402 Kelly St. ","city":"Rome City","state":"in","zip":"46784","x":"-85.3770500","y":"41.4926580","tags":"baked goods cheese crafts flowers eggs herbs vegetables honey jams plants soap fruits"},{"type":"market","name":"Sagamore West Farmers Market","website":"http://www.westlafayette.in.gov/farmersmarket","facebook":"","twitter":"","street":"Cumberland Park","city":"West Lafayette","state":"in","zip":"47906","x":"-86.9136","y":"40.4445","tags":"baked goods cheese crafts flowers herbs vegetables honey jams maple meat plants prepared-foods soap"},{"type":"market","name":"Salomon Farm Park Farmers' Market ","website":"http://www.fortwayneparks.org","facebook":"https://www.facebook.com/Salomon-Farm-Park-134187289927760/","twitter":"","street":"817 West Dupont Road","city":"Fort Wayne","state":"in","zip":"46825","x":"-85.152678","y":"41.175641","tags":"organic baked goods crafts flowers eggs herbs vegetables honey jams maple poultry coffee fruits"},{"type":"market","name":"Saxony Market ","website":"http://www.saxony-indiana.com/market.html","facebook":"","twitter":"","street":"13578 E. 131st Street","city":"Fishers","state":"in","zip":"46037","x":"-85.9221","y":"39.9821","tags":""},{"type":"market","name":"Scott County Farmers Market","website":"","facebook":"Scott County Farmers Market","twitter":"","street":"90 N Main St","city":"Scottsburg","state":"in","zip":"47170","x":"-85.7713180","y":"38.6865700","tags":"baked goods crafts flowers eggs herbs vegetables honey jams plants soap trees fruits pet food"},{"type":"market","name":"Seymour Area Farmers Market","website":"","facebook":"https://www.facebook.com/Seymour-Area-Farmers-Market-220617751321790/","twitter":"@SeymourFarmMkt","street":"Walnut St and Saint Louis Ave.","city":"Seymour","state":"in","zip":"47274","x":"-85.8914498","y":"38.9578388","tags":"organic baked goods cheese crafts flowers eggs herbs vegetables honey jams meat nuts plants poultry prepared-foods soap coffee fruits grains wild"},{"type":"market","name":"Shelby County Farmers Market","website":"http://www.mainstreetshelbyville.org/farmers-market/","facebook":"https://www.facebook.com/Mainstreet-Shelbyville-Inc-548796655151518/","twitter":"","street":"Public Square ","city":"Shelbyville","state":"in","zip":"46176","x":"-85.7771313","y":"39.5244455","tags":"baked goods cheese crafts flowers eggs vegetables honey jams maple meat nuts poultry soap trees fruits"},{"type":"market","name":"South Bend Farmers Market","website":"http://www.southbendfarmersmarket.com/","facebook":"https://www.facebook.com/SouthBendFarmersMarket","twitter":"","street":"1105 Northside Boulevard","city":"South Bend","state":"in","zip":"46615","x":"-86.2342181","y":"41.6658481","tags":"baked goods cheese crafts flowers eggs seafood herbs vegetables honey jams maple meat nuts plants poultry prepared-foods soap trees coffee beans fruits grains juices mushrooms pet food wild"},{"type":"market","name":"South Milford Farmers Market","website":"","facebook":"","twitter":"","street":"7850 W. 750 S.","city":"South Milford","state":"in","zip":"46786","x":"-85.272441","y":"41.533800","tags":"baked goods crafts eggs vegetables jams plants fruits"},{"type":"market","name":"South Side Farmers Market","website":"http://www.southsidefarmersmarket.com","facebook":"","twitter":"","street":"3300 Warsaw St.","city":"Fort Wayne ","state":"in","zip":"46806","x":"-85.1297412","y":"41.0548148","tags":"baked goods cheese flowers eggs herbs vegetables honey jams plants poultry prepared-foods soap coffee fruits"},{"type":"market","name":"Southport Farmers Market","website":"https://www.southsidefarmermarket.com/","facebook":"https://www.facebook.com/SouthportFarmersMarket","twitter":"","street":"2810 Southport Rd","city":"Indianapolis","state":"in","zip":"46227","x":"-86.1152396","y":"39.6653377","tags":"baked goods cheese crafts herbs vegetables honey jams maple meat plants poultry soap coffee beans fruits grains mushrooms pet food wild"},{"type":"market","name":"Speedway Farmers Market","website":"","facebook":"Speedway Farmers Market","twitter":"","street":"6118 Crawfordsville Rd.","city":"Speedway","state":"in","zip":"46224","x":"-86.2670429","y":"39.8008667","tags":"cheese crafts flowers eggs vegetables honey jams meat poultry prepared-foods wine fruits juices mushrooms pet food wild"},{"type":"market","name":"St. Mary's Market Days","website":"http://www.stmarys.org","facebook":"","twitter":"","street":"3700 Washington Avenue","city":"Evansville","state":"in","zip":"47750","x":"-87.50396","y":"37.96362","tags":"organic baked goods cheese crafts flowers herbs vegetables honey maple plants soap"},{"type":"market","name":"St. Stanislaus of Michigan City Farmer's Market","website":"","facebook":"https://m.facebook.com/ststansfarmersmarket/","twitter":"","street":"109 Ann Street","city":"Michigan City","state":"in","zip":"46360","x":"-86.896989","y":"41.707849","tags":"organic baked goods cheese crafts flowers eggs herbs vegetables honey jams maple meat plants poultry prepared-foods soap trees fruits mushrooms pet food wild"},{"type":"market","name":"Stadium Village Farmers Market ","website":"","facebook":"https://www.facebook.com/StadiumVillageMarket","twitter":"","street":"801 South Meridian Street","city":"Indianapolis","state":"in","zip":"46225","x":"-86.1589","y":"39.7564","tags":""},{"type":"market","name":"Statehouse Market","website":"http://www.statehousemarket.com/","facebook":"https://www.facebook.com/StatehouseMarket","twitter":"https://twitter.com/statehousemkt/","street":"Robert D. Orr Plaza","city":"Indianapolis,","state":"in","zip":"46204","x":"-86.1653813","y":"39.7686865","tags":"organic baked goods cheese flowers eggs herbs vegetables honey jams poultry prepared-foods fruits"},{"type":"market","name":"Steuben County Farmers Market","website":"https://www.localharvest.org/steuben-county-farmers-market-M23990","facebook":"https://www.facebook.com/pages/Steuben-County-Farmers-Market/271725986257213","twitter":"","street":"317 S Wayne St ","city":"Angola","state":"in","zip":"46703","x":"-84.9984478","y":"41.6319660","tags":"baked goods crafts flowers eggs herbs vegetables honey jams maple plants soap trees coffee fruits"},{"type":"market","name":"Sweeney's Sweet Corn and Farm Market ","website":"http://www.sweeneysweetcorn.com/","facebook":"https://www.facebook.com/SweeneysSweetCorn","twitter":"","street":"887 E. Schoolhouse Rd","city":"Kendallville","state":"in","zip":"46755","x":"-85.2545","y":"41.4825","tags":""},{"type":"market","name":"Switzerland County Farmers and Artisans Marketplace ","website":"","facebook":"https://www.facebook.com/pages/Switzerland-County-Farmers-and-Artisans-Marketplace/649252595102544","twitter":"","street":"7110 Innovation Drive","city":"Florence ","state":"in","zip":"47020","x":"-84.958918","y":"38.786625","tags":"baked goods crafts flowers herbs vegetables honey jams plants prepared-foods soap trees fruits"},{"type":"market","name":"Switzerland County Farmers Market","website":"","facebook":"","twitter":"","street":"Courthouse Square on Main","city":"Vevay","state":"in","zip":"47043","x":"-84.8522","y":"39.0906","tags":""},{"type":"market","name":"Syracuse Artisans and Farmers Market","website":"http://www.syracusefarmersmarket.org","facebook":"www.facebook.com/syracusefarmersmarket","twitter":"","street":"303 W. Henry St.","city":"Syracuse","state":"in","zip":"46567","x":"-85.7502941","y":"41.4248366","tags":"organic baked goods crafts flowers eggs herbs vegetables honey jams meat plants prepared-foods soap coffee fruits"},{"type":"market","name":"Tell City Farmers Market I","website":"","facebook":"","twitter":"","street":"Twilight Towers","city":"Tell City","state":"in","zip":"","x":"-86.7376","y":"37.9141","tags":""},{"type":"market","name":"The Convivium","website":"","facebook":"https://www.facebook.com/pages/The-Convivium/361569286162","twitter":"","street":"State Rd 1","city":"Leo","state":"in","zip":"46765","x":"-85.007583","y":"41.229217","tags":"baked goods flowers herbs vegetables honey maple nursery soap"},{"type":"market","name":"The Green Market at Walhill Farm","website":"http://www.walhillfarm.com","facebook":"https://www.facebook.com/WalhillFarm","twitter":"","street":"857 Six Pine Ranch Road","city":"Batesville","state":"in","zip":"47006","x":"-85.1863","y":"39.3085","tags":""},{"type":"market","name":"The La Porte Farmers Market","website":"http://www.cityoflaporte.com","facebook":"https://www.facebook.com/groups/126258084058411/","twitter":"","street":"Lincolnway and Monroe Street, Downtown LaPorte","city":"LaPorte","state":"in","zip":"46350","x":"-86.720388","y":"41.611744","tags":"organic baked goods cheese crafts flowers eggs herbs vegetables honey jams maple nuts plants prepared-foods soap trees beans fruits juices mushrooms"},{"type":"market","name":"The Original Farmers Market","website":"","facebook":"","twitter":"","street":"Parking lot of UAW Local 662 109 bypass","city":"Anderson","state":"in","zip":"46012","x":"-85.6333","y":"40.0906","tags":""},{"type":"market","name":"Tipton County Farmer's Market","website":"","facebook":"","twitter":"","street":"135 E. Jefferson Street","city":"Tipton","state":"in","zip":"46072","x":"-86.0401","y":"40.282","tags":""},{"type":"market","name":"Town of English Farmers Market","website":"","facebook":"","twitter":"","street":"Town  Hall  Indiana Ave","city":"English","state":"in","zip":"47118","x":"-86.44318","y":"38.35216","tags":"baked goods eggs herbs vegetables honey jams plants soap"},{"type":"market","name":"Tuesday Market at Bloomington Community Farmers Market","website":"http://bloomington.in.gov/farmersmarket","facebook":"https://www.facebook.com/pages/Bloomington-Community-Farmers-Market/130635957114110","twitter":"","street":"6th and Madison Streets ","city":"Bloomington","state":"in","zip":"47404","x":"-86.537883","y":"39.167687","tags":"organic baked goods cheese crafts flowers eggs seafood herbs vegetables honey jams maple meat nuts plants poultry prepared-foods soap trees coffee beans fruits grains pet food wild"},{"type":"market","name":"Urban Garden Farmers Market","website":"http://urbangardenmarket.blogspot.com","facebook":"https://www.facebook.com/urbangardenfarmersmarket","twitter":"","street":"1005-1006 Portage Ave","city":"South Bend","state":"in","zip":"46616","x":"-86.2627010","y":"41.6881730","tags":"baked goods cheese crafts flowers eggs herbs vegetables honey jams nuts plants prepared-foods soap coffee beans fruits pet food"},{"type":"market","name":"Valparaiso Market","website":"http://valparaisoevents.com/valparaiso-market/","facebook":"https://www.facebook.com/ValparaisoMarket/","twitter":"","street":"68 Lafayette Street","city":"Valparaiso ","state":"in","zip":"46383","x":"-87.062272","y":"41.467171","tags":"baked goods cheese crafts flowers eggs seafood herbs vegetables honey jams maple meat nuts plants prepared-foods soap trees coffee fruits grains mushrooms pet food"},{"type":"market","name":"Village Market Cooperative","website":"","facebook":"","twitter":"","street":"106 N MARKET STREET (BEHIND THE PUBLIC LIBRARY)","city":"Rockville","state":"in","zip":"","x":"-87.2295","y":"39.7632","tags":""},{"type":"market","name":"Vincennes Historic Farmers Market","website":"http://www.vincennes.org","facebook":"Vincennes Historic Farmers Market","twitter":"","street":"102 N. Second St.","city":"Vincennes","state":"in","zip":"47591","x":"-87.531359","y":"38.680610","tags":"baked goods cheese crafts flowers eggs seafood herbs vegetables honey jams maple meat plants prepared-foods soap trees coffee fruits grains mushrooms wild"},{"type":"market","name":"Wabash County Farmers Market","website":"http://www.wabashmarketplace.org/wabash-farmers-market.html","facebook":"https://www.facebook.com/Wabash-Farmers-Market-195947103767864/","twitter":"","street":"Cass Street and Market Stret","city":"Wabash","state":"in","zip":"46992","x":"-85.824321","y":"40.796419","tags":"baked goods crafts vegetables honey jams meat plants prepared-foods soap trees coffee fruits pet food"},{"type":"market","name":"Wadesville Farmers Market","website":"","facebook":"https://www.facebook.com/groups/221826011178150/","twitter":"","street":"7238 Hwy 66","city":"Wadesville","state":"in","zip":"47638","x":"-87.7880512","y":"38.1048706","tags":"baked goods crafts eggs herbs vegetables honey jams plants soap fruits"},{"type":"market","name":"Warrick County Farmers' Market","website":"http://www.warrickcountyfarmersmarket.com/","facebook":"https://www.facebook.com/groups/130603427456/","twitter":"","street":"2nd Street and Main Street","city":"Boonville","state":"in","zip":"47601","x":"-87.2755159","y":"38.0500188","tags":"baked goods crafts vegetables honey meat fruits"},{"type":"market","name":"Washington County Farmers Market","website":"","facebook":"","twitter":"","street":"118 N. Fair St.","city":"Salem","state":"in","zip":"47167","x":"-86.0895899","y":"38.6057487","tags":"baked goods crafts flowers eggs herbs vegetables honey jams meat plants fruits mushrooms"},{"type":"market","name":"West Lafayette Farmers Market","website":"http://wlfarmersmarket.com","facebook":"www.facebook.com/westlafayettefarmersmarket","twitter":"@WLFarmersMkt","street":"3065 N Salisbury St","city":"West Lafayette","state":"in","zip":"47906","x":"-86.915836","y":"40.461469","tags":"baked goods cheese crafts flowers eggs herbs vegetables honey jams maple meat plants prepared-foods soap fruits"},{"type":"market","name":"Westfield Farmers Market","website":"http://www.dwna.org","facebook":"","twitter":"","street":"211 N Union Street","city":"Westfield","state":"in","zip":"46074","x":"-86.1281489","y":"40.0442490","tags":"baked goods crafts flowers eggs vegetables honey jams meat plants prepared-foods"},{"type":"market","name":"Whitestown Farmers Market","website":"","facebook":"https://www.facebook.com/WhitestownFarmersMarket","twitter":"","street":"6210 Veterans Dr","city":"Whitestown","state":"in","zip":"46075","x":"-86.337791","y":"39.950362","tags":"baked goods cheese crafts flowers eggs herbs vegetables honey jams maple meat nuts plants poultry prepared-foods soap wine coffee fruits juices mushrooms pet food"},{"type":"market","name":"Winchester Farmers' Market","website":"https://winchesterinfarmersmarket.blogspot.com/","facebook":"WinchesterMainStreet","twitter":"","street":"Meridian & Washington St.","city":"Winchester ","state":"in","zip":"47394","x":"-84.977051","y":"40.1721","tags":"organic baked goods crafts flowers eggs herbs vegetables honey nuts plants prepared-foods soap trees fruits juices"},{"type":"market","name":"Winfield Farmers Market","website":"http://winfieldtwp.com/?page_id=320","facebook":"https://www.facebook.com/WinfieldFarmersMarket/","twitter":"","street":"10645 Randolph St.","city":"Winfield/Crown Point","state":"in","zip":"46307","x":"-87.382092","y":"41.4165651","tags":"baked goods eggs vegetables honey jams prepared-foods soap fruits pet food"},{"type":"market","name":"Woodlawn Nature Center Harvest Market","website":"","facebook":"https://www.facebook.com/pages/Woodlawn-Nature-Center-Harvest-Market/204114226276663","twitter":"","street":"604 Woodlawn Ave","city":"Elkhart","state":"in","zip":"46514","x":"-85.9675309","y":"41.7090130","tags":"baked goods crafts herbs vegetables honey jams nuts plants trees fruits"},{"type":"market","name":"YLNI Barr Street Market","website":"http://www.ylni.org/market","facebook":"https://www.facebook.com/YLNIFarmersMarket","twitter":"https://twitter.com/YLNIFarmersMarket","street":"302 E. Berry Street","city":"Fort Wayne","state":"in","zip":"46802","x":"-85.136171","y":"41.079151","tags":"organic baked goods cheese crafts flowers eggs seafood herbs vegetables honey jams maple meat nuts plants prepared-foods soap coffee beans fruits juices mushrooms pet food"},{"type":"market","name":"Yorktown Farmers Marketplace","website":"","facebook":"https://www.facebook.com/yorktownfarmersmarketplace","twitter":"","street":"1901 South Tiger Drive","city":"Yorktown","state":"in","zip":"47396","x":"-85.495124","y":"40.177147","tags":"baked goods crafts flowers eggs vegetables honey jams meat nuts plants prepared-foods soap coffee fruits juices mushrooms"},{"type":"market","name":"Zionsville Farmers Market","website":"http://www.zionsvillefarmersmarket.org","facebook":"","twitter":"","street":"Hawthorne & Main Street","city":"Zionsville","state":"in","zip":"46077","x":"-86.2612","y":"39.9491","tags":""}]
