[{"type":"farm","street":"351 Pioneer Lane","city":"Spencer","state":"tn","zip":"38585","x":"-85.5082440","y":"35.6268090","name":"Apples and More Baker Mountain Farm","website":"www.BakerMountainFarm.com","facebook":"www.facebook.com/BakerMountainFarm","twitter":"","tags":"baked-goods canned preserved crafts woodworking eggs fresh-fruits honey juices ciders maple-products prepared-foods"},{"type":"farm","street":"1442 Globe Road","city":"Lewisburg","state":"tn","zip":"37091","x":"-86.8713695","y":"35.4242822","name":"Bee Sweet Berry Farm","website":"www.beesweetberryfarm.com","facebook":"https://www.facebook.com/beesweetberryfarm","twitter":"","tags":""},{"type":"farm","street":"5374 Granville Highway","city":"Granville","state":"tn","zip":"38564","x":"-85.756980","y":"36.275492","name":"Bell Point Farms","website":"http://bellpointfarms.weebly.com","facebook":"https://www.facebook.com/pages/Bell-Point-Farms/430747496942129","twitter":"","tags":"canned preserved herbs fresh-vegetables"},{"type":"farm","street":"78 Cemetery Road","city":"Lawrenceburg","state":"tn","zip":"38464","x":"-87.4014521","y":"35.4021592","name":"Blueberries on the Buffalo Farm","website":"http://www.localharvest.org/blueberries-on-the-buffalo-farm-M11313","facebook":"","twitter":"","tags":"fresh-fruits"},{"type":"farm","street":"850 Hide A Way Road","city":"Dandridge","state":"tn","zip":"37725","x":"-83.538797","y":"35.999641","name":"Brewers Mushrooms","website":"www.brewersmushrooms.com","facebook":"https://www.facebook.com/brewersmushrooms","twitter":"","tags":"mushrooms"},{"type":"farm","street":"8411 Thompson School Rd.","city":"Corryton","state":"tn","zip":"37721","x":"-83.8779050","y":"36.1429509","name":"Clear Springs Farm","website":"Clearspringsfarm.org","facebook":"https://www.facebook.com/clearspringsfarm","twitter":"","tags":""},{"type":"farm","street":"529 Harmony Road","city":"Jonesborough","state":"tn","zip":"37659","x":"-82.5698770","y":"36.3583110","name":"Clover Creek Farm","website":"clovercreekhairsheep.com","facebook":"","twitter":"","tags":"eggs poultry fowl"},{"type":"farm","street":"3509 Shady Grove Rd.","city":"Clarksville","state":"tn","zip":"37043","x":"-87.200488","y":"36.476291","name":"Cook's Ranch Beef","website":"http://www.cooksranchbeef.com/","facebook":"","twitter":"","tags":"red-meat non-poultry-meat"},{"type":"farm","street":"351 Kearney Road","city":"New Market","state":"tn","zip":"37820","x":"-83.535384","y":"36.067779","name":"Country Lane Farm","website":"","facebook":"","twitter":"","tags":"eggs herbs fresh-vegetables honey"},{"type":"farm","street":"111 county road 663","city":"Athens","state":"tn","zip":"37303","x":"-84.578432","y":"35.408838","name":"Country Meadows Farm","website":"","facebook":"","twitter":"","tags":""},{"type":"farm","street":"7865 Jones Bend Rd","city":"Cottage Grove ","state":"tn","zip":"38224","x":"-88.4500470","y":"36.3407380","name":"Crum Farms Market","website":"www.crumfarms.com","facebook":"","twitter":"","tags":"baked-goods canned preserved coffee tea dairy products dry beans eggs herbs fresh-fruits fresh-vegetables grains flour honey juices ciders maple-products poultry fowl red-meat non-poultry-meat soap body-care"},{"type":"farm","street":"678 Arch Cope Road","city":"Morrison","state":"tn","zip":"37357","x":"-85.856623","y":"35.642861","name":"Farmer Brown's Hydroponics","website":"www.mcminnville.locallygrown.net","facebook":"https://www.facebook.com/FarmerBrowns","twitter":"","tags":"baked-goods canned preserved prepared-foods"},{"type":"farm","street":"930 County Line Road","city":"Alexandria","state":"tn","zip":"37012","x":"-86.0661790","y":"36.0742679","name":"Folsom Farms","website":"folsomfarms.com","facebook":"","twitter":"","tags":"crafts woodworking eggs"},{"type":"farm","street":"7011 River Road Pike","city":"nashville","state":"tn","zip":"","x":"-86.9367487","y":"36.1406280","name":"Green Door Gourmet","website":"http://www.greendoorgourmet.com/","facebook":"https://www.facebook.com/GreenDoorGourmet","twitter":"","tags":""},{"type":"farm","street":"1810 Farmington Drive","city":"Franklin","state":"tn","zip":"37069","x":"-86.8759640","y":"35.9842070","name":"Herron Family Pastures","website":"http://herronfamilypastures.com","facebook":"","twitter":"Twitter.com/herronpastures ","tags":"eggs poultry fowl"},{"type":"farm","street":"7236 Lebanon Road","city":"Mount Juliet","state":"tn","zip":"37122","x":"-86.4456030","y":"36.2262720","name":"Hickory Bluff Alpaca Farms","website":"www.hickorybluffalpacas@comcast.net","facebook":"https://www.facebook.com/pages/Hickory-Bluff-Alpaca-Store/113452238708465","twitter":"","tags":"crafts woodworking soap body-care"},{"type":"farm","street":"2204 Spring Creek Road","city":"Cookeville","state":"tn","zip":"38501","x":"-85.511189","y":"36.321966","name":"Hidden Springs Orchard","website":"http://www.hiddenspringsorchard.com/Hidden_Springs_Orchard/Home.html","facebook":"","twitter":"","tags":"fresh-fruits"},{"type":"farm","street":"4333 Kingston Hwy","city":"Loudon","state":"tn","zip":"37774","x":"-84.381906","y":"35.838957","name":"Honeys Blueberry Farm","website":"","facebook":"","twitter":"","tags":"fresh-fruits honey"},{"type":"farm","street":"1219 Saint Michael Rd","city":"Southside","state":"tn","zip":"37171","x":"-87.320000","y":"36.317353","name":"J&J Century Farm","website":"jandjcenturyfarm.com","facebook":"https://www.facebook.com/pages/JJ-Century-Farm/119301329270","twitter":"","tags":"eggs fish seafood herbs fresh-fruits fresh-vegetables prepared-foods"},{"type":"farm","street":"10499 Lakeshore Drive","city":"Rutledge ","state":"tn","zip":"","x":"-83.4406510","y":"36.2389460","name":"John Mixon Farms","website":"","facebook":"https://www.facebook.com/JohnMixonFarms","twitter":"","tags":""},{"type":"farm","street":"236 Charlie Carsom Road","city":"Jonesborough","state":"tn","zip":"37659","x":"-82.506812","y":"36.188927","name":"Larry Thompson Farm","website":"","facebook":"","twitter":"","tags":"fresh-vegetables"},{"type":"farm","street":"3500 Gainesboro Grade","city":"Cookeville","state":"tn","zip":"38501","x":"-85.550841","y":"36.204314","name":"Little Creek Produce","website":"www.littlecreekproduce.com","facebook":"little creek produce","twitter":"","tags":"bedding plants eggs fresh-fruits fresh-vegetables honey"},{"type":"farm","street":"5318 Hickory Hollow Parkway","city":"Antioch","state":"tn","zip":"37013","x":"-86.653208","y":"36.046995","name":"Local Living Farm","website":"www.locallivingfarm.com","facebook":"facebook.com/locallivingfarm","twitter":"@LocalLivingFarm","tags":"bedding plants canned preserved herbs fresh-fruits fresh-vegetables"},{"type":"farm","street":"8605 Kerrville-Rosemark","city":"Millington","state":"tn","zip":"38053","x":"-89.7757990","y":"35.3622159","name":"Rosemark Vinyards","website":"","facebook":"","twitter":"","tags":""},{"type":"farm","street":"620 Towee Falls Road","city":"Tellico Plains","state":"tn","zip":"37385","x":"-84.390989","y":"35.272781","name":"Santa's Berry Farm","website":"","facebook":"https://www.facebook.com/grampysanta?ref=hl","twitter":"","tags":"baked-goods canned preserved coffee tea crafts woodworking eggs fresh-vegetables honey"},{"type":"farm","street":"154 Schrock Lane","city":"Monterey","state":"tn","zip":"38574","x":"-85.130135","y":"36.200363","name":"Schrock Honeyacres","website":"","facebook":"","twitter":"","tags":"honey"},{"type":"farm","street":"3318 Beech Bluff Rd","city":"Jackson","state":"tn","zip":"38301","x":"-88.704793","y":"35.612607","name":"Scott Apiaries","website":"","facebook":"","twitter":"","tags":""},{"type":"farm","street":"4575 Goodman Rd","city":"Adams","state":"tn","zip":"37010","x":"-87.0901020","y":"36.5341940","name":"Sunbright Farm","website":"","facebook":"","twitter":"","tags":""},{"type":"farm","street":"6900 Blackberry Lane","city":"Cross Plains","state":"tn","zip":"37049","x":"-86.7505520","y":"36.5423980","name":"The Orchard","website":"the0rchard13@yahoo.com","facebook":"none","twitter":"","tags":"fresh-fruits fresh-vegetables"},{"type":"farm","street":"100 John Deere Dr.","city":"Spring City","state":"tn","zip":"37381","x":"-84.865813","y":"35.665743","name":"Thedfords Blueberry Patch","website":"www.facebook.com/pages/Thedfords-Blueberries/215898395115204","facebook":"","twitter":"","tags":""},{"type":"farm","street":"5985 Fly Hollow Road","city":"Santa Fe","state":"tn","zip":"38482","x":"-87.180602","y":"35.813344","name":"Trace View Farm","website":"","facebook":"","twitter":"","tags":"fresh-fruits fresh-vegetables"},{"type":"farm","street":"840 Murrell Rd.","city":"Signal Mountain","state":"tn","zip":"37377","x":"-85.326187","y":"35.150499","name":"Walden Farm","website":"","facebook":"www.facebook.com/waldenorganicfarm","twitter":"","tags":"fresh-fruits fresh-vegetables nursery-stock"},{"type":"farm","street":"","city":"Sweetwater ","state":"tn","zip":"","x":"-84.347185","y":"35.588133","name":"WEE","website":"https://sites.google.com/site/weeintn/","facebook":"https://www.facebook.com/WEEinTN","twitter":"","tags":"baked-goods canned preserved crafts woodworking eggs herbs fresh-fruits fresh-vegetables prepared-foods"},{"type":"farm","street":"4452 Kinney's School Road","city":"Cedar Hill","state":"tn","zip":"37032","x":"-86.938033","y":"36.527640","name":"Woodall Farm Strawberries","website":"Picktnproducts.com","facebook":"https://www.facebook.com/Woodallfarm","twitter":"","tags":""},{"type":"market","name":"12 South Farmers Market","website":"http://www.12southfarmersmarket.com","facebook":"12_South_Farmers_Market","twitter":"@12southfrmsmkt","street":"3000 Granny White Pike","city":"Nashville","state":"tn","zip":"37204","x":"-86.790709","y":"36.118370","tags":"organic baked goods cheese flowers eggs herbs vegetables honey jams maple meat poultry prepared-foods soap coffee fruits juices mushrooms pet food"},{"type":"market","name":"Agricenter International Farmer's Market","website":"http://www.agricenter.org/farmersmarket/","facebook":"https://www.facebook.com/farmersmarketmemphis/","twitter":"https://twitter.com/Agricenter_Intl","street":"7777 Walnut Grove Rd","city":"Memphis","state":"tn","zip":"38120","x":"-89.801733","y":"35.127452","tags":"organic baked goods crafts flowers eggs seafood herbs vegetables honey jams meat nuts poultry prepared-foods soap coffee fruits juices"},{"type":"market","name":"All Saints' Farmers Market","website":"","facebook":"https://www.facebook.com/allsaintsfarmersmarket","twitter":"","street":"1508 S. White Station","city":"Memphis","state":"tn","zip":"38117","x":"-89.890478","y":"35.090458","tags":"baked goods crafts eggs herbs vegetables honey jams plants beans fruits"},{"type":"market","name":"Amqui Station Farmers Market","website":"https://amquistation.org/farmers-market/","facebook":"","twitter":"","street":"303 Madison Street","city":"Madison","state":"tn","zip":"37115","x":"-86.717491","y":"36.257792","tags":"baked goods cheese crafts eggs vegetables honey jams meat nuts poultry prepared-foods soap fruits mushrooms"},{"type":"market","name":"Appalachian (Newport) Farmers Market, Cocke County TN","website":"","facebook":"Newport Farmers Market or Appalachian Farmers Market","twitter":"","street":"115 Mulberry Street","city":"Newport","state":"tn","zip":"37821","x":"-83.194852","y":"35.961750","tags":"organic baked goods eggs herbs vegetables jams plants fruits grains"},{"type":"market","name":"Appalachian Farmers' Market","website":"http://www.appfarmersmarket.com","facebook":"","twitter":"","street":"Intersection of Fair Street and Lakeview Drive","city":"Gray","state":"tn","zip":"37615","x":"-82.4819","y":"36.4183","tags":"baked goods cheese crafts flowers herbs vegetables honey jams meat plants soap"},{"type":"market","name":"Athens Farmers Market at Market Park","website":"http://cityofathenstn.com/parks","facebook":"","twitter":"","street":"106 South Jackson Street","city":"Athens","state":"tn","zip":"37303","x":"-84.5918490","y":"35.4410460","tags":"organic baked goods crafts herbs vegetables honey meat soap coffee fruits"},{"type":"market","name":"Bartlett Station Farmers Market","website":"http://www.bartlettstationfarmersmarket.org","facebook":"https://www.facebook.com/bartlettmarket","twitter":"https://twitter.com/BartSt_FarmMrkt","street":"2629 Bartlett Blvd","city":"Bartlett","state":"tn","zip":"38134","x":"-89.872424","y":"35.197448","tags":"baked goods cheese crafts flowers eggs seafood herbs vegetables honey jams meat plants poultry prepared-foods soap coffee fruits"},{"type":"market","name":"Blountville Farmer's Market","website":"","facebook":"","twitter":"","street":"3258 Highway 126","city":"Blountville","state":"tn","zip":"37617","x":"-82.3201083333333","y":"36.5340472222222","tags":"baked goods crafts eggs herbs vegetables honey jams meat nursery trees"},{"type":"market","name":"Boone Street Market","website":"http://jonesborough.locallygrown.net","facebook":"facebook.com/Boone-Street-Market-738767102860278/","twitter":"@boonestmarket","street":"101 Boone Street","city":"Jonesborough","state":"tn","zip":"37659","x":"-82.4719790","y":"36.2952710","tags":"organic baked goods cheese eggs seafood herbs vegetables honey jams maple meat poultry prepared-foods wine coffee fruits grains juices mushrooms tofu"},{"type":"market","name":"Bradley County Farmers Market","website":"","facebook":"","twitter":"","street":"Church Street, S.E.","city":"Cleveland","state":"tn","zip":"37311","x":"-84.8756","y":"35.1583","tags":""},{"type":"market","name":"Brainerd Farmers Market","website":"","facebook":"www.facebook.com/BrainerdFarmersMarket","twitter":"","street":"20 Belvoir Ave.","city":"Chattanooga ","state":"tn","zip":"37411","x":"-85.239727","y":"35.018474","tags":"organic baked goods cheese crafts flowers eggs herbs vegetables honey jams meat nuts plants poultry prepared-foods soap trees coffee fruits juices mushrooms pet food wild"},{"type":"market","name":"Centerville Farmers Market","website":"","facebook":"","twitter":"","street":"Fish Camp Restaurant location","city":"Centerville","state":"tn","zip":"37033","x":"-87.4449","y":"35.7906","tags":""},{"type":"market","name":"Chattanooga Market","website":"http://chattanoogamarket.com","facebook":"https://www.facebook.com/chattamarket","twitter":"https://twitter.com/chattamarket","street":"1829 Carter St","city":"Chattanooga","state":"tn","zip":"37408","x":"-85.3173713","y":"35.0370066","tags":"organic baked goods cheese crafts flowers eggs seafood herbs vegetables honey jams maple meat nuts plants poultry prepared-foods soap trees wine coffee fruits juices mushrooms pet food wild"},{"type":"market","name":"Coffe County Farmers Market","website":"","facebook":"","twitter":"","street":"Fort Street behind Coffee Coun","city":"Manchester","state":"tn","zip":"37355","x":"-86.0862","y":"35.5027","tags":""},{"type":"market","name":"Collierville Farmers Market","website":"http://www.colliervillefarmersmarket.org","facebook":"https://www.facebook.com/pages/Collierville-Farmers-Market/113213532050578","twitter":"","street":"454 W. Poplar  Ave.","city":"Collierville","state":"tn","zip":"38017","x":"-89.677","y":"35.0461","tags":"organic baked goods crafts flowers eggs seafood herbs vegetables honey jams meat poultry prepared-foods soap fruits"},{"type":"market","name":"Columbia Farmers Fresh Market ","website":"http://columbiafarmersfreshmarket.com/","facebook":"https://www.facebook.com/Columbia-Farmers-Fresh-Market","twitter":"","street":"5th Street & Riverside Drive","city":"Columbia","state":"tn","zip":"38401","x":"-87.0304808","y":"35.6187845","tags":"baked goods crafts flowers eggs seafood herbs vegetables honey jams meat plants poultry prepared-foods soap coffee fruits mushrooms pet food"},{"type":"market","name":"Cookeville Farmers Market","website":"","facebook":"","twitter":"","street":"Downtown Center","city":"Cookeville","state":"tn","zip":"38503","x":"-85.5016","y":"36.1628","tags":""},{"type":"market","name":"Cooper Young Community Farmers Market","website":"http://cycfarmersmarket.org","facebook":"https://www.facebook.com/cycfarmersmarket","twitter":"@cycfarmersmkt","street":"1000 S Cooper St","city":"Memphis","state":"tn","zip":"38104","x":"-89.9906830","y":"35.1188424","tags":"organic baked goods cheese crafts flowers eggs herbs vegetables honey jams meat plants poultry prepared-foods soap coffee fruits juices mushrooms pet food wild"},{"type":"market","name":"Covington Court Square Farmers Market","website":"","facebook":"https://www.facebook.com/Covington-Court-Square-Farmers-Market-269754336789779/","twitter":"","street":"117 North Main Street","city":"Covington","state":"tn","zip":"38019","x":"-89.6462798","y":"35.5651114","tags":"baked goods eggs vegetables honey jams plants fruits"},{"type":"market","name":"Crockett Farmers Market at Maury City","website":"","facebook":"","twitter":"","street":"F.M. Old Elementary School","city":"Maury City","state":"tn","zip":"38050","x":"-89.2205","y":"35.8149","tags":""},{"type":"market","name":"Cumberland County Farmers Market","website":"","facebook":"","twitter":"","street":"Highway 70","city":"Crossville","state":"tn","zip":"38557","x":"-84.9026","y":"35.9677","tags":""},{"type":"market","name":"Dandridge Farmers Market","website":"http://www.mainstreetdandridge.com","facebook":"https://www.facebook.com/DandridgeFarmersMarket","twitter":"","street":"Gay Street and Meeting Street","city":"Dandridge","state":"tn","zip":"37725","x":"-83.416446","y":"36.016194","tags":"organic baked goods flowers eggs herbs vegetables honey jams meat plants soap fruits mushrooms"},{"type":"market","name":"Dayton Farmers Market","website":"","facebook":"","twitter":"","street":"Washington Street","city":"Dayton","state":"tn","zip":"37321","x":"-85.0132689","y":"35.4905050","tags":"vegetables fruits"},{"type":"market","name":"DeKalb Farmers Market","website":"http://dekalbcofarmersmarket.com","facebook":"https://www.facebook.com/dekalbcofarmersmarket","twitter":"","street":"205 E Bryant St","city":"Smithville ","state":"tn","zip":"37199","x":"-85.8122196","y":"35.9537391","tags":"baked goods crafts flowers eggs honey jams plants prepared-foods soap coffee fruits wild"},{"type":"market","name":"Depot Street Farmers Market","website":"http://www.depotstreetfarmersmarket.com","facebook":"https://www.facebook.com/depotstreetfarmersmarket/","twitter":"","street":"200 West Depot Street ","city":"Greeneville","state":"tn","zip":"37743","x":"-82.8328796","y":"36.1639669","tags":"baked goods cheese crafts flowers eggs herbs vegetables honey jams meat plants poultry prepared-foods soap trees coffee fruits wild"},{"type":"market","name":"Dickson County Farmers Market","website":"http://www.dicksoncountyfarmersmarket.com/","facebook":"https://www.facebook.com/dicksonfarmersmarket/","twitter":"","street":"284 Cowan Road ","city":"Dickson ","state":"tn","zip":"37055","x":"-87.387733","y":"36.062726","tags":"baked goods crafts flowers eggs herbs vegetables honey jams meat plants poultry soap fruits mushrooms"},{"type":"market","name":"Dixie Lee Farmers Market","website":"http://www.dixieleefarmersmarket.com/","facebook":"https://www.facebook.com/dixieleefarmersmarket","twitter":"","street":"12740 Kingston Pike","city":"Knoxville","state":"tn","zip":"37934","x":"-84.2094222222222","y":"35.8671361111111","tags":"organic baked goods cheese crafts flowers eggs herbs vegetables honey jams meat nuts plants poultry prepared-foods soap trees coffee beans fruits juices mushrooms pet food wild"},{"type":"market","name":"Dresden Farmers Market","website":"http://www.cityofdresden.net/","facebook":"https://www.facebook.com/DresdenFarmersMarket/#","twitter":"","street":"421 Linden St.","city":"Dresden ","state":"tn","zip":"38225","x":"-88.693465","y":"36.277008","tags":"organic baked goods cheese crafts flowers eggs seafood herbs vegetables honey jams maple meat nuts plants poultry prepared-foods soap trees coffee fruits mushrooms wild"},{"type":"market","name":"East Nashville Farmers Market ","website":"http://www.eastnashvillemarket.com","facebook":"https://www.facebook.com/eastnashvillefarmersmarket?fref=ts","twitter":"enfarmersmkt","street":"1500 Davidson Street","city":"Nashville","state":"tn","zip":"TN","x":"-86.7396677","y":"36.1641924","tags":"organic baked goods cheese flowers eggs vegetables honey jams maple plants poultry prepared-foods soap coffee fruits juices mushrooms pet food"},{"type":"market","name":"East Tennessee Regional Food Distribution","website":"","facebook":"","twitter":"","street":"1715 Garden Village Drive","city":"White Pine","state":"tn","zip":"37890","x":"-83.2927","y":"36.1314","tags":""},{"type":"market","name":"Eastside Sunday Market","website":"http://eastsidesundaymarket.org","facebook":"https://www.facebook.com/EastsideSundayMarket/","twitter":"","street":"2020 MLK Jr. Ave","city":"Knoxville","state":"tn","zip":"37915","x":"-83.900903","y":"35.976258","tags":"baked goods crafts flowers herbs vegetables honey meat plants poultry prepared-foods soap trees coffee fruits"},{"type":"market","name":"Erwin/Unicoi County Farmers Market","website":"","facebook":"","twitter":"","street":"Erwin Town Hall","city":"Erwin","state":"tn","zip":"37601","x":"-82.3984","y":"36.1465","tags":"baked goods crafts flowers herbs vegetables honey jams plants prepared-foods"},{"type":"market","name":"Farm Park Farmer's Market","website":"http://www.farmparkmarket.org","facebook":"https://www.facebook.com/FriendsOfTheFarmPark","twitter":"","street":"2660 Cross Country","city":"Germantown","state":"tn","zip":"38138","x":"-89.8030194","y":"35.0757814","tags":"organic baked goods crafts flowers eggs herbs vegetables honey jams meat poultry soap fruits pet food"},{"type":"market","name":"Farmers Market in the Grove","website":"","facebook":"","twitter":"","street":"College Grove Community Center Parking Lot","city":"College Grove","state":"tn","zip":"37406","x":"-86.6775","y":"35.7875","tags":""},{"type":"market","name":"Farmers' Market at the Garden","website":"http://www.memphisbotanicgarden.com","facebook":"https://www.facebook.com/memphisbotanicgarden","twitter":"https://twitter.com/memphisbotanic","street":"750 Cherry Road","city":"Memphis","state":"tn","zip":"38117","x":"-89.918062","y":"35.110209","tags":"baked goods crafts flowers eggs herbs vegetables honey jams meat plants poultry prepared-foods soap fruits grains"},{"type":"market","name":"Fayette County Farmers Market","website":"http://www.fayettecountychamber.com","facebook":"https://www.facebook.com/Fayette.County.Chamber.TN/","twitter":"","street":"50 TEAGUE STORE RD","city":"Somerville","state":"tn","zip":"38068","x":"-89.4157866","y":"35.2339840","tags":"flowers eggs herbs vegetables jams nuts plants trees beans fruits"},{"type":"market","name":"Forest Hills UMC Farmers Market ","website":"http://www.localharvest.org/forest-hills-umc-farmers-market-M38715","facebook":"","twitter":"","street":"1250 Old Hickory Boulevard","city":"Brentwood","state":"tn","zip":"37027","x":"-86.82","y":"36.0424","tags":""},{"type":"market","name":"Franklin Farmers Market","website":"http://Www.franklinfarmersmarket.com","facebook":"Franklin Farmers Market","twitter":"","street":"230 Franklin Road","city":"Franklin ","state":"tn","zip":"37064","x":"-86.858009","y":"35.931977","tags":"organic baked goods cheese crafts flowers eggs herbs vegetables honey jams maple meat nuts plants poultry prepared-foods soap trees coffee beans fruits grains juices mushrooms pet food tofu wild"},{"type":"market","name":"Gallatin Farmers Market ","website":"http://www.gallatintn.org/life-in-gallatin/farmers-market","facebook":"www.facebook.com/gallatinfarmersmarket/","twitter":"","street":"160 W Franklin St","city":"Gallatin","state":"tn","zip":"37066","x":"-86.448948","y":"36.388902","tags":"baked goods crafts eggs herbs vegetables honey jams meat plants poultry soap coffee fruits"},{"type":"market","name":"Gatlinburg Farmers Market","website":"http://gatlinburgfarmersmarket.com","facebook":"gatlinburgfarmersmarket","twitter":"","street":"849 Glades Road","city":"Gatlinburg","state":"tn","zip":"37738","x":"-83.450183","y":"35.748075","tags":"baked goods crafts flowers eggs herbs vegetables honey meat plants soap trees coffee fruits mushrooms wild"},{"type":"market","name":"Giles County Farmers Market","website":"http://www.gilescountychamber.com","facebook":"","twitter":"","street":"110 North Second Street","city":"Pulaski","state":"tn","zip":"38478","x":"-87.0319","y":"35.1992","tags":""},{"type":"market","name":"Goodlettsville Farmers Market","website":"http://www.imaginegoodlettsville.org","facebook":"Goodlettsville Farmers Market","twitter":"","street":"411 South Main Street","city":"Goodlettsville ","state":"tn","zip":"37072","x":"-86.7145470","y":"36.3171190","tags":"organic baked goods crafts flowers eggs vegetables honey jams plants soap fruits mushrooms"},{"type":"market","name":"Greeneville Farmers Market, Inc.","website":"http://www.greenevillefarmersmarket.com","facebook":"https://www.facebook.com/GreenevilleFarmersMarket/","twitter":"https://twitter.com/greenevillefarm","street":"123 Fair Grounds Rd.","city":"Greeneville","state":"tn","zip":"37745","x":"-82.783171","y":"36.181810","tags":"baked goods crafts flowers eggs herbs vegetables honey jams meat nuts plants poultry prepared-foods soap coffee fruits mushrooms pet food wild"},{"type":"market","name":"Grundy County/Tracy City Farmers Market","website":"","facebook":"Tracy-City-Farmers-Market","twitter":"","street":"14475 Hwy 41","city":"Tracy City","state":"tn","zip":"37387","x":"-85.743974","y":"35.258696","tags":"baked goods crafts eggs herbs vegetables honey jams meat prepared-foods soap fruits"},{"type":"market","name":"Hardin County Farmers Garden Trade Day","website":"http://www.hardincountyextension.utk.edu","facebook":"","twitter":"","street":"1019 Clifton Rd.","city":"Savannah","state":"tn","zip":"38372","x":"-88.2279","y":"35.2393","tags":""},{"type":"market","name":"Harriman Farmer's Market","website":"http://www.cityofharriman.net/Farmers_Market.html","facebook":"https://www.facebook.com/HarrimanFarmersMarket/","twitter":"","street":"301 Emory Drive","city":"Harriman","state":"tn","zip":"37748","x":"-84.554213","y":"35.929409","tags":"baked goods eggs vegetables honey jams nuts soap pet food"},{"type":"market","name":"Henderson County Farmers Market","website":"","facebook":"","twitter":"","street":"","city":"Lexington","state":"tn","zip":"","x":"-86.9244","y":"36.0997","tags":""},{"type":"market","name":"Henry County Farmers Market","website":"","facebook":"","twitter":"","street":"Henry County Fairgrounds","city":"Paris","state":"tn","zip":"38242","x":"-88.3112","y":"36.3051","tags":""},{"type":"market","name":"Henry Horton State Park Farmers Market","website":"","facebook":"","twitter":"","street":"4358 Nashville Hwy","city":"Chapel Hill","state":"tn","zip":"37034","x":"-86.694751","y":"35.590458","tags":"flowers eggs herbs vegetables honey jams soap beans"},{"type":"market","name":"Hip Donelson Community Farmers Market","website":"http://www.donelsonfarmersmarket.org","facebook":"https://www.facebook.com/HipDonelsonFarmersMarket/","twitter":"","street":"2730 Lebanon Road","city":"Nashville","state":"tn","zip":"37214","x":"-86.665225","y":"36.168537","tags":"organic baked goods cheese flowers eggs herbs vegetables honey jams maple nuts plants poultry prepared-foods soap coffee beans fruits grains juices mushrooms pet food wild"},{"type":"market","name":"Hip Donelson Community Farmers Market @ Music Valley","website":"http://donelsonfarmersmarket.org","facebook":"","twitter":"","street":"2416 Music Valley Drive","city":"Nashville","state":"tn","zip":"37214","x":"-86.695750","y":"36.219444","tags":"baked goods cheese flowers eggs seafood herbs vegetables honey jams maple meat nuts poultry prepared-foods soap wine coffee fruits grains juices pet food wild"},{"type":"market","name":"Johnson City Farmers Market","website":"http://www.johnsoncityfarmersmarket.com","facebook":"https://www.facebook.com/pages/Johnson-City-Farmers-Market/241717076230?fref=ts","twitter":"","street":"State of Franklin & South Roan Street","city":"Johnson City","state":"tn","zip":"37601","x":"-82.350100","y":"36.316198","tags":"baked goods cheese crafts flowers eggs vegetables honey jams meat nuts plants poultry prepared-foods soap trees coffee fruits grains pet food"},{"type":"market","name":"Johnson County Farmers Market","website":"http://www.johnsoncountyfm.org","facebook":"https://www.facebook.com/Johnson-County-Farmers-Market-353262790131/?ref=aymt_homepage_panel","twitter":"","street":"110 Court St.","city":"Mountain City","state":"tn","zip":"37683","x":"-81.805620","y":"36.475769","tags":"organic baked goods crafts flowers eggs herbs vegetables honey jams meat nuts plants poultry prepared-foods soap trees coffee fruits grains juices"},{"type":"market","name":"Jonesborough Farmers Market","website":"http://www.jonesborough.locallygrown.net","facebook":"https://www.facebook.com/pages/Jonesborough-Farmers-Market/273832686985","twitter":"","street":"105 Courthouse Square","city":"Jonesborough","state":"tn","zip":"37659","x":"-82.4728498","y":"36.2940568","tags":"baked goods cheese crafts flowers eggs herbs vegetables honey jams meat nuts plants poultry prepared-foods soap trees coffee fruits mushrooms"},{"type":"market","name":"Kedron Farmers Market ","website":"","facebook":"","twitter":"","street":"6001 Hwy.48 S","city":"Dickson ","state":"tn","zip":"37055","x":"-87.477110","y":"35.943639","tags":"baked goods eggs herbs vegetables honey jams meat prepared-foods soap fruits mushrooms"},{"type":"market","name":"kingsport farmers market","website":"","facebook":"","twitter":"","street":"conor of clinchfild and center street","city":"kingsport tn.","state":"tn","zip":"","x":"-82.5648","y":"36.551","tags":"baked goods crafts flowers herbs vegetables honey jams maple meat nuts plants soap"},{"type":"market","name":"Kingston Springs Farmers & Artisans Market","website":"https://www.ksfarmersmarket.org","facebook":"https://www.facebook.com/KSFarmersMarket","twitter":"","street":"147 Harpeth View Trail","city":"Kingston Springs ","state":"tn","zip":"37082","x":"-87.0965400","y":"36.0890320","tags":"meat prepared-foods soap"},{"type":"market","name":"Knoxville Farmers Market -Laurel","website":"http://www.easttnfarmmarkets.org/","facebook":"https://www.facebook.com/pages/FARM-Markets-Knoxville-Oak-Ridge/125470877524884","twitter":"","street":"3457 Kingston Pike","city":"Knoxville ","state":"tn","zip":"","x":"-83.960966","y":"35.947756","tags":"organic baked goods cheese flowers eggs herbs vegetables honey jams meat plants trees fruits"},{"type":"market","name":"Knoxville Farmers Market- Ebenezer Road","website":"http://easttnfarmmarkets.org","facebook":"Ebenezer Road Farmers Market","twitter":"Ebenezer Road Farmers Market","street":"1001 Ebenezer Road","city":"Knoxville ","state":"tn","zip":"37923","x":"-84.0706129","y":"35.8930945","tags":"baked goods cheese crafts flowers eggs seafood herbs vegetables honey jams meat plants poultry soap trees fruits mushrooms"},{"type":"market","name":"Knoxville Farmers Market- Lakeshore","website":"http://easttnfarmmarkets.org","facebook":"Lakeshore Farmers Market","twitter":"Lakeshore Farmers Market","street":"Lakeshore Park","city":"Knoxville","state":"tn","zip":"","x":"-83.9883144","y":"35.9221074","tags":"baked goods cheese crafts flowers eggs seafood herbs vegetables honey jams meat plants poultry soap trees fruits mushrooms"},{"type":"market","name":"Lawrence County Farmers Market","website":"","facebook":"","twitter":"","street":"Mahr & Taylor Streets","city":"Lawrenceburg","state":"tn","zip":"38464","x":"-87.3368","y":"35.2401","tags":""},{"type":"market","name":"Lebanon Farmers Market","website":"","facebook":"","twitter":"","street":"4195 Maple Street","city":"Lebanon","state":"tn","zip":"37087","x":"-86.2921","y":"36.2105","tags":""},{"type":"market","name":"Lookout Farmers Market","website":"http://LookoutFarmersMarket.org","facebook":"Lookout Farmers Market","twitter":"","street":"7430 Shallowford Road","city":"Chattanooga","state":"tn","zip":"37412","x":"-85.1475406","y":"35.0380152","tags":"organic baked goods cheese crafts flowers eggs herbs vegetables honey jams meat nuts plants poultry prepared-foods soap trees coffee fruits juices mushrooms wild"},{"type":"market","name":"Macon County Farmers Market","website":"http://www.maconcountytn.com/farmers.market.htm","facebook":"","twitter":"","street":"Key Park on Church Street","city":"Lafayette","state":"tn","zip":"37083","x":"-86.0117","y":"36.5387","tags":""},{"type":"market","name":"Main Street Dyersburg Farmers Market","website":"","facebook":"https://www.facebook.com/groups/119877659959/","twitter":"","street":"335 Clark Ave. South","city":"Dyersburg","state":"tn","zip":"38024","x":"-89.389356","y":"36.030636","tags":"baked goods crafts flowers eggs vegetables honey meat nuts prepared-foods soap fruits pet food"},{"type":"market","name":"Main Street Farmers Market","website":"http://www.mainstfarmersmarket.com","facebook":"https://www.facebook.com/mainstfarmersmarket","twitter":"https://twitter.com/MainStFarmers","street":"325 East Main St","city":"Chattanooga","state":"tn","zip":"37408","x":"-85.3035113","y":"35.0347171","tags":"organic baked goods cheese crafts flowers eggs seafood herbs vegetables honey jams maple meat nuts plants poultry prepared-foods soap coffee fruits grains juices mushrooms wild"},{"type":"market","name":"Main Street Saturday Market of Murfreesboro","website":"http://www.downtownmurfreesboro.com","facebook":"Saturday Market on the Square","twitter":"","street":"historic public square of downtown Murfreesboro around the courthouse","city":"Murfreesboro","state":"tn","zip":"37130","x":"-86.3902700","y":"35.8456213","tags":"organic baked goods flowers eggs vegetables honey jams meat plants poultry trees coffee fruits"},{"type":"market","name":"Manchester Locally Grown online farmers' market","website":"","facebook":"https://www.facebook.com/ManchesterLocallyGrownFarmersMarket?ref=hl","twitter":"","street":"113 East Main Street","city":"Manchester","state":"tn","zip":"37355","x":"-86.087634","y":"35.482998","tags":"organic baked goods cheese crafts flowers eggs herbs vegetables honey jams meat plants poultry prepared-foods soap trees fruits grains juices mushrooms pet food"},{"type":"market","name":"Marble Springs Farmers Market","website":"http://www.marblesprings.net/#!farmers-market/c6dt","facebook":"www.facebook.com/marble.springs","twitter":"marblesprings","street":"1220 W Governor John Sevier Highway","city":"Knoxville","state":"tn","zip":"37920","x":"-83.876818","y":"35.896958","tags":"baked goods crafts vegetables honey jams soap"},{"type":"market","name":"Market Square Farmers' Market","website":"https://www.nourishknoxville.org/market-square-farmers-market/","facebook":"https://www.facebook.com/marketsquarefarmersmarket/","twitter":"https://twitter.com/MktSqFarmersMkt","street":"Market Square","city":"Knoxville","state":"tn","zip":"37901","x":"-83.919249","y":"35.964694","tags":"organic baked goods cheese crafts flowers eggs seafood herbs vegetables honey jams maple meat nuts plants poultry prepared-foods soap trees coffee beans fruits grains juices mushrooms pet food wild"},{"type":"market","name":"Market Square Holiday Market","website":"https://www.nourishknoxville.org/holiday-market/","facebook":"https://www.facebook.com/marketsquarefarmersmarket/","twitter":"https://twitter.com/MktSqFarmersMkt","street":"Market Street and Union Avenue","city":"Knoxville","state":"tn","zip":"37901","x":"-83.9192661","y":"35.9647029","tags":"organic baked goods cheese crafts flowers eggs seafood herbs vegetables honey jams maple meat nuts poultry prepared-foods soap coffee fruits grains juices mushrooms pet food wild"},{"type":"market","name":"Marshall County Farmers Market","website":"","facebook":"","twitter":"","street":"540 Vista Street","city":"Lewisburg","state":"tn","zip":"37091","x":"-86.7796","y":"35.4632","tags":""},{"type":"market","name":"Martin Area Food Fair","website":"","facebook":"","twitter":"","street":"Main Streeet","city":"Martin","state":"tn","zip":"38237","x":"-88.8505","y":"36.3454","tags":""},{"type":"market","name":"Maryville Farmers Market - Saturdays","website":"http://www.maryvillefarmersmarket.org","facebook":"Maryville Farmers Market","twitter":"","street":"Founders Square","city":"Maryville","state":"tn","zip":"37801","x":"-83.969504","y":"35.756987","tags":"baked goods flowers eggs herbs vegetables honey meat soap fruits"},{"type":"market","name":"McMinn County Farmers Market","website":"","facebook":"","twitter":"","street":"","city":"Athens","state":"tn","zip":"","x":"-84.567284","y":"35.394518","tags":"vegetables honey fruits"},{"type":"market","name":"Memphis Farmers Market","website":"http://www.memphisfarmersmarket.org","facebook":"facebook.com/memphisfarmersmarket","twitter":"twitter.com/memfarmersmkt","street":"G. E. Patterson and South Front Streets","city":"Memphis","state":"tn","zip":"38103","x":"-90.0607888","y":"35.1328530","tags":"organic baked goods cheese crafts flowers eggs seafood herbs vegetables honey jams meat nuts plants poultry prepared-foods soap trees coffee fruits grains juices mushrooms pet food"},{"type":"market","name":"Milan Farmers' Market","website":"http://www.farmersmarketmilan.com","facebook":"https://www.facebook.com/farmersmarketmilan","twitter":"","street":"3098 Highland Avenue","city":"Milan","state":"tn","zip":"38358","x":"-88.753863","y":"35.914023","tags":"baked goods cheese crafts eggs herbs vegetables jams meat plants poultry prepared-foods fruits grains juices"},{"type":"market","name":"Millington Farmers' Market","website":"http://www.millingtonfarmersmarket.com","facebook":"https://www.facebook.com/millingtonfarmersmarket","twitter":"https://twitter.com/millingtonarp","street":"5152 Easley Street","city":"Millington","state":"tn","zip":"38053","x":"-89.891145","y":"35.341980","tags":"baked goods crafts flowers eggs herbs vegetables honey jams nuts plants prepared-foods soap coffee fruits"},{"type":"market","name":"Monroe County Farmers' Markets- Tellico Plains","website":"https://sites.google.com/site/mcfarmmarket/","facebook":"https://www.facebook.com/MCFarmMarket","twitter":"","street":"225 Cherohala Skyway","city":"Tellico Plains ","state":"tn","zip":"37385","x":"-84.298430","y":"35.367116","tags":"baked goods crafts eggs herbs vegetables honey jams plants prepared-foods soap fruits"},{"type":"market","name":"Montgomery County Farmers Market","website":"","facebook":"","twitter":"","street":"L & N Train Station","city":"Clarksville","state":"tn","zip":"37043","x":"-87.2665","y":"36.5145","tags":""},{"type":"market","name":"Morgan County Farmers Market","website":"","facebook":"","twitter":"","street":"USDA Service Center","city":"Warburg","state":"tn","zip":"37887","x":"-84.5863","y":"36.1034","tags":""},{"type":"market","name":"Morristown Farmers Market","website":"http://www.crossroadspartnership.com","facebook":"https://www.facebook.com/CrossroadsDowntownPartnership","twitter":"https://twitter.com/CrossroadsDowntown","street":"130 West Morris Blvd.","city":"Morristown","state":"tn","zip":"37813","x":"-83.292208","y":"36.211696","tags":"baked goods crafts flowers eggs herbs vegetables honey jams meat plants poultry fruits"},{"type":"market","name":"Mountain City Farmers Market","website":"","facebook":"","twitter":"","street":"1273 S. Shady Street","city":"Mountain City","state":"tn","zip":"37683","x":"-81.7998","y":"36.4596","tags":""},{"type":"market","name":"Mt. Juliet Farmers' Market","website":"http://www.cityofmtjuliet.org/mtjulietfarmersmarket.cfm","facebook":"https://www.facebook.com/MtJulietFarmersMarket","twitter":"","street":"1075 Charlie Daniels Pkwy.","city":"Mt. Juliet","state":"tn","zip":"37122","x":"-86.510983","y":"36.222692","tags":"baked goods cheese crafts flowers eggs herbs vegetables honey jams meat nuts plants soap fruits"},{"type":"market","name":"Nashville F.A.R.M I","website":"http://www.geocities.com/farmnashville","facebook":"","twitter":"","street":"6401 Harding Rd.","city":"Nashville","state":"tn","zip":"37208","x":"-86.8858","y":"36.0922","tags":""},{"type":"market","name":"Nashville F.A.R.M. II","website":"http://www.geocities.com/farmnashville","facebook":"","twitter":"","street":"4101 Harding Road","city":"Nashville","state":"tn","zip":"37208","x":"-86.8492","y":"36.0931","tags":""},{"type":"market","name":"Nashville F.A.R.M. III","website":"http://www.geocities.com./farmnsahville","facebook":"","twitter":"","street":"2100 Woodmont Blvd.","city":"Nashville","state":"tn","zip":"37208","x":"-86.812","y":"36.1141","tags":""},{"type":"market","name":"Nashville F.A.R.M. IV","website":"http://www.geocities.com/farmnashville","facebook":"","twitter":"","street":"3016 Nollensville Road","city":"Nashville","state":"tn","zip":"37208","x":"-86.7892","y":"36.1698","tags":""},{"type":"market","name":"Nashville Farmers' Market","website":"","facebook":"","twitter":"","street":"Powell Ave.","city":"Nashville","state":"tn","zip":"","x":"-86.7848","y":"36.1694","tags":"cheese flowers herbs vegetables honey meat"},{"type":"market","name":"New Harvest Park Farmers Market","website":"","facebook":"https://www.facebook.com/pages/New-Harvest-Park-Farmers-Market/133230580066187","twitter":"","street":"4775 New Harvest Lane","city":"Knoxville","state":"tn","zip":"37918","x":"-83.8845580","y":"36.0400250","tags":"organic baked goods cheese crafts flowers eggs herbs vegetables honey jams meat plants poultry prepared-foods soap trees coffee beans fruits grains pet food"},{"type":"market","name":"Nolensville Farmer's Market","website":"http://www.nolensvillefarmersmarket.com","facebook":"www.facebook.com/nolensvillefarmersmarket","twitter":"@NolensvilleFM","street":"7248 Nolensville Rd.","city":"Nolensville","state":"tn","zip":"37135","x":"-86.6727292","y":"35.9589905","tags":"baked goods crafts flowers eggs herbs vegetables honey jams meat nuts poultry prepared-foods soap coffee fruits grains juices mushrooms pet food"},{"type":"market","name":"Nourish Knoxville's Winter Farmers' Market","website":"https://www.nourishknoxville.org/winter-market/","facebook":"https://www.facebook.com/nourishknoxville/","twitter":"https://twitter.com/NourishKnox","street":"201 3rd Avenue","city":"Knoxville","state":"tn","zip":"37917","x":"-83.922656","y":"35.976857","tags":"baked goods cheese crafts flowers eggs seafood herbs vegetables honey jams maple meat plants poultry prepared-foods soap coffee beans fruits juices pet food"},{"type":"market","name":"Oak Ridge Farmers Market","website":"http://easttnfarmmarkets.org","facebook":"oak ridge farmers market","twitter":"oak ridge farmers market","street":"Jackson Square","city":"Oak Ridge ","state":"tn","zip":"37830","x":"-84.2401994","y":"36.0248008","tags":"baked goods cheese crafts flowers eggs herbs vegetables honey jams meat plants poultry soap trees fruits mushrooms"},{"type":"market","name":"Obion County Farmer's Market","website":"","facebook":"https://www.facebook.com/Obion-County-Farmers-Market-441072489305447/","twitter":"","street":"214 East Church Street","city":"Union City","state":"tn","zip":"38261","x":"-89.055838","y":"36.424466","tags":"baked goods crafts flowers eggs seafood vegetables jams meat fruits"},{"type":"market","name":"Ooltewah Farmers Market","website":"http://ooltewahnursery.com/farmers-market/","facebook":"https://www.facebook.com/OoltewahFarmersMarket/","twitter":"","street":"5829 Main Street","city":"Ooltewah","state":"tn","zip":"37363","x":"-85.060308","y":"35.080366","tags":"organic baked goods flowers eggs herbs vegetables honey jams maple meat nuts poultry prepared-foods soap coffee fruits grains mushrooms wild"},{"type":"market","name":"Overton Park Community Farmers Market","website":"http://www.overtonparkcfm.org","facebook":"www.facebook.com/overtonparkcfm","twitter":"twitter.com/overtonparkcfm","street":"389 East Parkway","city":"Memphis ","state":"tn","zip":"38112","x":"-89.983001","y":"35.147085","tags":"organic baked goods cheese crafts flowers eggs herbs vegetables honey jams meat nuts plants poultry prepared-foods soap coffee beans fruits grains juices mushrooms pet food tofu wild"},{"type":"market","name":"Perry County Farmers Market","website":"","facebook":"","twitter":"","street":"Old Highway 13","city":"Linden","state":"tn","zip":"37096","x":"-87.8426","y":"35.606","tags":""},{"type":"market","name":"Plowboy Produce Auction & Wholesale Farmers Market","website":"","facebook":"","twitter":"","street":"469 South Brace Road","city":"Ethridge","state":"tn","zip":"38456","x":"-87.3021","y":"35.3375","tags":""},{"type":"market","name":"River City Farmers Market","website":"http://www.tourhardincounty.org","facebook":"River City Market","twitter":"@RiverCityMarket","street":"465 Main Street","city":"Savannah ","state":"tn","zip":"38372","x":"-88.2503532","y":"35.2247713","tags":"organic baked goods cheese crafts flowers eggs herbs vegetables honey jams maple meat plants prepared-foods soap fruits"},{"type":"market","name":"Robertson County Farmer's Market ","website":"","facebook":"Robertson County (TN) ","twitter":"","street":"4635 Hwy 41 North","city":" Sprigfield","state":"tn","zip":"37172","x":"-86.878407","y":"36.522861","tags":"baked goods flowers herbs vegetables honey plants poultry fruits"},{"type":"market","name":"Rogersville Farmers Market","website":"","facebook":"","twitter":"","street":"85 Main St.","city":"Rogersville","state":"tn","zip":"37857","x":"-82.9054","y":"36.4659","tags":""},{"type":"market","name":"Rutherford County Farmers' Market","website":"https://extension.tennessee.edu/Rutherford/Pages/Farmers-Market.aspx","facebook":"https://www.facebook.com/RutherfordCountyFarmersMarket","twitter":"https://twitter.com/rcfarmersmarket","street":"315 John R RIce Blvd.","city":"Murfreesboro","state":"tn","zip":"37129","x":"-86.448237","y":"35.854215","tags":"baked goods cheese flowers eggs herbs vegetables honey jams meat plants poultry prepared-foods soap trees fruits mushrooms"},{"type":"market","name":"Scott County Farmers' Market","website":"","facebook":"","twitter":"","street":"600 Scott High Drive","city":"Huntsville","state":"tn","zip":"37756","x":"-84.5328257","y":"36.4061698","tags":"baked goods cheese crafts flowers eggs seafood herbs honey jams plants poultry prepared-foods trees coffee beans fruits grains wild"},{"type":"market","name":"Seven Harvest Farmers Market","website":"","facebook":"","twitter":"","street":"4630 Raliegh LaGrange","city":"Memphis","state":"tn","zip":"38128","x":"-89.9094","y":"35.1992","tags":"herbs honey meat prepared-foods"},{"type":"market","name":"Seymour Farmers Market","website":"http://www.seymourfarmersmarket.org","facebook":"","twitter":"","street":"11621 Chapman Hwy","city":"Seymour ","state":"tn","zip":"37865","x":"-83.7509235","y":"35.8656558","tags":"baked goods crafts flowers eggs herbs vegetables honey jams soap fruits"},{"type":"market","name":"Shull's Farmer and Gardener Co-op","website":"http://www.shullsfarm.com","facebook":"","twitter":"","street":"4249 Roan Creek Road","city":"Mountain City","state":"tn","zip":"37683","x":"-81.8588","y":"36.3961","tags":""},{"type":"market","name":"Signal Mountain Farmers' Market","website":"","facebook":"https://www.facebook.com/pages/Signal-Mountain-Farmers-Market/234456109904308","twitter":"","street":"2815 Anderson Pike","city":"Signal Mountain","state":"tn","zip":"37377","x":"-85.322198","y":"35.163464","tags":"organic baked goods cheese crafts flowers eggs herbs vegetables honey jams meat plants poultry prepared-foods soap coffee fruits pet food"},{"type":"market","name":"Smith County Farmers Market","website":"","facebook":"https://www.facebook.com/pages/Smith-County-Farmers-Market/253009170501","twitter":"","street":"110 Ag. Center lane","city":"Carthage","state":"tn","zip":"37030","x":"-85.9461859","y":"36.2233523","tags":"baked goods flowers eggs vegetables honey jams plants trees fruits"},{"type":"market","name":"Smith County Fruit & Vegetable Association F M","website":"","facebook":"","twitter":"","street":"Smith County Tobacco Warehouse","city":"South Cathage","state":"tn","zip":"37030","x":"-85.9491","y":"36.2372","tags":""},{"type":"market","name":"Smyrna Farmers Market","website":"","facebook":"","twitter":"","street":"108 David Collins Drive","city":"Smyrna","state":"tn","zip":"","x":"-86.5236","y":"35.9822","tags":""},{"type":"market","name":"South Cumberland Farmers Market","website":"https://sewanee.locallygrown.net/","facebook":"South Cumberland Farmers Market","twitter":"","street":"39 Ballpark Road","city":"Sewanee ","state":"tn","zip":"37375","x":"-85.917223","y":"35.193923","tags":"organic baked goods cheese crafts flowers herbs vegetables honey meat nuts plants poultry soap coffee fruits juices mushrooms wild"},{"type":"market","name":"South Memphis Farmers Market","website":"http://www.somefm.org","facebook":"https://www.facebook.com/somefm","twitter":"@somefm","street":"1400 Mississippi Blvd","city":"Memphis","state":"tn","zip":"38106","x":"-90.03382","y":"35.10873","tags":"organic baked goods herbs vegetables honey jams nuts prepared-foods soap fruits"},{"type":"market","name":"St Albans Hixson Market","website":"","facebook":"https://www.Facebook.com/StAlbansFarmersMarket","twitter":"","street":"7514 Hixson Pike","city":"Hixson","state":"tn","zip":"37343","x":"-85.173264","y":"35.172184","tags":"baked goods crafts flowers eggs herbs vegetables honey jams meat plants soap coffee fruits"},{"type":"market","name":"State Street Farmers Market","website":"http://www.brisltn.org/venue/farmersmarketindex.html","facebook":"","twitter":"","street":"Stat Street","city":"Bristol","state":"tn","zip":"37625","x":"-82.1388","y":"36.5844","tags":""},{"type":"market","name":"Stones River Market","website":"http://stonesriver.locallygrown.net/","facebook":"https://www.facebook.com/StonesRiverMarket","twitter":"","street":"310 West Main St","city":"Murfreesboro ","state":"tn","zip":"37130","x":"-86.394250","y":"35.846262","tags":"organic baked goods cheese crafts flowers eggs herbs vegetables honey jams meat plants poultry soap trees coffee fruits grains juices mushrooms pet food"},{"type":"market","name":"The Clarksville Downtown Market","website":"http://www.cityofclarksville.com/index.aspx?page=406","facebook":"https://www.facebook.com/ClarksvilleDowntownMarket/","twitter":"","street":"One Public Square","city":"Clarksville","state":"tn","zip":"37040","x":"-87.361048","y":"36.528219","tags":"organic baked goods crafts flowers eggs herbs vegetables honey jams meat nuts plants poultry prepared-foods soap fruits grains juices mushrooms pet food wild"},{"type":"market","name":"The Farmers Market at East Tennessee State University","website":"https://thefarmersmarketatetsu.wordpress.com/","facebook":"https://www.facebook.com/FarmersMarketatETSU","twitter":"@FMatETSU","street":"807 University Parkway","city":"Johnson City","state":"tn","zip":"37614","x":"-82.3640843","y":"36.3042770","tags":"organic baked goods cheese flowers eggs herbs vegetables honey meat prepared-foods soap fruits grains"},{"type":"market","name":"The Farmers Market at Hohenwald","website":"","facebook":"","twitter":"","street":"Lewis County Courthouse Square","city":"Hohenwald","state":"tn","zip":"38462","x":"-87.5519","y":"35.5496","tags":""},{"type":"market","name":"The Garden Barn Farmers Market","website":"","facebook":"","twitter":"","street":"South Shady Street","city":"Mountain City","state":"tn","zip":"37683","x":"-81.7984","y":"36.4522","tags":""},{"type":"market","name":"Thompson's Station Farmers Market","website":"http://www.outdoorencounter.org","facebook":"https://www.facebook.com/ThompsonsStationFarmersMarket","twitter":"","street":"4691 Columbia Pike","city":"Thompson's Station","state":"tn","zip":"37179","x":"-86.9064510","y":"35.7981650","tags":"baked goods cheese crafts eggs herbs vegetables honey jams meat nuts plants poultry prepared-foods soap fruits"},{"type":"market","name":"Town of Unicoi Farmers' Market","website":"http://www.unicoitn.net/farmers-market","facebook":"https://www.facebook.com/townofunicoitn/","twitter":"","street":"106 Unicoi Village Place","city":"Unicoi","state":"tn","zip":"37692","x":"-82.350705","y":"36.207772","tags":"baked goods eggs vegetables soap pet food"},{"type":"market","name":"Tri-State Farmers Market","website":"","facebook":"","twitter":"","street":"Methodist Church","city":"Tazewell","state":"tn","zip":"37879","x":"-83.5532","y":"36.4678","tags":""},{"type":"market","name":"Tullahoma Locally Grown Market","website":"http://www.tullahoma.locallygrown.net","facebook":"","twitter":"","street":"201 NW Atlantic St.","city":"Tullahoma","state":"tn","zip":"37388","x":"-86.2108","y":"35.3634","tags":""},{"type":"market","name":"Union County Farmers' Market","website":"","facebook":"https://www.facebook.com/UnionCountyFarmersMarket","twitter":"","street":"1009 Main Street","city":"Maynardville ","state":"tn","zip":"37807","x":"-83.798171","y":"36.250391","tags":"baked goods cheese crafts flowers eggs herbs vegetables honey jams meat nuts plants poultry prepared-foods soap trees fruits mushrooms wild"},{"type":"market","name":"UT Farmers Market","website":"http://vegetables.tennessee.edu/utfm.html","facebook":"https://www.facebook.com/UT-Farmers-Market-197864066906773/","twitter":"","street":"2518 Jacob Drive","city":"Knoxville, TN","state":"tn","zip":"37996","x":"-83.9384194","y":"35.9449944","tags":"organic baked goods cheese crafts flowers eggs herbs vegetables honey jams meat plants prepared-foods soap trees beans fruits grains juices pet food"},{"type":"market","name":"Warren County Farmers Market","website":"","facebook":"","twitter":"","street":"City Parking Lot behind Main Street","city":"McMinniville","state":"tn","zip":"37110","x":"-85.7724","y":"35.6869","tags":""},{"type":"market","name":"West TN Farmer's Market","website":"http://www.cityofjackson.net","facebook":"West Tennesse Farmers Market","twitter":"","street":"91 New Market Street","city":"Jackson","state":"tn","zip":"38301","x":"-88.8207614","y":"35.6157758","tags":"baked goods cheese crafts flowers eggs seafood herbs vegetables honey jams meat nuts plants poultry prepared-foods soap trees coffee fruits juices pet food"},{"type":"market","name":"White County Farmers Market","website":"http://www.utextension.utk.edu/white","facebook":"","twitter":"","street":"Metcalf Park","city":"Sparta","state":"tn","zip":"38583","x":"-85.4723","y":"35.9519","tags":""},{"type":"market","name":"White House Farmers Merket","website":"http://www.cityofwhitehouse.com/government/white-house-farmers-market-information","facebook":"https://www.facebook.com/WHFarmersMarket/","twitter":"https://twitter.com/","street":"105 College Street","city":"White House","state":"tn","zip":"37188","x":"-86.6525697","y":"36.4679044","tags":"organic baked goods eggs seafood herbs vegetables honey jams meat plants prepared-foods soap fruits pet food"},{"type":"market","name":"White's Creek Organic Farmers Market","website":"","facebook":"","twitter":"","street":"Loacated at Earhman's General Store","city":"Whites Creek","state":"tn","zip":"37189","x":"-86.7169","y":"36.3367","tags":""},{"type":"market","name":"Whitehaven Kulliye Farmers Market","website":"https://whitehavenkulliye.org/the-suq/","facebook":"","twitter":"","street":"3379 Millbranch Road","city":"Memphis ","state":"tn","zip":"38116","x":"-90.008281","y":"35.055288","tags":"baked goods eggs herbs vegetables honey jams coffee fruits grains juices wild"},{"type":"market","name":"Winter Farmers Market by Grow Oak Ridge","website":"http://www.growoakridge.org","facebook":"https://www.facebook.com/GrowOakRidge/","twitter":"","street":"323 Vermont Avenue","city":"Oak Ridge","state":"tn","zip":"37830","x":"-84.251074","y":"36.017217","tags":"baked goods cheese crafts flowers eggs seafood herbs vegetables honey jams meat plants poultry prepared-foods soap trees beans grains pet food"}]
